UID,NAME,PROV,CITY,DIST,ADDRESS,TEL,LONG,LAT
b2a7c7c3dc19b0015cd4fe94,沈阳安九州装饰材料有限公司,,,,辽宁省沈阳市市于洪区沈阳经济技术开发区沈新路310-6号,,123.247521,41.800586
03e92c0633809e9516948e5b,沈阳隆成高分子装饰材料有限公司,辽宁省,沈阳市,于洪区,翟家街道经济开发区浑河17街开发26号路54号,,123.242728,41.70979
81954e7187f7ad0cae080f7b,军诚装饰,,,,中央南大街与中央大街交叉口东100米,,123.256781,41.749718
86033fde4d479b00fda7783c,吉诺尔装饰材料公司,,,,辽宁省沈阳市于洪区开发二十二号路36号,,123.239526,41.725583
54df8a0e53c438356f3e1bf6,大华汽车美容会所,辽宁省,沈阳市,于洪区,辽宁省沈阳市铁西区沈辽西路100号-1-8门,,123.265193,41.757921
f54747238bdd93208936ee99,兄弟五金建材装饰,,,,辽宁省沈阳市于洪区中央大街27甲2号6门,,123.258313,41.755406
f9d8e5f1fbd9acca14b54b39,欧佳装饰,,,,辽宁省沈阳市于洪区中央大街29-54-7门,,123.255397,41.753497
5da4656037e18e634afc8d20,宏宇装饰,,,,辽宁省沈阳市铁西区中央大街28-8网点2门,,123.251022,41.752241
9d57ce976d7979cbeb1e9732,沈阳金都铝业装饰工程有限公司,,,,浑河三街沈阳金都铝业装饰工程有限公司附近,,123.287791,41.737219
95501354fd260ee6d23ce30f,佳利福装修装饰材料,,,,辽宁省沈阳市于洪区沈辽西路168号15-12门,,123.227783,41.73247
783951575b383014f603b842,谦诚装饰公司,,,,辽宁省沈阳市于洪区金湖街(嘉鹏宾馆东南),,123.290051,41.799154
bbf1ff1d4fb5da0141e19255,鑫浩天装饰材料城,辽宁省,沈阳市,于洪区,沈阳市铁西区,,123.269704,41.751831
21f05caa680f8205c42ba19c,佳邑装饰(中央大街精品店),辽宁省,沈阳市,于洪区,沈阳市铁西区中央大街27甲7门,,123.257995,41.755024
8c9532b06b246fa82d4733c5,悦景装饰,,,,浑河十一街1-5号1门,,123.243246,41.738076
b299cc81123a7990b320a8ef,沈阳时苑装饰工程有限公司,辽宁省,沈阳市,于洪区,南四号街东150米,,123.283477,41.756428
8912cb807f7bcfdbede4a5c8,会友装饰,,,,辽宁省沈阳市铁西区中央大街20-甲2-30,67891765;15542243349,123.251105,41.762613
3c2e240dd6592a75a6c75649,鹏达装饰,,,,浑河二街2甲6号19号楼3-1-1淀粉厂对面,,123.276084,41.757198
aab1499043dd80aa3be4a68c,晋鼎装饰(中央大街店),,,,辽宁省沈阳市于洪区中央大街20甲1-4-22网点3门,,123.245859,41.76829
4d82c8b471f81ed0344aae97,新众点汽车美容装饰中心,,,,辽宁省沈阳市于洪区G102(京哈公路),,123.197211,41.794185
0bb1dad3e1825c9b6d20b97c,意匠装饰,,,,辽宁省沈阳市铁西区十三号路15号-9号1门,,123.249136,41.759388
e6c1da90792df26558109329,宜居意诚装饰,,,,中央大街远大家园底商,,123.253164,41.753526
9120b23dee2bc866c27da207,杰泰装饰,辽宁省,沈阳市,于洪区,开发区中央大街29-53网点2门,(024)31815577,123.254815,41.752839
c6843424837b722715c8f6d7,中外装饰设计,辽宁省,沈阳市,于洪区,中央南大街与中央大街交叉口东200米,,123.258096,41.750401
9eae810eebfa757e715e802c,禹佳防水,,,,四号街与沈辽路交叉口西150米,,123.277181,41.761043
cfe7d26c4425133497ec841f,佳美装饰,,,,辽宁省沈阳市于洪区开发大路9-1网点3门,024-67792918,123.264966,41.768454
b446c050cfae011d9c09f704,亚雅装饰图文美术,,,,沈阳市铁西区,,123.250922,41.763633
a0b34f1ef3f251ceeb12e4dd,星云装饰工程有限公司,,,,沈阳市铁西区,,123.237666,41.74464
cd2587375fb19ca987420e69,金霞装饰,辽宁省,沈阳市,于洪区,辽宁省沈阳市铁西区曹后公路,,123.228107,41.732578
8f6f9c8b188ec2f9d7851ffb,天启装饰,辽宁省,沈阳市,于洪区,辽宁省沈阳市于洪区G102(沙岭路),,123.205985,41.798491
f21a93a1feb682ca5cd4fe63,大海装饰材料,,,,辽宁省沈阳市于洪区沙岭路64-5,,123.208054,41.799723
f526cb7e3cb50027cd04efa4,懿轩装饰王氏诚信建材,辽宁省,沈阳市,于洪区,辽宁省沈阳市于洪区沙岭路64-7,,123.207675,41.800538
e6012f53962d40779122e0fb,旭辉装饰建材,,,,中央大街25-1号附近,,123.255969,41.756268
dd85a3dae7377cff95ca0732,铭扬装饰建材,辽宁省,沈阳市,于洪区,沈辽西路122-25号2门,,123.249369,41.749533
265b6658bb9a195a2b3a9fc1,兴顺汽车装饰,辽宁省,沈阳市,于洪区,辽宁省沈阳市铁西区沈辽路,,123.244077,41.745208
58bc105ced1becd0d13ce3e2,和美家装,,,,辽宁省沈阳市于洪区G102(京哈公路),,123.207874,41.796341
d74314e0cb32b977a204640a,珍典装饰,辽宁省,沈阳市,于洪区,沙岭路64-3网点附近,,123.207646,41.798899
7aeb6f725f790b5128b97ca4,沈阳鑫艺缘装饰装修工程有限公司,辽宁省,沈阳市,于洪区,沙岭街道沙岭路水木城典西门,,123.207646,41.798899
e856fc4570f17ef509a8d429,添福装饰,辽宁省,沈阳市,于洪区,沙岭街道水木城典西门17号1门,,123.207675,41.800538
6fdddae99ff64044c2f1cfe5,谦诚装饰公司-东北门,,,,金湖街与黄海路交叉口西北150米,,123.290058,41.799008
b5a345c2daa34a442a02e1b8,鑫昊装饰,,,,沈辽西路122-22网点7门,,123.250069,41.748446
dfb4212870af3497b75f1e43,鑫宝荣防水堵漏工程有限公司,,,,沈阳市铁西区,,123.226852,41.731938
8cba4bb05edaa384ac04579d,沈阳龙坤装饰工程有限公司,辽宁省,沈阳市,铁西区,辽宁省沈阳市铁西区建设东路49号-3门,(024)25657007,123.385241,41.796654
622bbf7217e42b6b0a69d9a2,沈阳世博天逸装饰设计有限公司,,,,汪河路33号E16幢1门,,123.367456,41.763716
5dbd2f68ded54b32932ca3bf,龙发装饰,,,,兴华北街45号e附近,,123.379978,41.803324
a12baa40ac85e656e956fa96,兴龙达汽车美饰,辽宁省,沈阳市,铁西区,兴工北街106号-6门,024-25845656,123.393746,41.802036
fd4942591adc6ea95e0d02b0,沈阳枫和万家装饰工程有限公司,辽宁省,沈阳市,铁西区,辽宁省沈阳市铁西区保工南街83号11门,"(024)31671700,4000409339",123.351471,41.791298
b1fab0bf365d72e748cc4a92,峰之翼钣金喷漆美容装饰快修保养,,,,辽宁省沈阳市和平区南十马路3号-2门,,123.3912,41.782536
eaa697d257197581dbd891a9,沈阳龙五锦踏装饰材料有限公司,,,,勋望街与八马路交叉口,,123.367695,41.796713
a391cc18445534ccb35c6a3a,桓宇装饰工程有限公司,辽宁省,沈阳市,铁西区,兴华北街25-1-2门(君临天下东门对面),,123.38329,41.807402
3ee511a3b46df327d5b74e06,米兰装饰,,,,沈阳市于洪区汪河路33号,,123.36726,41.763262
6fc65c0c05c605214bcc4a9c,世玺装饰,,,,辽宁省沈阳市铁西区建设东路29号,"17612459270,(024)67866205",123.38781,41.795201
d55fe6d651e4fe35deee8bae,沈阳普临装饰设计部,辽宁省,沈阳市,铁西区,建设东路35号2门假日国际大厦22层A2202,,123.386416,41.796211
93c582bcd796982af8dc8513,王斌相框,辽宁省,沈阳市,铁西区,沈阳市铁西区小七路29号,(024)25658756,123.367884,41.797715
982fa06430682c599868b4f3,爱贝儿国际幼儿园(装修中),,,,兴顺街234号,,123.357968,41.790319
ccbaca6977eca7b716a1901b,佰福莱欧式装修体验馆,,,,九路家具城三期西门97-1号,,123.366168,41.796528
71bdc378798a4c6ee6e96570,晟奥美容装饰,,,,沈阳市铁西区南八西路10-10门,,123.34962,41.802962
f82fc0fceeb0ec8904fef5f1,鑫顺专业贴膜,,,,辽宁省沈阳市于洪区沈新东路1网点28门,,123.336555,41.783546
739b47287d22176d1e1d11c7,恒锋兴业装饰,辽宁省,沈阳市,于洪区,辽宁省沈阳市铁西区花海路35号,,123.300095,41.772695
35b02d624ef3959bab059d58,沈阳常悦装饰工程有限公司,,,,辽宁省沈阳市于洪区细河南路54号(4门),024-31354088,123.355959,41.765361
7685cebd3a909a5d88f15ddc,沈阳优尔派装饰材料有限公司,,,,满融50沈阳碧根医疗器械有限公司附近,,123.344367,41.710589
62bae845925fb75f79b55c06,元进装饰(于洪旗舰店),辽宁省,沈阳市,于洪区,辽宁省沈阳市于洪区吉力湖街60号-1-1门,024-62886583;4006548858,123.370626,41.764819
b75ce6819ce183c9354aaedb,鼎发装饰,,,,汪河路吉力湖街37号楼3门,,123.365796,41.76271
b0eb1473e8c7fefb25e0a009,辰龙彩色装潢印刷中心,辽宁省,沈阳市,铁西区,兴顺街29号-1号-1门,25864174;13940385978,123.36828,41.802753
2b264a9b245d9c8e51e5c5ec,方升装饰,,,,辽宁省沈阳市于洪区南阳湖街154-2号1-12门,,123.337436,41.752696
749c3abf646b2116c7f50dfc,沈阳乐天装饰工程有限公司,辽宁省,沈阳市,铁西区,兴华北街34甲3号(铁西区政府南200米),(024)25644533,123.382321,41.807444
afe7f1271aa5ee588d772782,亿通汽车美容店,辽宁省,沈阳市,铁西区,辽宁省沈阳市铁西区启工街56号-6门,,123.345261,41.80339
7c43b93d12454028e6073887,沈阳百乐家装饰工程有限公司铁西旗舰店,辽宁省,沈阳市,铁西区,辽宁省沈阳市铁西区万达广场A4-8,,123.360706,41.78714
de6b7be7e30a606607fef557,沈阳市铁西区麦吉美术装饰部,,,,沈阳市铁西区保工南街42号213,,123.35579,41.798306
0b7f9333637819a78bf15dfe,美天装饰(建设东路),,,,建设东路11号韵动商务领地4017(南五马路两洞桥),,123.391186,41.793717
487eb511cca34c2a38221ced,沈阳居然装饰,辽宁省,沈阳市,铁西区,建设中路1-1号第一商城B座20层,,123.375858,41.800323
288e375e40bdb55879dbd20c,圣缘装饰,,,,吉利湖街细河南路水调歌城3期56网点10门,,123.355294,41.765179
da1d851d77466e62077ce8b3,鼎泰丰装饰,,,,辽宁省沈阳市铁西区兴工北街122号-7门,31905550;13478869000,123.391476,41.798342
dbf60b7e9fe86425f6c59cae,沈阳馨雅轩装饰工程有限公司,辽宁省,沈阳市,铁西区,建设中路1号第一商城A座10层1013,,123.376189,41.799818
b10342715a571febb1077da6,金鼎发装饰(铁西店),辽宁省,沈阳市,铁西区,兴华北街25-2号,,123.382854,41.807236
82d91f9d23a16c549ee32182,红军汽车装饰,,,,辽宁省沈阳市铁西区卫工南街100号,,123.344684,41.786235
ef26b7b5019e652b2e4733f1,爱车人汽车美容装饰中心,,,,辽宁省沈阳市于洪区沈大路45号-甲,,123.304072,41.805144
2eca59f1a573e5a0a1a934a9,一鸣汽车装饰,,,,沈新东路1号西部汽配新城24-25门,15204093886,123.336555,41.783546
1d04396eefbaa27833169bc4,日丰管装饰材料水暖五金建材,辽宁省,沈阳市,和平区,辽宁省沈阳市和平区南十一马路204附近,,123.392768,41.779097
66f2e555fa0a1fcb79dbd21f,洪晟装饰(艳华街店),,,,艳华街7号(家乐福金牛店南行100米),(024)25911838,123.366829,41.784279
0c621f16bfdae9b08f55ec02,大伟汽车用品装饰,,,,辽宁省沈阳市铁西区沈新东路20号,"024-66684888,024-31381888,024-31381999",123.336731,41.784797
9b40c59602b6374430169b60,长山装饰,辽宁省,沈阳市,铁西区,辽宁省沈阳市铁西区艳欣街4号,18704080279,123.353563,41.784052
be010d7d09593531b05c6a4f,鹏发铜装饰,辽宁省,沈阳市,铁西区,辽宁省沈阳市铁西区兴顺街152,(024)25431311,123.362952,41.796941
a62b0bccc1e769c5d13ce358,广源汽车装饰,辽宁省,沈阳市,铁西区,辽宁省沈阳市铁西区肇工南街182号,,123.341415,41.786909
0964144051248c88bda24019,鸿鑫隆美术装饰,辽宁省,沈阳市,于洪区,沈辽路251甲(杨士乡政府斜对面),,123.312051,41.768013
cebd20ee930263234154d744,轩正装饰智能家居体验店,,,,沈阳市于洪区细河南路南50米,024-31014093;4000479798,123.340317,41.758222
358e28dcaf6255f41ef74d71,炫车汇装饰保养中心,,,,辽宁省沈阳市铁西区南十一路11号-6门,,123.359599,41.793783
79414ef820a7fc0b1b94c603,宏泰装饰(于洪新城店),辽宁省,沈阳市,于洪区,辽宁省沈阳市于洪区细河路120号-3门,(024)31076120,123.345111,41.764657
4cf8bda7577c0338e115f9cd,昌宇装饰工程有限公司,辽宁省,沈阳市,和平区,沈阳市和平区西安街162号,(024)23396388,123.392305,41.782059
eb92d1bc73ed3635afcb66e5,华美装饰,,,,辽宁省沈阳市于洪区腾飞二街滑翔五金城四期95门,,123.357382,41.775894
d7c6317ec03f1eb188b98871,聚酷豪专业汽车美容会所,,,,辽宁省沈阳市铁西区南八西路1-7号7门,,123.350244,41.800866
ca604b5a5a31401bc4f50d27,众意名车装饰,辽宁省,沈阳市,铁西区,北三东路34-9号21门,15040043278,123.385358,41.80555
10153bcf5ab1400bf32d83ce,家乐聚装饰,辽宁省,沈阳市,铁西区,北四中路18号9门,,123.37368,41.807327
2c382c0f43ae104b1fe99951,沈阳凯兴装饰工程有限公司,,,,辽宁省沈阳市于洪区吉利湖街68号网点9号门,,123.367157,41.76857
1dd46d77f1e44b29b45f1e08,大拇指汽车养护中心,,,,沈阳市铁西区江南印象东门7号楼,,123.339895,41.798076
c882603cde72cb96d8d891aa,鼎发装饰,辽宁省,沈阳市,铁西区,辽宁省沈阳市铁西区兴华北街25-2号-3门,,123.382913,41.807157
c08c8295b6f3679aa1d230f0,佳艺软包装饰,,,,辽宁省沈阳市铁西区沈阳市铁西区景星南街40号2楼,18640330127,123.368222,41.799904
66a06be753119dd2a2d23011,五心精装家,,,,辽宁省沈阳市于洪区燕塞湖街,,123.318231,41.772744
5fe5b57bb68d183fb9df8f3f,明晨装饰,,,,大通湖街细河路碧桂园银河城星座门市117号7门,024-31367278,123.338754,41.756416
63eac1825d17571103ff2d60,佳兴装饰工程公司,辽宁省,沈阳市,铁西区,南七中路8甲2门,(024)25858699,123.371195,41.79803
2dfeb079e2116b22901fc924,林泽装饰,,,,辽宁省沈阳市于洪区汪河路碧桂园银河城111-3号,024-66999320,123.34618,41.756444
def66ebc8e13a4d5770269d6,金麒麟喷绘服务社,辽宁省,沈阳市,铁西区,辽宁省沈阳市铁西区勋业三路37号,(024)31231645,123.326882,41.788709
d735095cfe44d03159bbbc97,斯博汽车装饰,辽宁省,沈阳市,铁西区,辽宁省沈阳市铁西区肇工南街182号3门,,123.34134,41.787124
f0ceac135f8f9f5a5a3ac827,晋级装饰(于洪店),辽宁省,沈阳市,于洪区,辽宁省沈阳市于洪区太湖街28号,024-31012477,123.31195,41.789821
f68ed6abdf7e7b739cec2beb,兴兴丰宇装饰材料经销处,,,,辽宁省沈阳市铁西区兴华星程酒店(沈阳铁西九路家具城店)西北,,123.368436,41.796677
6012f10bb4491a0230621292,恒宇装饰,辽宁省,沈阳市,铁西区,辽宁省沈阳市铁西区云峰万和郦景(沈阳市铁西区政府南),,123.382812,41.80726
355b798a82b72a9adeee8bba,美景装饰公司,,,,南阳湖街细河南路67号9门,,123.338419,41.757462
d0411a9f587ee5232811d1f4,实创装饰(于洪店),辽宁省,沈阳市,于洪区,燕塞湖街三隆世纪城20栋,,123.315031,41.774067
0545328158b992e76fc02c9c,兵心汽车美容装饰店,,,,辽宁省沈阳市铁西区花海路7号,,123.305565,41.776423
7b1994799a01b3bfb54f5467,11门瑞航汽车美容服务中心,辽宁省,沈阳市,铁西区,北四东路26号10门,,123.387662,41.801331
62fa3a929fdd02ef1d5800c9,亮美汽车美容装饰中心,辽宁省,沈阳市,铁西区,辽宁省沈阳市铁西区沈辽东路75-10号楼,,123.370786,41.783728
debb803a0dd1d4a30e0e6b91,巨鹿建材装饰材料,,,,凌空二街与南滑翔路交叉口南50米,,123.376103,41.772908
6f8662c05faafb20c51e51d5,吉祥何氏装饰工程有限公司,辽宁省,沈阳市,铁西区,勋业一路26号1门,13998264837,123.324937,41.792033
5e71c1005a51af1c100daab9,灯箱牌匾店面装饰,辽宁省,沈阳市,铁西区,辽宁省沈阳市铁西区应昌街沈阳市第三十一中学北100米,,123.376955,41.796217
703d30e8aa5196fbbadf8fc1,乐艺装饰装修公司,辽宁省,沈阳市,铁西区,兴顺街56号创富中心4层S415,,123.366613,41.801716
e983bb3f8131959f213bf229,众林装饰,,,,重工街建业路东行30米南侧36号1-1,,123.333825,41.802872
a09b97df50cf6ad840afe6a9,洪洋汽车美容装饰,辽宁省,沈阳市,铁西区,辽宁省沈阳市铁西区北三东路3-3号,,123.392641,41.802831
6d386f4dcf6620114afc8d47,沈阳富田装饰,,,,辽宁省沈阳市于洪区大通湖街141号5门,4008004175,123.351639,41.760073
9b268102c304c791b9df8f85,车禧汽车美容装饰,辽宁省,沈阳市,于洪区,巢湖街16-4门,,123.302367,41.79719
5dae769d58f7cead80a00c90,利民车坊洗车美容装饰,,,,辽宁省沈阳市铁西区爱工南街11号-1号-5门,,123.384078,41.794369
f1d136c8bf1deeda60180985,祥瑞装饰,,,,辽宁省沈阳市铁西区北滑翔路6号,,123.379489,41.781795
a583fe99d041aa5ef219379f,沈阳金典必盛自动门有限公司,辽宁省,沈阳市,铁西区,辽宁省沈阳市铁西区南八中路66,,123.363482,41.798163
0b17d19b836c5cabb020a819,鑫展迪汽车美容装饰,,,,辽宁省沈阳市于洪区吉力湖街72号-5门,,123.36347,41.76625
dbd066db4bfe6d5cf32d833f,金吉利专业装饰,辽宁省,沈阳市,铁西区,景星南街139-1号6门,,123.362355,41.791448
665ac08e5b66fea2afee7a3e,大班装饰设计工程有限公司,辽宁省,沈阳市,于洪区,沈阳市铁西新区经济技术开发区花海路19-1号奉达大厦银座10层,,123.302805,41.773525
5de840cc43b7fb4495ca075d,卡得尔专业玻璃配套装饰五金产品,,,,南十二路与景星南街交叉口南50米,,123.361102,41.789769
6c7f216ad2fea57c9c09f790,鑫正达装饰,,,,辽宁省沈阳市铁西区景星南街50号,,123.36751,41.798895
8dff175140d5e201a80dd857,佳强装饰,辽宁省,沈阳市,铁西区,铁西建设东路57号千缘・爱都国际B座3层,,123.382778,41.797538
31178b1b8c4cfa2f9868b41d,私享家装饰工作室,辽宁省,沈阳市,铁西区,兴顺街56号创富中心3层A302,,123.366613,41.801716
538ad5d6f2cce51b0482c201,小康汽车装饰,,,,辽宁省沈阳市铁西区勋业四路21号-6门,,123.33545,41.787057
4f335411d44b9c4a94031998,洗洋洋汽车美容,辽宁省,沈阳市,铁西区,辽宁省沈阳市铁西区云峰北街34-3号-8门,,123.386339,41.804986
056bbbb2260918784007c151,鑫荣创装饰旗舰店,辽宁省,沈阳市,铁西区,辽宁省沈阳市铁西区兴工南街36-1号-6门,,123.386959,41.793257
fc3fba4f477aec8928b97cb8,宝景风水装饰设计,,,,花海路19-1号附近,,123.302662,41.773542
2cc3c8e8693f9ad64c2fdf94,辽宁鸿业装饰装修有限公司,辽宁省,沈阳市,铁西区,南六中路19号盛世华城商务楼E座,13889878598,123.373081,41.799503
7dbbc2570b948e9875e5b663,建国洗车美容装饰,,,,辽宁省沈阳市浑南区沈苏西路,,123.382518,41.728631
59b78e3419ec9a5a73210bbd,沈阳铭秋建筑装饰工程有限公司,,,,辽宁省沈阳市铁西区凌空一街10号,,123.384947,41.778534
cfac6218d53762592b3a9f9c,鑫岩装饰,,,,辽宁省沈阳市于洪区大明湖街15-4号2门,13998181804,123.30105,41.768922
54ebf406c3a404da07026f10,百诚装饰,辽宁省,沈阳市,于洪区,沈大路166号1-1-2,,123.296824,41.803209
bb9ef9370108d78159bbbc35,新力装饰材料总汇,辽宁省,沈阳市,铁西区,辽宁省沈阳市铁西区南八中路26号,,123.367052,41.79671
f5d84e1043e90b330482c2e7,正翔装饰(二部),辽宁省,沈阳市,铁西区,南七西路富工一街十字路口30米,,123.338464,41.806168
0580ddc373650927626858e6,沈阳法拉菲装饰,,,,铁西区兴化北街25号2门(盛京银行西南40米),,123.383249,41.807608
6591fd735e820603157643da,力军装饰材料商店,,,,贵和街道云峰街小五路34号,,123.381584,41.797396
7e6fbab05a62ecc4ab0dd87a,浚洁汽车美容装饰,辽宁省,沈阳市,铁西区,辽宁省沈阳市铁西区卫工南街50巷-4号,,123.348175,41.79629
3c73cd8300cd2ee558f6bed6,香江家具装饰材料馆集成家居馆,辽宁省,沈阳市,铁西区,辽宁省沈阳市铁西区保工南街2-1号,,123.357835,41.806575
dcaf839951936986a2d23046,万宝装饰一部,辽宁省,沈阳市,铁西区,南八中路88号4门,15998343971,123.355343,41.801717
7e1043effc9a8e1ca8059dfc,汇莱鼎业装饰,辽宁省,沈阳市,于洪区,梁子湖街10-12,(024)31562008,123.310501,41.773459
0c66359e4a6a0304d518b770,星亮点建筑装饰工程有限公司,辽宁省,沈阳市,铁西区,重工南街58网点4门,"(024)25700788,13694186321",123.332568,41.797164
2e71ee1f7411def226d2bb32,北京锤子工长装饰工程有限公司（沈阳分公司）,,,,大通湖街141号-8门,,123.351755,41.759966
63bb2eb009e250094107c17a,博创装饰工程公司,辽宁省,沈阳市,铁西区,兴华北街25-1号9门,"024-25738118,024-25638218",123.383226,41.80773
fe8284b9c4ea5b727169d38c,文杰汽车装饰,,,,沈辽路兴隆大天地负一层(电影院旁),18624027281,123.340951,41.786295
d953793316aa2da8f8221397,友谊汽车美容装饰,辽宁省,沈阳市,于洪区,辽宁省沈阳市于洪区吉力湖街82号-4门,,123.360636,41.767301
fa4d82bd011568377bf7964e,海韵建筑装饰工程有限公司,辽宁省,沈阳市,铁西区,辽宁省沈阳市铁西区云峰北街62号(东环国际大厦)b座7楼15号,,123.38353,41.798608
703f64c0b485eada00ff2d36,鼎鑫塑钢门窗室内外装修铁艺白钢,辽宁省,沈阳市,于洪区,洪湖街5-3附近,,123.319035,41.805235
922b9b244e5a2691a2d230ff,忠诚装饰公司,辽宁省,沈阳市,于洪区,汪河路19-1号附近,,123.373481,41.764674
443b3f4a7f287eed3f9a5e48,小景汽车装饰,辽宁省,沈阳市,铁西区,辽宁省沈阳市铁西区南十一路40号-38门,13066729518,123.352255,41.796781
ca68206b8f2dc65743e19293,海之翼装饰,,,,辽宁省沈阳市于洪区沈大路珍珠6-16门,,123.311617,41.802666
4e56d743b092a16a08ccdd4d,嘉艺装饰,辽宁省,沈阳市,铁西区,辽宁省沈阳市铁西区卫工南街40号,,123.348803,41.800839
61eee3e9fae66e57bbbd6362,沈阳市铁西区煜鸿昆装饰材料商行,,,,揽军路100号附近,13889837799,123.357382,41.775894
0a681b447e8a0a75a204642f,沈阳市铁西区豪豪海装饰材料经销处,辽宁省,沈阳市,铁西区,辽宁省沈阳市铁西区铁西商圈南八中路26号,,123.367916,41.796645
2039b5710109ed177bf79695,鑫宇亨通水暖五金家庭装修一条龙服务,辽宁省,沈阳市,铁西区,南七东路1号5门,,123.38538,41.791648
0a4da2988d1de1ffce04ef2e,长山装饰,,,,辽宁省沈阳市铁西区南十二路6号,18802489016,123.359223,41.79053
2aa36e67698280fafd0eb0fc,吉友家装饰,,,,辽宁省沈阳市和平区砂山街84号,,123.390285,41.77488
fff2878d0b626f1e2e47336c,建材装修包工包料,,,,辽宁省沈阳市铁西区南十二路4号,,123.359017,41.790681
56af5bd9d6267f479d95de84,沈阳顺兴装饰材料有限公司,辽宁省,沈阳市,东陵区,民致北街附近,,123.37123,41.731635
17dafe670bb105072cb96d52,天宝龙装饰,辽宁省,沈阳市,铁西区,辽宁省沈阳市铁西区齐贤南街47号,(024)25410336,123.361248,41.798943
ec3e61104a6462f77369d385,沈阳盛麒麟装饰工程有限公司,,,,沈阳市铁西区建设中路1-2号第一商城A座15层,,123.376189,41.799819
2ea6d12a0f142403cae33c6d,轩明装饰,,,,巢湖街28-21门附近,,123.301404,41.793765
4feaf924b060aa042d473329,铁发装饰材料大全,,,,辽宁省沈阳市铁西区铁西商圈吉工二街44号,,123.36929,41.796336
2fc732a863cfb9144d776e4c,星灿艺术装饰设计有限公司,,,,南十中路与齐贤南街交叉口西南50米,,123.358564,41.795589
79ab9f33d410b7357af796df,汽车美容装饰,辽宁省,沈阳市,铁西区,辽宁省沈阳市铁西区南八东路19号-14门,,123.379558,41.791342
27d9cb34cd9fb3408936ee74,雨辰工程装饰有限公司德福纳德电动门,,,,沈大路148-5号之4门-5门,,123.303485,41.805949
fc78815972c3ba6e8c55ec0a,博美饰家装饰工程有限公司,辽宁省,沈阳市,铁西区,兴华北街25-2,(024)25853633,123.386242,41.807703
d590e1c47d29f699ab059d74,老五建材装饰,,,,辽宁省沈阳市铁西区南十西路32号,15524185749,123.342648,41.800154
765af638346d930fa1a9345e,腾跃靓车装饰,,,,辽宁省沈阳市铁西区肇工南街95号-3门,,123.342796,41.785245
d35248a747da9f064251c00b,沈阳市名灏建筑装饰工程有限公司,,,,辽宁省沈阳市于洪区细河路水调歌成E20栋,,123.354481,41.767136
cf8ccf931a726626dcee8b57,鑫佳艺广告装饰,辽宁省,沈阳市,铁西区,辽宁省沈阳市铁西区南七中路65号,,123.366283,41.799851
e34569e6e1111c10902ca3cc,环宇汽车装饰,,,,辽宁省沈阳市于洪区沈新东路1网点29门,13478357041;13555824860,123.336555,41.783546
649b5ae3fa5f7e2b2e473301,辽一网装修团购商城,辽宁省,沈阳市,铁西区,建设东路29号广大美居1层,(024)62222263,123.387598,41.795295
a3a7be1e27a92bab2b06cef8,沈阳美饰美家装饰工程公司,,,,沈阳市铁西区建设中路1号第一商城A2407,,123.376149,41.799742
747eb19247c1d3932806cec4,篮砖装饰,,,,兴华南街58-17号26门网点,(024)66587377,123.364458,41.790353
70951588156e6eb5f7eafc06,鑫旺装修家政服务,辽宁省,沈阳市,铁西区,辽宁省沈阳市铁西区腾飞一街18号,13940475088,123.374559,41.78076
7f0541d94ce24ae1b7f42f1b,装修工程基础材料一站式采购,,,,兴顺街与小九路交叉口西50米,,123.361921,41.795619
b695a85b3512667f5d17c305,老五建材装饰二部,,,,辽宁省沈阳市铁西区富工二街64号,,123.338203,41.801593
7a7461eae05a1ea3aaf0cd68,龙姿铁艺装饰部,,,,辽宁省沈阳市铁西区铁西商圈南八东路32号,,123.377569,41.792197
86d2b63f70ee22622a3a9fd9,明成装饰,,,,辽宁省沈阳市于洪区吉力湖街43-6网点3门,,123.360479,41.764282
a2876ffc52eace23f6c59c44,鑫奥森装饰,辽宁省,沈阳市,铁西区,辽宁省沈阳市铁西区南八中路与勋望街交口,,123.36873,41.796248
b7136af68470f6ffa5da397a,东立装饰,辽宁省,沈阳市,铁西区,辽宁省沈阳市铁西区国工三街28,,123.375526,41.79119
b74b531c5423f310f4b916b4,博雅装饰,,,,沈新东路34号富友大厦8520室,,123.330059,41.784589
97859409314c6787cb213d6c,万里装饰装修有限公司,辽宁省,沈阳市,铁西区,辽宁省沈阳市铁西区铁西商圈南八东路23号,13940467002;15940082248,123.377309,41.791532
52467c4d477209dde31103b2,宏经翔装饰,辽宁省,沈阳市,于洪区,吉力湖街202号八网点,4000987288,123.349767,41.771775
4d0f328be789b790246e9823,公牛装饰开关,,,,辽宁省沈阳市于洪区腾飞二街58-8号45A门,,123.359607,41.774937
364d8711e47f8700b11e3648,永丰广告装饰,,,,辽宁省沈阳市铁西区铁西商圈景星南街59号,,123.368379,41.799509
d07799f5df6aa50ad7851ff0,沈阳宏象装饰工程有限公司,辽宁省,沈阳市,于洪区,吉力湖街于洪新城72-2号1门,,123.364637,41.766516
be4182a8a3b1b5cfdf1e5216,鑫凯广告装饰,辽宁省,沈阳市,于洪区,沈阳市铁西区沈新路66号,,123.317096,41.786217
99492c47caaad79c8a36ee52,丽鑫汽车装饰,,,,辽宁省沈阳市于洪区吉力湖街6号-5门,,123.37641,41.763917
fe88cdf26b9bf052eedfca22,乾何汽车美容装饰店,辽宁省,沈阳市,于洪区,渤海路26-1门附近,,123.314796,41.796168
f0d270e8b550dc6d9cf7799e,夕林装饰装潢,辽宁省,沈阳市,铁西区,辽宁省沈阳市铁西区国工二街23-1,,123.380761,41.796329
54a8f2c7d4957c2a3fe2317d,美车汇汽车美容装饰,辽宁省,沈阳市,于洪区,辽宁省沈阳市于洪区黄海路64号,,123.296123,41.799574
5ad00664e52d2e1b7f29bd4d,沈阳格调雅居装饰工程有限公司,,,,沈阳市铁西区建设中路1-2号第一商城A座11层,,123.376189,41.799819
6b6a84645f0785d25d0d0240,朗润设计,辽宁省,沈阳市,铁西区,辽宁省沈阳市铁西区南七中路12,13940536690,123.369226,41.798874
9b5d86bf9154e1182911d151,样品名品装饰,辽宁省,沈阳市,于洪区,南阳湖街恒大绿洲2期,,123.340459,41.751073
73fca3c040d824c39b68b474,沈阳鑫盛达装饰设计有限公司,辽宁省,沈阳市,铁西区,沈阳市铁西区建设中路1-2号第一商城A座16层,,123.376189,41.799818
0db03bb41e5fd768d42ce209,吉林科龙装饰工程有限公司,辽宁省,沈阳市,铁西区,景星南街90号中城大厦11层1112,,123.363875,41.795643
0c1f69fe755259acaaf0cddf,雅韵装饰工程,,,,辽宁省沈阳市和平区满融朝鲜族实验小学东南(满融路南),,123.353579,41.708984
144a9efe6f94fe1215c90500,沈阳天鼎装饰工程有限公司,辽宁省,沈阳市,铁西区,建设中路1-1号第一商城B座10层,,123.375838,41.800581
24ef5163e012c9388bb9888f,辽宁誉成装饰工程有限公司,,,,辽宁省沈阳市于洪区凌空二街59-6号,,123.377401,41.772162
e171f6d9a64ab149931fc932,沈阳市创想装饰工程有限公司,,,,沈辽中路27-2门,,123.354881,41.785199
bd5c5e275ae8c5a78bdb7322,富林装饰(于洪店),辽宁省,沈阳市,于洪区,汪河路37号8门,,123.366052,41.762791
dfbff3c749757019b726557e,宏诚装饰,辽宁省,沈阳市,铁西区,辽宁省沈阳市铁西区国工二街48号,(024)31412165,123.376323,41.791658
f8a70eeee5d50c941ce99905,星宇车饰,,,,辽宁省沈阳市于洪区沈新东路1网点26门,,123.336555,41.783546
fd81b00af7fe6ea103ff2d2d,吴江龙盛装饰材料,,,,辽宁省沈阳市铁西区贵和街74号,,123.368151,41.79287
756747bf21104a6d0c0a70c7,鑫乐达装饰,,,,兴华南街58-17号1门,,123.365697,41.789733
7357571a36e5c092077ce8c1,百姓装饰,,,,辽宁省沈阳市和平区南十马路3号-10门,,123.391967,41.782668
b0e99888b79ba4cd4d776ef1,全运轩装饰工程有限公司,,,,汪河路凤凰街阳光100E14号2门(阳光100凤凰街),4008268186,123.36541,41.762539
8706f40e6cd2027e83a00ce4,建邦良友兄弟装饰工程有限公司,,,,沈阳市铁西区建设东路70号千缘・爱都国际A座12层,,123.383671,41.797886
ee2c6065f083e46ab45f1efc,金杞装饰,辽宁省,沈阳市,铁西区,辽宁省沈阳市铁西区南九中路25号,,123.361587,41.796705
9751de1ed26348a194031922,沈阳柏瀚装饰装修工程有限公司,,,,铁西区建设东路35号假日国际大厦12层,,123.386416,41.796212
2fa3e62fc52bb6f4f7e73b67,宏运顺装饰有限公司,辽宁省,沈阳市,铁西区,南七中路14号,13332438368,123.368444,41.799254
79a4e369fde64bce72210b67,沈阳俊翔装饰工程有限公司,辽宁省,沈阳市,铁西区,建设中路1号第一商城A座10层1017,,123.376189,41.799818
8bc60bf08a3bd51d9ff77949,惠友装饰,辽宁省,沈阳市,铁西区,铁西建设东路57号千缘・爱都国际B座20层,,123.382777,41.797539
8d1bfde12bae9614afee7a2e,沈阳建研装饰设计工程有限公司,辽宁省,沈阳市,铁西区,云峰北街62号东环国际大厦B座22层,,123.38353,41.798607
61abd4add627ee83afb22a42,装修活动家,,,,沈阳市铁西区陶林居东门,,123.373555,41.806791
c9d1d0fa50d741dfad0457f6,天雅装饰,辽宁省,沈阳市,铁西区,辽宁省沈阳市铁西区贵和兴华北街君临天下(东区)旁,13700004996,123.382433,41.807632
b668d0a380c229b1c17da206,沈阳奇辉装修工程有限公司,,,,景星南街90号中城大厦1204,,123.363945,41.795502
965febd2d881977003ec019a,沈阳百分百装饰工程有限公司,辽宁省,沈阳市,铁西区,辽宁省沈阳市铁西区兴工建设东路和谐大厦B座南门,,123.385745,41.796221
98e26acfb6ebae1076e5b61c,DY东亚装饰驻沈阳办事处,,,,景星南街101甲附近,,123.365917,41.795853
6336a6933fe294ce2cb17e43,颐和金枪铁马装饰材料有限公司,辽宁省,沈阳市,铁西区,建设中路1-1号第一商城B座17层,,123.375838,41.800581
e318d3657c8328672902e16c,龙盛美术装饰,辽宁省,沈阳市,铁西区,南八中路77号-1-2门,,123.355007,41.801226
63b5ba4b59daf1da2b06ce96,沈阳统帅装饰装修工程有限公司,辽宁省,沈阳市,铁西区,建设东路72号爱都国际1310,,123.383922,41.798021
6176f36bb102cf1f4054d71d,深圳博美装饰沈阳分公司,辽宁省,沈阳市,铁西区,南十一路22号-9门,(024)25491959,123.357257,41.795036
a00f84e1e952f8a90d0a708b,飞马装饰,,,,辽宁省沈阳市铁西区南七中路21号,,123.370969,41.797769
6d3dfbf5212064b77ab55cdc,沈阳天伦装饰工程有限公司,,,,辽宁省沈阳市铁西区第一商城B座19楼,,123.37607,41.800161
1f38919720c3c47cca09f00a,沈阳市雪克装饰材料有限公司,辽宁省,沈阳市,铁西区,建设中路1号第一商城A座12层1215,,123.376189,41.799818
2600f0add10e3939353a7116,弘誉装饰家居体验馆,,,,辽宁省沈阳市铁西区锦工街2号,,123.366831,41.804452
02206708d3e213eceb1e97d9,益格汽车美容装饰,,,,辽宁省沈阳市铁西区南七中路143网点2门,,123.355909,41.803271
90e71cb4a13c420c43e1928c,火娃装饰,辽宁省,沈阳市,铁西区,辽宁省沈阳市铁西区景星南街50号,,123.36751,41.798895
3a5bc785bce6cb199ee32189,沈阳东森装饰工程有限公司,辽宁省,沈阳市,铁西区,建设中路1号第一商城A座22层2221,,123.376189,41.799818
1a3ef054d848552d4151c0f0,美汇饰家装饰工程有限公司,辽宁省,沈阳市,铁西区,云峰北街62号东环国际大厦B座27层,,123.38353,41.798607
9808a1fc1fc3b42a0aa8d420,鑫源装饰建材,,,,辽宁省沈阳市铁西区德工街8号,13840546312,123.357116,41.805171
5f6003bcdd78e21314c8f6d5,金时代装饰,辽宁省,沈阳市,铁西区,辽宁省沈阳市铁西区景星北街68-3号-15门,(024)25846688,123.37209,41.80498
f3bb0490b9a732f11188248c,美盛装饰工程公司,辽宁省,沈阳市,铁西区,建设东路72号千缘・爱都国际A座4层404,,123.383671,41.797885
b0770b6ac7f1ec0a2e4733e9,沈阳岂元一品装饰设计工作室,辽宁省,沈阳市,铁西区,建设中路1-2号第一商城A座1110,,123.376091,41.800006
6aabffe8bbb961800782c206,沈阳博创伟业装饰材料有限公司,辽宁省,沈阳市,铁西区,建设东路35号2门假日国际大厦27层2711室,,123.386417,41.796211
93ac5964085bbf8e7f29bdeb,沈阳鼎豪建筑装饰工程有限公司,,,,沈阳市铁西区建设中路1-2号第一商城A座11层,,123.376189,41.799819
b21aa7e8eca40a6807026ff4,盛典装饰,,,,建设中路1-1号第一商城B座7层,,123.375837,41.800582
a40f5191b1c3d8e29f09f7c2,鑫环装饰,辽宁省,沈阳市,铁西区,沈阳市铁西区,,123.371868,41.797744
f5a1a2855a3dcaee79b55c83,沈阳美之峰装饰工程有限公司,辽宁省,沈阳市,铁西区,建设中路1号第一商城A座20层2016,(024)85611102,123.376189,41.799818
1e6ae3e68fcd7f7b17c8f6b5,纳米氧蒸家装体验店,辽宁省,沈阳市,铁西区,辽宁省沈阳市铁西区景星北街23号,,123.374361,41.807073
e31cbc37965b4b79e31103d3,沈阳昌峰装饰工程有限公司,辽宁省,沈阳市,铁西区,建设中路1号第一商城A座17层,,123.376189,41.799818
e281049db42d595d5e17c3d6,晨光建材装饰,,,,保工街南七中路60号,15942013155,123.360257,41.802631
24ee12858831f1add22dd6d2,鑫鸿达装饰,,,,南七中路63号,,123.367221,41.799446
d3f83feb8fe7e35397f08c7a,沈阳市高吉装饰有限公司,辽宁省,沈阳市,铁西区,景星南街59,,123.368574,41.799654
41de0a46b5724f6c38221c4d,富雅中鼎装饰材料经销部,,,,辽宁省沈阳市铁西区铁西商圈南八中路12号,,123.369214,41.796314
1f01c9b4f33ea2e2725e8022,博雅装饰,,,,南十一西路与双喜巷交叉口西北50米,,123.326405,41.798761
5ff306cf83d700aee011030d,金顺装饰建材,,,,辽宁省沈阳市铁西区南七路肇工街公交站(富工花园东),,123.340014,41.806555
9f0ebc530f77e62b77e5b67a,聚众达爱车之家洗车装饰,,,,辽宁省沈阳市铁西区南八中路79号,,123.354417,41.801831
419e3b331777a80cd23ce393,沈阳吉盛装饰工程有限公司,,,,辽宁省沈阳市铁西区卫工南街(卫工佳苑旁),,123.350783,41.799801
49e3d2cd88adaff142d63ef8,昌隆装饰建材,辽宁省,沈阳市,铁西区,辽宁省沈阳市铁西区富工四街30号,"13284285565,15710518565",123.336092,41.806521
ef44775055767ab7581093f2,沈阳庆丰装饰装修材料批发,,,,辽宁省沈阳市铁西区富工五街27号,13390241858,123.335223,41.806492
5d837e079ea2f1552fe67bea,敬业装修,辽宁省,沈阳市,铁西区,辽宁省沈阳市铁西区肇工街南七路公交站(三十六中学西南),,123.342079,41.806262
afd043bf5e673148e607389a,宏达建材装饰,辽宁省,沈阳市,铁西区,保工街南十中路西走五十米51号楼四单元一楼,,123.35425,41.797565
7e9639c3065414ce51e5c50c,一诺美术装饰,,,,辽宁省沈阳市铁西区富工五街27号,,123.335287,41.806476
71e31362fc9536ececdfcabe,新颖装饰,,,,辽宁省沈阳市铁西区南十一西路71号,,123.326033,41.798878
1616237377cf35ff3686f4d6,鑫鑫装饰建材,,,,七路街道富工二街南七西路19号,,123.337982,41.806548
fb8b204c9ff0e976e8e58294,家佳装饰,,,,辽宁省沈阳市铁西区重工街道富工五街富祥社区,13610883414;13478346564,123.335116,41.805895
7d282b98694478948c1a8908,益格鑫装修队,,,,凌空二街53门6号附近,,123.380232,41.773349
ff510b733dbb86907ab55cf9,金利伟装饰建材,,,,辽宁省沈阳市铁西区红粉路31号7门,13591669803,123.354938,41.780204
c649fad35d37e7e52d473384,三x装饰企业,,,,沈阳市铁西区,,123.360856,41.787996
2781e296f085a8e91ce9998c,万福装饰,,,,辽宁省沈阳市铁西区艳粉街23号,,123.361825,41.79071
7f9dcd8890f468af87330414,沈阳华雷装饰工程有限公司,,,,辽宁省沈阳市于洪区城东湖街紫郡城西区D座3单元12,,123.368257,41.770579
49db773841dff70eb21e3642,联塑家装精品建材沈阳总代理,辽宁省,沈阳市,铁西区,艳粉街56巷7-2号7门,25950565;15942338115,123.357053,41.777459
6fdc00a6f9e4ef57e812e4c7,嘉祥美术装修,,,,辽宁省沈阳市和平区新华路113号,,123.395217,41.781114
5ab624e8118c454cf82d61bc,沈阳市蔷薇之恋装饰设计有限公司,辽宁省,沈阳市,铁西区,兴华南街48号都城MOMA大厦B座4层18,,123.37022,41.791917
3f143994826351e07369d32f,笔克装饰有限公司,辽宁省,沈阳市,和平区,沈阳市和平区胜利南街92号胜利大厦16层,,123.392934,41.787614
846586307ef4523f62685867,海岛装饰集团工程公司,辽宁省,沈阳市,于洪区,阳光路18号102门,,123.37041,41.758569
8ba4a4a0063ba55f6f4760bf,日隆广告装饰,,,,辽宁省沈阳市铁西区利工街88号,,123.360054,41.790184
13ece87717e97103adb22a2e,隆腾车饰,辽宁省,沈阳市,和平区,辽宁省沈阳市和平区胜利南街90号,,123.393958,41.78905
5bc0c5afb263d1373586f4de,炫车车饰,辽宁省,沈阳市,和平区,辽宁省沈阳市和平区胜利南街90号,,123.393737,41.788669
138be3a5e52a42a87f29bd5e,洗车装饰座套,,,,沈阳市铁西区,,123.385129,41.778026
7fc10b0e28916b1cfb42b251,鹏达汽车电器装饰,辽宁省,沈阳市,铁西区,辽宁省沈阳市铁西区肇工南街87号附2门,,123.342307,41.786141
ff149d7b689ee61342ab9aaf,小胖汽车精品装饰,,,,辽宁省沈阳市于洪区沈新东路1网点20门,18204010073,123.336555,41.783546
1ba41f70804fddab30870aab,龙玺装饰,,,,辽宁省沈阳市于洪区碧桂园・银河城105号-03,,123.34866,41.756564
64a4b4bbde7fd46c12882487,杰泰装饰,,,,南阳湖街与细河南路交叉口东50米,,123.338081,41.757058
b1f16c1c63ff017e87154149,宏运丰建材装饰,,,,沈阳市于洪区,15804092475;13358876673,123.345173,41.765053
049b2a7def27f4b6d23ce30e,伟星管公牛装饰开关,,,,南阳湖街与汪河路交叉口北50米,,123.340435,41.755128
04a7262df074b0a92b3a9fe1,祥辉汽车装饰,辽宁省,沈阳市,铁西区,辽宁省沈阳市铁西区勋业五路18号-14门,,123.335036,41.786206
9ddac88d8f7311c828d7abd3,沈阳新型建材高级装饰装修公司,辽宁省,沈阳市,于洪区,辽宁省沈阳市于洪区大通湖街益格风情湾二期附近,,123.330732,41.773485
199bf5850f19b7899f09f703,吉祥建材装饰,,,,辽宁省沈阳市铁西区赞工街115号附近,,123.33791,41.790758
a59e4b0a4df1e276a6da39ba,众鑫装饰,,,,辽宁省沈阳市铁西区重工南街75号,15840274765,123.332155,41.789839
af6e7a87c58a0d6a9a0050dc,沈阳大鸿装饰,辽宁省,沈阳市,铁西区,辽宁省沈阳市铁西区壮工街4号,"4006060080,15542286581",123.329288,41.791013
97b927946ac09300c336447d,永缘汽车装饰,辽宁省,沈阳市,铁西区,辽宁省沈阳市铁西区勋业五路18号-6门,,123.334422,41.7862
480d1f60c13e0608b9df8fae,奢美装饰,,,,辽宁省沈阳市于洪区大通湖街130号-4门,,123.343985,41.766075
4b6681b6e64d6d690c0e6bb6,鑫鑫装饰,,,,辽宁省沈阳市铁西区南十三路9,13140024411;13080707228,123.349468,41.790632
50e1b1331e0ada5d8c55ec09,乾僖装饰,,,,辽宁省沈阳市于洪区大通湖街134号-3门,,123.34393,41.766184
d6f066bf2f9d64b240e192f2,辽宁高科能源集团新装饰杂志社,,,,黄海路64号,,123.296229,41.799454
b170c7a71b8f9f40b13c810b,雨辰工程装饰有限公司,,,,辽宁省沈阳市于洪区于洪街道沈大路和泰・尚(东区),,123.303485,41.805949
51991a61478eb5e543024533,卓达装饰工程公司,辽宁省,沈阳市,于洪区,花海路19-1号奉达大厦银座918,,123.302806,41.773534
b653ae29ca662eedbe4842da,恒通装饰,,,,长白街道胜利南街356号越秀星汇蓝海西门,,123.391825,41.743364
051bcca7de2ab6a96fa3ccdb,吉庆装饰,,,,胜利大街长白中路,,123.391895,41.743201
554120ad6480d86715c905da,沈阳帝诚装修装饰工程有限公司,,,,辽宁省沈阳市铁西区云峰北街58号东环国际大厦B座11层,,123.383238,41.798377
d4254f8ca5a977251d580002,金开利铜道铜装饰,,,,南十中路与齐贤南街交叉口西50米,15541979628,123.358273,41.795974
7b7a3d3498be58c0f603b84f,子九装饰画,辽宁省,沈阳市,铁西区,辽宁省沈阳市铁西区建设中路35,,123.368844,41.803677
6c3fb683b093179a932ca36b,建邦良友装饰,辽宁省,沈阳市,铁西区,辽宁省沈阳市铁西区建设东路72号千缘・爱都国际A座12层1211,,123.383671,41.797885
6374fdcd9093358633169b38,沈阳鑫坤装饰有限公司(云峰北街),,,,云峰北街62号东环国际大厦B座25层,,123.38343,41.798763
60f7c69d71847e9b990050f5,沈阳佰轩装饰有限公司,辽宁省,沈阳市,铁西区,建设中路1号第一商城A座26层2602,(024)25115466,123.376189,41.799818
5af9b027a53ad1742b3a9fd5,百诺装修,辽宁省,沈阳市,铁西区,"铁西区兴华南街5号鲁尔大厦12层12,13号",(024)25873916,123.377424,41.798696
cec5ad464dddc19a220220d9,沈阳晨源装饰装修有限公司,辽宁省,沈阳市,铁西区,建设东路72号爱都国际A座2610,,123.383917,41.798001
62aea810eafe51f3a21de950,秀泉装饰工程有限公司,,,,沈阳市铁西区建设东路70号千缘・爱都国际A座5层,,123.383671,41.797886
4b320d5a09a8b78fb21e3653,峰雷广告装饰,,,,沈阳市铁西区齐贤南街5号,18842354050,123.365655,41.804931
37f8ad9796c5986194ec84e9,沈阳辽州装饰设计有限公司,辽宁省,沈阳市,铁西区,建设东路35号2门假日国际大厦6层605室,,123.386417,41.796211
e8583b61cd6e858293114c60,华美装饰,,,,辽宁省沈阳市铁西区景星南街第九街区南50米,,123.363487,41.793588
46f77a0556a6a6e500ec01c0,宜显达装饰材料公司,辽宁省,沈阳市,铁西区,兴华南街46号惠和大厦商务楼15层1508,,123.371077,41.792654
f1f30be4e4eb9f8601294fec,沈阳佰尚装饰工程有限公司,辽宁省,沈阳市,铁西区,建设东路78东环国际大厦A座12层1207,,123.382747,41.798418
82c3f0e0a38a5b3bb5147fe1,沈阳德美佳装饰装修工程有限公司,辽宁省,沈阳市,铁西区,云峰北街62号东环国际大厦B座19层,,123.38353,41.798607
55279929fd23bc8af33cba6a,永兴装饰,辽宁省,沈阳市,铁西区,辽宁省沈阳市铁西区南六中路113号,,123.358562,41.805656
fb5afbfa531bd21c8415415e,诚信房产家庭装修,,,,南八中路与齐贤南街交叉口北100米,,123.36165,41.799894
db1d9132f2c37ca9cae33c20,沈阳市川夏宇强装饰工程有限公司,辽宁省,沈阳市,铁西区,建设东路35号2门假日国际大厦22层2204室,,123.386417,41.796211
b4a5b05b3d815ed61f3894cb,家装e站,辽宁省,沈阳市,铁西区,辽宁省沈阳市铁西区云峰北街58号东环国际大厦B座27层,,123.383319,41.798712
6b39ff736dc5257f72210b73,沈阳思远建筑装饰工程有限公司,辽宁省,沈阳市,铁西区,沈阳市铁西区云峰北街15-2号3门云峰家乐福南500米,,123.390337,41.806531
b229d76b03e9857851e5c57a,沈阳鑫盛华装饰工程有限公司,辽宁省,沈阳市,铁西区,建设中路1号第一商城A座13层1311,,123.376189,41.799818
94ac84c87c4d00f88d77274f,鼎鑫装潢装饰,,,,沈阳市铁西区,,123.362291,41.802329
c457bafef75c98302ffaa7a4,鸿达美术装饰工程公司,,,,辽宁省沈阳市铁西区南七中路24,,123.36744,41.799623
8640cc33444a8a59b13c8191,博美装饰有限公司沈阳分公司,辽宁省,沈阳市,铁西区,云峰北街62号东环国际大厦B座27层,,123.38353,41.798607
b883f971efd21b9ea8059dad,鑫达装饰仓库,,,,辽宁省沈阳市铁西区兴顺街239号,,123.360242,41.792763
834e179631cdb5bf5abbbc1d,沈阳阳格装饰有限公司,辽宁省,沈阳市,铁西区,建设中路1号第一商城A座14层1421,,123.376189,41.799819
c6784fcf2bf512d3cf06a446,沈阳美佰佳装饰工程有限公司,辽宁省,沈阳市,铁西区,建设中路1号第一商城A座10层1015,,123.376189,41.799818
750e18d72332ef35a2d2305c,沈阳宇轩装饰装修工程有限公司,辽宁省,沈阳市,铁西区,云峰北街62号东环国际大厦B座13层,,123.38353,41.798607
48a054929af4b18e5d0d0266,宝剑牌装饰材料,,,,辽宁省沈阳市铁西区南八中路67号15门,,123.359941,41.799638
7525f84db1cd1aebe31103af,沈阳铭城印象装饰工程有限公司,,,,铁西兴华南街5号鲁尔大厦12层,,123.377424,41.798697
1b2cd5af4cebf14d33169b63,天献帮,辽宁省,沈阳市,铁西区,铁西兴华南街5号鲁尔大厦15层,,123.377425,41.798696
02b7570ce36aa88c8bdb73b4,深圳海外装饰工程有限公司,,,,兴工北街64号甲海韵酒店4层,,123.395149,41.803922
26c4b5b9db9ac76616c90589,贺琳装饰,辽宁省,沈阳市,铁西区,建设东路72号千缘・爱都国际A座10层1009,,123.383671,41.797885
329116b28d50b64b54bfff5b,沈阳商正装饰工程有限公司,,,,景星街北四中路9号东一层一号(恒热定制家居东北10米),,123.372786,41.806158
d77f7b2b4f0cf3973904b16e,沈阳有客装饰工程有限公司,辽宁省,沈阳市,铁西区,沈阳市铁西区建设中路1-2号第一商城A座9层,,123.377385,41.797746
39135f354be7695b2ce67bc2,鑫丰洁洗车美容装饰,,,,小六路与爱工南街交叉口东50米,,123.383812,41.794064
accb91f6e39ac82ef4eafc40,红保罗创意装饰装修,辽宁省,沈阳市,铁西区,辽宁省沈阳市铁西区贵和街道南八东路沈阳市第三十一中学,,123.375882,41.793277
5323e8ec899877fde5e965c3,沈阳市枫之彩装饰装修有限公司,辽宁省,沈阳市,铁西区,云峰北街62号东环国际大厦B座27层,,123.38353,41.798607
32b9fa803ca79b1128201a10,诚信装饰,辽宁省,沈阳市,铁西区,景星南街83号-2门,,123.367814,41.798625
af13fe27b6bf97a0d81318a5,吉鑫祥装饰,辽宁省,沈阳市,铁西区,景星南街75号,(024)25634092,123.368004,41.798915
8e53cf817a44cf1c08ccdd21,康临居室内装修污染治理,,,,兴工南街与小五路交叉口东南50米,,123.388858,41.794013
a36cce2d47cbfbe4c61b7530,沈阳艺美佳装饰有限公司,辽宁省,沈阳市,铁西区,兴华南街5号鲁尔大厦4层436,,123.377424,41.798696
ac7b14d03bc1790a047ce8d3,沈阳爱思博特装饰材料有限公司,辽宁省,沈阳市,铁西区,辽宁省沈阳市铁西区建设中路1-1号第一商城B座14层,,123.375838,41.800581
cc86d85c641e505e79dbd2ba,银色起点装饰材料经销处,,,,辽宁省沈阳市铁西区商圈南八中路3号,,123.368895,41.796193
2340649a2029997fc929158a,沈阳金朗装饰工程有限公司,辽宁省,沈阳市,铁西区,建设中路12-2号万科金域国际4号,,123.373611,41.802346
b07d63bd9478b83f1fe999f4,百艺轩装饰,辽宁省,沈阳市,铁西区,建设东路72号千缘・爱都国际A座17层1706,(024)62633883,123.383671,41.797885
efe1e6b035a65c57b13c81e0,沈阳天鑫伟业家居装饰有限公司,辽宁省,沈阳市,铁西区,建设东路72号爱都国际1902,,123.383922,41.798021
d0b8923f225df69fb5f42f42,红保罗创意装饰装修,辽宁省,沈阳市,铁西区,南八东路38号附近,(024)25751598,123.376281,41.793127
9c32488c73043b4af5e73b8f,沈阳天青石装饰工程有限公司,辽宁省,沈阳市,铁西区,建设中路1-2号第一商城A座1110,,123.376189,41.799818
98bae4d7d9c5f9f59d95de2c,鑫文龙装饰,辽宁省,沈阳市,铁西区,勋望街29-1号,,123.368428,41.796714
f6f682a699d77aa257bfffc0,沈阳君信装饰工程有限公司,辽宁省,沈阳市,铁西区,南十西路1-1号2门,,123.349569,41.797585
7053d4d97298091257bfffa1,吉家装饰,,,,沈阳市于洪区洪湖街11号413号,,123.316602,41.804042
d86a054ea0abd4c8774ff1dc,顺顺发装饰建材,辽宁省,沈阳市,铁西区,辽宁省沈阳市铁西区富工二街31号,,123.338611,41.803608
0c921f340e2c3c61a8175ad4,靓车汇汽车美容装饰(富工四街),,,,辽宁省沈阳市铁西区富工四街33号-5门,,123.336952,41.804953
9edbc2fcbf1b76725cd4fec0,沈阳广贺建筑装饰工程有限公司,辽宁省,沈阳市,铁西区,重工南街84号,,123.330472,41.794048
51250ddf7ec4aadc17948e4b,鸿贺装饰,,,,沈阳市铁西区赞工街9-114门,,123.339646,41.796987
0e7523734647710cf4eafc9d,芳雨印象装饰,辽宁省,沈阳市,于洪区,辽宁省沈阳市于洪区洪湖街19-3号,15524417555,123.316497,41.801583
7d34788e90b0b44f9d82ea0e,红星名车装饰养护服务,,,,辽宁省沈阳市铁西区南十西路1-1号-3门,,123.349739,41.797962
3df74685b0edb8d6d03ce3d0,晟金装饰,,,,沈大路21号(迎宾路地铁口C口东50米),13940452007,123.316137,41.807029
118fdbbf98fafbc701294f01,姜氏美居装修,,,,辽宁省沈阳市铁西区南十一西路71号,,123.325663,41.798681
5c490ccdf20edaaa9868b441,润杰装饰,,,,辽宁省沈阳市铁西区赞工街9-1号3门,31352787,123.339646,41.796987
d83c0fe4790a814b55bfff7b,老马装饰建材,,,,辽宁省沈阳市于洪区洪湖街17号,,123.316493,41.803723
114080bd82e4f2dff5c59c61,沈阳丙申防水保温工程有限公司,辽宁省,沈阳市,铁西区,南九中路76号,15040038993,123.352365,41.800331
cd3a7c62340ae7f6223bf2be,创新装饰五金建材,,,,辽宁省沈阳市于洪区洪湖街5-1号楼,,123.317503,41.805324
c972ff84af961a2590114cd0,一毛装饰,,,,南八东路与热工街交叉口北50米,,123.381721,41.790694
5a60207d6cf79988d72ce238,金奥装饰,,,,艳粉街道沈辽中路19号,,123.356997,41.785807
2fdd1bc1797cae3743afe6aa,沈阳亿璐装饰工程有限公司,,,,沈阳市铁西区沈辽东路47-2号宏发国际723,,123.376305,41.788273
c216b1ccaab1aee531870abc,飞翔建材家庭装修,辽宁省,沈阳市,铁西区,沈阳市铁西区,,123.375048,41.782745
c99f1cb50d26f239ede4a56a,车美容装饰,,,,沈阳市铁西区沐叶花园49-5-1门,,123.387088,41.782432
0c12eff5e6195847a20464b7,沈阳恒龙川装饰公司,,,,辽宁省沈阳市铁西区兴工凌空一街御景西城,,123.388516,41.786784
4f295ac99a91a9af45572698,逸轩装饰,辽宁省,沈阳市,铁西区,兴华南街58-17号16门,,123.364743,41.790225
51db1f23b76714c9e812e4a5,沈阳a龙川装饰公司,,,,凌空一街2号附近,,123.388516,41.786784
6a91c952bbb19a542a02e118,铭阳汽车贴膜,,,,沈辽中路5号,13190056017,123.365363,41.790162
2c8f7a1a23ca2688e5e96586,爱尚世家装饰,辽宁省,沈阳市,铁西区,兴华南街58-17号1门网点,13002406527,123.365623,41.789826
df0e5096be033fe99dec2ba1,建材防水装修,,,,砂川街27号巷与西安街交叉口北50米,,123.391921,41.779916
82561cdac920ae1a102935cb,沈阳信文博建筑装饰装修工程有限公司,,,,辽宁省沈阳市铁西区艳华街10号,,123.366273,41.783988
398e449dfa3c5a0d715e80cf,万途装饰,,,,沈阳市铁西区兴华南街58-10,,123.363712,41.788316
5b0e2cc9a8f1c146d2f49e73,阿星装饰,,,,辽宁省沈阳市铁西区艳粉街56巷艳阳小区北门,13840321546,123.361603,41.778783
2999f96429e0fe83c61b75c2,佳明装饰,,,,红粉路与艳璐街交叉口东150米,,123.364443,41.782786
fdf93c2372624e532811d124,装修装饰,,,,辽宁省沈阳市于洪区吉力湖街208号-4门,,123.348382,41.772188
118c98282781e63e8d77277e,金盛天装饰,辽宁省,沈阳市,于洪区,沈阳市沈阳市汪河路128号,,123.341567,41.756015
c6153451cea9d7a74151c0c5,车时尚汽车装饰贴膜音响,辽宁省,沈阳市,铁西区,辽宁省沈阳市铁西区肇工南街132号,,123.341476,41.789939
b6dacd72d59a42326c47605a,鑫盛源汽车装饰,辽宁省,沈阳市,铁西区,肇工南街184号,,123.341454,41.786617
e198aece06192e8ba11de923,恒兴装饰件翻新,辽宁省,沈阳市,铁西区,辽宁省沈阳市铁西区勋业四路14-1号,,123.339621,41.787832
99bb8f101cd3d6c2d518b7a4,鑫安泰汽车内饰改装升级,辽宁省,沈阳市,铁西区,勋业四路3-2号,,123.343273,41.786401
20b68ccb1c399511a8059d9c,泰发装饰,辽宁省,沈阳市,铁西区,保工南街125号7门,,123.349836,41.787746
2200a5d0c9362834057ce861,沈阳金慧瑞装饰材料有限公司,,,,沈新路16-3号,,123.321255,41.786936
fd7d69c19821950cb04c4958,饰星装饰,,,,南阳湖街道大通湖街汪河路运动中心1门,,123.35216,41.759667
9dd4a20c1ae53e922cb9080d,王老六美术广告装饰公司牌匾铁艺,,,,辽宁省沈阳市于洪区城东湖街宏发・华城世界碧林一期,,123.34525,41.776424
02ca42aa741ce4f24c6d46e2,中基建工防水装饰集团有限公司,,,,迎宾路街道沈新路106号3栋,,123.311848,41.787951
e68c3860d772e02d3586f4f6,灰尘勿扰汽车装饰打蜡,,,,沈辽路80-71号6门,,123.322004,41.775674
b2a416f61169fadc5c0d0254,沈阳鑫客运防水暖建筑装饰,,,,沈阳市铁西区奖工南街33-2,,123.348377,41.791321
243d9b8e51844b52c16c146e,鑫驰汽车装饰,,,,辽宁省沈阳市于洪区沈新东路7号,15710560579,123.336555,41.783546
fc1d7010a4347b5a601c6735,全运轩装饰,辽宁省,沈阳市,铁西区,辽宁省沈阳市铁西区壮工街10号,,123.329041,41.789982
ad56ba978aa51dbdf7e73b1d,美宅管家装饰,,,,辽宁省沈阳市铁西区红粉路39号-5门,,123.350876,41.779215
8d98c74c7e9b8e55077ce8ce,创意装饰,,,,辽宁省沈阳市铁西区艳欣街6,,123.353563,41.784052
5556293d0953cc962cb908cd,沈阳东博艺装饰工程有限公司,辽宁省,沈阳市,于洪区,辽宁省沈阳市于洪区碧桂园银河城,,123.349614,41.75202
840b788c6e79affbf90cad13,沈阳瑞驰金属装饰工程有限公司,辽宁省,沈阳市,于洪区,于洪乡北李官村沈大路162号,,123.297133,41.806888
2f312babd5f5241f1894c63c,圣烁装饰,,,,辽宁省沈阳市和平区长白岛马总花园(滨堤路),,123.387784,41.745359
3e971c27085a6d2f43afe6ed,秀慧博雅装饰,辽宁省,沈阳市,东陵区,辽宁省沈阳市浑南区胜利南街356-14号(九百步商街附近),,123.394087,41.74473
e669f33c4e07c25d9a0050f8,美车e族洗车装饰行,辽宁省,沈阳市,东陵区,沈苏西公路26附近,,123.383775,41.738386
cfa4ea45c6bcbc008f1a89e5,保温材料利博元装饰材料经销处,辽宁省,沈阳市,铁西区,辽宁省沈阳市铁西区南八中路中兴里小区,,123.368914,41.795876
cd727546cd56e2ae28201a41,奥润森装饰,辽宁省,沈阳市,铁西区,辽宁省沈阳市铁西区南八中路3号,,123.36873,41.796248
332274816e5a39f726d2bb52,益源装饰,辽宁省,沈阳市,铁西区,应昌街41号,(024)31234456,123.374738,41.792568
1cf2f2496a2754a74c6d4653,世唯装饰,辽宁省,沈阳市,铁西区,铁西建设东路57号千缘・爱都国际B座11层,,123.382778,41.797538
fa2f602473a8c3bfb6f42f60,鑫泰华装饰材料,辽宁省,沈阳市,铁西区,中国家俱城一期西北门,,123.365495,41.799083
9188848782d884e5a8059d10,杰友装饰(铁西店),辽宁省,沈阳市,铁西区,北四中路18号-12门,024-25516699,123.373897,41.807432
c44c3b4792d1ff8883a12e42,沈阳市佳利德装饰有限公司,辽宁省,沈阳市,铁西区,建设中路1-2号第一商城A座614,,123.376094,41.800004
f535ca8f669df2277c29bdd2,沈阳金属装饰有限公司,辽宁省,沈阳市,铁西区,辽宁省沈阳市铁西区兴顺街道建大五小区(顺星小区西50米),,123.363986,41.798425
a2f2d34ff6aeb3482fe67b6f,标龙装饰材料PVC经销处,,,,辽宁省沈阳市铁西区景星南街51号,,123.368805,41.800106
596d212779214dea373a71d7,百姓门窗装饰,辽宁省,沈阳市,铁西区,南十中路3甲,13066754288,123.367215,41.792063
787681e2b886f3eb04fef54d,如家装饰工程部,辽宁省,沈阳市,铁西区,辽宁省沈阳市铁西区建设中路1-2号第一商城A座1622,,123.376189,41.799818
25837065d16b06613a13fdb0,添浪洗浴装饰设计工程有限公司,辽宁省,沈阳市,铁西区,建设中路1-1号第一商城B座10层,,123.375838,41.800581
59233bc972257f29336212ac,专业检测内装修污染空气治理,,,,兴顺街与小九路交叉口西50米,,123.361921,41.795619
7c5e480b39b11cadadb22a5b,欧家装饰材料,辽宁省,沈阳市,铁西区,铁西区南八中路32号中国家具城,(024)25443036,123.363875,41.795643
61eec9016d72a28bad080f1c,汽车美容装饰中心,辽宁省,沈阳市,铁西区,辽宁省沈阳市铁西区保工奖工东苑(德工街),,123.354996,41.802961
d4fa8e606003df5e734b87c2,沈阳安居装饰工程有限公司,辽宁省,沈阳市,铁西区,云峰北街62号东环国际大厦B座7层,(024)25623618,123.38353,41.798607
8b07d759ac7c49d53b221c1c,海蓝装饰,辽宁省,沈阳市,铁西区,建设东路72号千缘・爱都国际A座10层1007,,123.383671,41.797885
bbacefd186732e8609a8d44c,沈阳方元装饰装修有限公司,辽宁省,沈阳市,铁西区,辽宁省沈阳市铁西区建设中路1-2号第一商城A座,,123.376091,41.799998
4ab882694e2150722902e17a,TCG名车贴膜汽车美容装饰体验馆,辽宁省,沈阳市,铁西区,辽宁省沈阳市铁西区云峰巴塞罗那(小北三东路南),,123.385207,41.80574
50e92a0ca3ccc1e472210b6d,沈阳嘉源装饰工程有限公司,辽宁省,沈阳市,铁西区,建设东路72号千缘・爱都国际A座27层2703,(024)62633988,123.383671,41.797885
23a235f9f333c082430245fc,梵居装饰,,,,北三东路24甲3号11门,,123.389602,41.806647
8b27f3831a578bf30b69d9da,华益特思装饰装修工程有限公司,辽宁省,沈阳市,铁西区,建设中路1-1号第一商城B座17层,,123.375838,41.800581
ff22d2f593de2c35130daa60,辽宁鑫坤装饰（集团）设计工程有限公司,辽宁省,沈阳市,铁西区,建设东路35号2门假日国际大厦23层2304室,(024)25843332,123.386417,41.796211
8bf77e10da9685d631f71d88,天创宝来装饰材料有限公司,辽宁省,沈阳市,铁西区,景星南街90号中城大厦2204,,123.363956,41.795511
6eb6a3348cbcc394b2077dcd,沈阳卓展装饰装修工程有限公司,辽宁省,沈阳市,铁西区,建设东路35号2门假日国际大厦4层416,,123.386417,41.796211
411c609a8e4c8826a11de9e2,车炫坊汽车美容装饰VIP会所,,,,辽宁省沈阳市铁西区南七中路137号,,123.357983,41.803231
43e178725d7cef27a8059daf,辽宁三立装饰集团沈阳公司,辽宁省,沈阳市,铁西区,景星南街90号中城大厦11层1111,,123.363875,41.795643
53533fb0ffb80eadeb1e9769,沈阳龙林装饰工程有限公司,辽宁省,沈阳市,铁西区,建设中路1号第一商城A座8层816,,123.376189,41.799818
609440522c30a489eedfca74,沈阳轩元城金属装饰工程有限公司,辽宁省,沈阳市,铁西区,辽宁省沈阳市铁西区南八中路23号,,123.363271,41.798648
e7710e8df4e372e722026218,阿杰装饰,,,,辽宁省沈阳市铁西区景星南街129号,,123.362974,41.792312
944db0ed4deaa8452afc48e2,鑫颖不锈钢装饰,辽宁省,沈阳市,铁西区,铁西区铁西商圈南九中路3号,13390155899,123.366364,41.794872
b21e15ac21e2a73d8b2fb5f7,嘉欣装饰工程有限公司,辽宁省,沈阳市,铁西区,建设东路57号千缘・爱都国际B座1908,,123.382777,41.797538
7fc91a77daaf137c0ab93a5a,展一压克力装饰材料,,,,辽宁省沈阳市铁西区景星北街68号-3号-9门,,123.372489,41.804805
cfff4bf9a4a5d8d25fbe86e4,沈阳市岚兴佳装饰工程有限公司,,,,铁西区建设东路35号假日国际大厦8层,,123.386416,41.796212
45db48718f7ce38af219375d,沈阳天驰装修工程有限公司,辽宁省,沈阳市,铁西区,云峰北街62号东环国际大厦B座13层,,123.38353,41.798607
d942ba4d3fea583a5b3ac8f4,鸿发大韩装饰,,,,沈阳市铁西区勋望街58-4门,,123.365833,41.793709
2735afa71dc4e20f90114c62,帮众刷新服务,,,,辽宁省沈阳市铁西区齐贤北街25号,,123.36739,41.805671
5fb6a2eeffca39380b1cc7c6,鑫盛装饰铁艺白钢门窗,,,,南八东路39号1-1-3号,,123.375326,41.793135
f7764718aa7583f50f0e6bb9,沈阳艺韩品上装饰,辽宁省,沈阳市,铁西区,辽宁省沈阳市铁西区建设东路72号爱都国际A座412号,,123.383671,41.797884
1678de6daedbdd33a8f0cdc1,言鼎美术装饰,辽宁省,沈阳市,铁西区,辽宁省沈阳市铁西区景星南街10,,123.36985,41.801861
bef89f4c0da9d5d2b04c491b,沈阳市鲲鹏装饰工程有限公司,辽宁省,沈阳市,铁西区,建设中路1号第一商城A座6层621,(024)85611665,123.376189,41.799818
b78f54f3461ca70445572647,豫龙装饰,,,,辽宁省沈阳市铁西区贵和街41号,,123.372149,41.797693
3d7389e96e5b06a22fb17e5c,沈阳天地和豪装装饰设计有限公司(浑南分公司),,,,浑南新区世纪路同方世纪大厦3门,"13604906215,(024)23483666",123.464411,41.724212
dbcb7d65c21d788ac1f1cf40,龙发装饰沈阳总店,辽宁省,沈阳市,东陵区,沈阳市浑南区浑南西路8号泛华广场西座(泛华广场),,123.459807,41.744061
fa7da3e8b423cf6243d63ea1,辽宁荣昌装饰装修工程有限公司,辽宁省,沈阳市,沈河区,南乐郊路210,,123.472356,41.795792
196f940988ef70626fc02c66,小火车汽车装饰用品,,,,辽宁省沈阳市和平区绍兴街2号楼,,123.417539,41.787276
16f7790a2de6650ca0a934ae,小水滴汽车精品美容,辽宁省,沈阳市,东陵区,辽宁省沈阳市浑南区万科明天广场33#29门,,123.465412,41.727594
4c878ca2e36e43223fe23170,方林装饰(奉天店),,,,大西街道大西路248甲2号,,123.446781,41.800442
50bc493bcc72c8b2ca1b9577,沈阳瑞家装饰装修工程有限公司,辽宁省,沈阳市,皇姑区,辽宁省沈阳市沈河区大西路268号沈阳市房产局路北,,123.445405,41.799967
49306a00034d980d1d1d111c,华庭装饰,,,,五三街道金卡路18号16门,"13889229719,(024)82058888",123.476497,41.744005
906b504df45bd7ffa2a9345d,林凤装饰浑南店,辽宁省,沈阳市,东陵区,辽宁省沈阳市浑南区浑南中路20-3号-3门,,123.488329,41.747533
91845f575cf1183882a12e05,绿港装饰(浑南体验馆),辽宁省,沈阳市,东陵区,辽宁省沈阳市金卡路18号1-4层(居然之家东侧),,123.475419,41.743511
ac6c0a6084c32341970319d6,方林装饰(浑南店),辽宁省,沈阳市,东陵区,浑南区沈营路9-2号5门(近沃尔玛北门),(024)23871918,123.458235,41.744477
af4a8808c5bcb562a2a93408,弘扬名车汇,辽宁省,沈阳市,沈河区,辽宁省沈阳市沈河区奉天街26号,,123.449177,41.791245
4968d8da608549cfbbbd6325,美骑仕汽车美容装饰商行,辽宁省,沈阳市,沈河区,沈河区先农坛路19号2门,,123.477212,41.790219
f19edbfacb7e0796128824a7,海越洗车汽车美容装饰中心,,,,辽宁省沈阳市浑南区仙岛南路滨河湾二期40栋6-7号,13066593353,123.417673,41.740989
db1f39d4ddbd946ff4c59ca1,新饰家装饰(奉天街店),辽宁省,沈阳市,沈河区,奉天街203号,(024)23933988,123.447434,41.804053
1cea15a93b3a78b806fef5b6,沈阳市仕龙建筑装饰设计公司,辽宁省,沈阳市,沈河区,文艺路顺发西巷6号,,123.452438,41.785043
ff75e0259bb7c3817ab55c8e,长青恒宇装饰材料商行,辽宁省,沈阳市,东陵区,辽宁省沈阳市沈河区东北装饰城2区1层36号,,123.494898,41.773194
7cd64c84d61ff966e60738e2,天地合装饰公司,,,,浑南新区世纪路5-4号3门,,123.463976,41.724262
12cc5cb95161301f15c905dd,芒果装饰,,,,沈州路181号4门,,123.446045,41.798717
0bee85710c262f511fe9996e,中国邮政南八马路邮政所(装修中),,,,辽宁省沈阳市和平区太原南街322号,,123.396193,41.783681
98b71fed9cd3af685fbe8634,业之峰装饰,,,,南京南街161号远洋・蓝钻1号,,123.405284,41.760451
904bdfb9835c60fa74026925,大象装饰装修设计有限公司,,,,辽宁省沈阳市浑南区长白南路234-2,,123.404823,41.734256
7268f7ff70b5d3c125e0a0b5,车百度汽车美容装饰养护专业店,辽宁省,沈阳市,沈河区,辽宁省沈阳市沈河区北二经街85,,123.434654,41.797797
84d8e73753fa65269d82ea41,日丰管玉雅居装饰材料,,,,沈阳市浑南区,,123.494327,41.738498
59ffc506fb00a502873304b2,沈阳博明装饰工程有限公司,,,,辽宁省沈阳市浑南区彩霞街1-3号-1门,,123.457011,41.738392
52d67122ab94b546c61e510e,龙典装饰(浑南旗舰店),辽宁省,沈阳市,东陵区,浑南中路10-11号14门,,123.49381,41.749536
5367f0e662711be9373a71af,沈阳汇丰源装饰工程有限公司,,,,长白街道和盛巷6甲万科中心7楼,,123.39915,41.758265
dd2da33d375741e06e20b9a5,辽宁省建科院装修污染检测,辽宁省,沈阳市,和平区,南十马路与和平南大街交叉口西50米,,123.404536,41.776714
e8df1f3d7ae021caca2915dc,鑫友装饰(浑南店),辽宁省,沈阳市,东陵区,辽宁省沈阳市浑南区金卡路16号亿丰时代广场D座5层,18804008875,123.469494,41.742813
bbf96195278f843921026235,新饰家装饰（浑南红星美凯龙店）,辽宁省,沈阳市,东陵区,浑南区区区浑南新区临波路10号浑南红星美凯龙4楼(奥体中心),,123.448641,41.740933
172c53f22ccb73368c1a8979,辽宁嘉春装饰工程有限公司,,,,辽宁省沈阳市沈河区西滨河路44号,,123.439147,41.78912
a2832896819af34bb21e36e0,领秀e家装饰,,,,沈阳奥体对面亿丰时代广场A座整9层,18698891520,123.472333,41.743291
cacc158f96986dbcf82d614b,奉泉装饰浑南装修家居体验馆,辽宁省,沈阳市,东陵区,辽宁省沈阳市浑南区浑南中路10-13号4门,,123.49401,41.748838
8d88d9908f3fc4442efaa7d0,塞纳春天互联网家装,,,,辽宁省沈阳市铁西区北二东路4号4门,,123.40093,41.805623
56f2f696698bcd800aa8d45b,沈阳市飞翔装饰有限公司,辽宁省,沈阳市,大东区,滂江街111-2号,(024)24832625,123.492971,41.803214
d84859706c864411c9fa5f1f,福t装修装饰材料,,,,辽宁省沈阳市沈河区热闹路23-1号楼,18615489716;13889301683,123.447032,41.792844
41d46137731996f9631c6792,沈阳通海建筑装饰工程有限公司,辽宁省,沈阳市,大东区,大什字街19号-9门,,123.475111,41.801707
f73c43c6270bfc83dad89133,酷车饰界,辽宁省,沈阳市,东陵区,辽宁省沈阳市浑南区临波路16-25号,,123.445841,41.743911
4c13c350d8527ef12bd7ab21,辽宁轩禾装饰装修工程有限公司,辽宁省,沈阳市,沈河区,辽宁省沈阳市沈河区北文萃路五里河东巷6号院,,123.44282,41.770835
38cd5310778a33967ab55cd9,沈阳辽海装饰工程有限责任公司,辽宁省,沈阳市,和平区,辽宁省沈阳市和平区十三纬路23号,,123.425493,41.78945
db815c97023c5a3e31870aac,大永汽车装饰,,,,大南街道东滨河路82号,13514250496,123.470114,41.790846
4f488b5ee16b32cb9cf77989,东北装饰城-西1门,,,,辽宁省沈阳市浑南区长青街荣天家园(MOTO新城旁),,123.494665,41.772379
b2a4bafd2acb1fd21b94c685,秀水美车装饰部,,,,辽宁省沈阳市和平区文体西路141号,,123.405068,41.770142
6aed05901e9ffe724d2fdf31,堂利装饰装修,辽宁省,沈阳市,沈河区,辽宁省沈阳市沈河区南通天街30号,(024)24150748,123.463245,41.793645
a81b68850aebf63dcc06a473,艺格装饰,,,,长白街172-13号1门,,123.408831,41.737661
c88bf931c2ec5770ab0dd8d1,鑫盛辉汽车美容装饰,,,,辽宁省沈阳市和平区文体西路99号,,123.413417,41.769959
892cde46106d7032a1a934d3,奇阔软装修旗舰店,辽宁省,沈阳市,沈河区,西顺城街222号,,123.45483,41.801323
789c833d98710db36f476074,车美佳诚专业贴膜,,,,沈阳市浑南区世纪新城西南门d9-62门,,123.447594,41.729538
557d90e21a68a6bf80a00ca7,海鸟装饰工程公司,辽宁省,沈阳市,和平区,辽宁省沈阳市和平区三好街54号辽宁物产科贸大厦16层,,123.433707,41.774867
b1e9f0b50756e1ed30169b17,快捷洗车装饰专修现代起亚,辽宁省,沈阳市,沈河区,辽宁省沈阳市沈河区小南街317号,,123.456254,41.780333
b7f5da66eea4ee410b1cc745,金典装饰,,,,朝阳街少帅府后巷与正阳街通济仓北巷交叉口西北50米,,123.461494,41.80095
3bc9a548d82f1ac3cac3dbd2,仪铭装饰,,,,五三街道浑南新区彩霞街1-1号,4000241908,123.456219,41.739496
da084aa3c69ffe959d9d68f1,乐风装饰(和平旗舰店),辽宁省,沈阳市,东陵区,辽宁省沈阳市和平区长白四街135号,,123.41414,41.750415
e39e1461328544fae50738ba,沈阳东易日盛装饰(万鑫总部),,,,青年大街390号皇朝万鑫国际大厦A座,,123.444433,41.760673
be3e51266574b50522022080,瑞家地产装饰,辽宁省,沈阳市,沈河区,辽宁省沈阳市沈河区南顺城路93,,123.469191,41.799016
3688a685b370b1bc373a71b4,辽宁中尚装饰工程设计有限公司,辽宁省,沈阳市,东陵区,沈营大街28-28号首创自在天地A座11层,,123.448331,41.739695
bc4ff2f0bb233f7a3617dc14,嫣轩装饰,辽宁省,沈阳市,和平区,辽宁省沈阳市和平区南湖街道南三好街7-18号(御景新世界二号岗斜对面),,123.43149,41.758963
6ed3083a8ac5d6b72a3a9fa1,鑫驰装饰工程设计,辽宁省,沈阳市,沈河区,辽宁省沈阳市沈河区奉天街177号,,123.447694,41.801229
d6dfcc82ca99822472210b9a,天地和装饰,,,,世纪同方大厦,,123.490379,41.793407
9d0cb0ef215e5d18f8221324,广东装饰城家具,,,,长青街78号,,123.495298,41.771909
d5936eb65cdbfc9c1b94c626,名雅装饰,,,,沈阳市浑南区居然之家北门,,123.469492,41.743898
c66a29dad76a22f5ed74f8f0,公牛装饰开关,,,,南七马路75号楼附近,,123.413841,41.781984
a60941cefdc11c091676437d,万泉装饰材料市场,辽宁省,沈阳市,沈河区,沈阳市沈河区万柳塘路55号,,123.48149,41.789171
9b5a825df2d80a4716c90529,鑫宏达五金建材家庭装修,辽宁省,沈阳市,和平区,辽宁省沈阳市和平区南五经街14号,15940331310,123.425326,41.793561
93210668d4ceec23932ca305,大邦装饰,,,,辽宁省沈阳市长白街道长白岛仙岛北路152号,,123.414107,41.742783
91e6d91de4fd015832870a9c,新方盛装饰工程有限公司,,,,浑南区长白西路23号2门(近格林生活坊二期),,123.403855,41.753328
e1241b5e686161bef03cba8d,东北装修博物馆,辽宁省,沈阳市,沈河区,中山路216,,123.437274,41.805749
d5d966f5442e06c76a49f388,车管家汽车装饰中心,辽宁省,沈阳市,东陵区,浑南区夹河街A-1号世纪新城五期南门,,123.457001,41.731628
ea3dcfeee608dcdcf90cad67,沈阳市悦利装饰装修有限公司,,,,浑南新区天赐街5号国贸中心c座5楼,,123.470721,41.754766
1783bc9df64e73e888f15d3c,浩腾装饰,,,,热闹路87-3号五爱服装城东门(五联商业广场北6门正对面),,123.461015,41.79296
30a152dbd5d295413517dc7a,沈阳金逸影城泛华店(装修中),,,,浑南区浑南西路8号泛华广场购物中心6层,,123.458047,41.743803
52590d12ce860b79eddfcac4,沈阳洪川装饰工程有限公司,,,,长白街道14号街6甲万科中心14层,,123.399064,41.758535
0d68db52e953adf5ab0dd81d,瑞诺装饰沈阳长白岛店,,,,长白三街203,,123.40471,41.748291
7eda75e4487b24f81b94c6ad,上海宜室宜家装饰,辽宁省,沈阳市,东陵区,浑南区浑南新区浑南新区沈营路9-2号,024-31837318,123.457613,41.746554
b162163f5eaf631c46572615,聚远隆五金建材家庭装修,辽宁省,沈阳市,和平区,南宁南街77号楼4单元1楼,,123.402492,41.785387
7ca4d8c24e1078a3931fc936,靓车坊汽车装饰美容中心(三部),,,,沈营路唯美品格交通岗西侧处(近沈阳挂车厂),,123.437958,41.715271
63f3ae9d8b6f6ed7d1f49e1f,沈阳中元伟业建筑装饰工程有限公司,辽宁省,沈阳市,沈河区,辽宁省沈阳市沈河区大西路316号,,123.444623,41.799838
4a88ffb431ef820772210ba4,天天汽车装饰用品商行,辽宁省,沈阳市,和平区,辽宁省沈阳市和平区文安路23号,,123.437791,41.761179
f32d60e5d09a598388b988c0,安家装饰工程公司,辽宁省,沈阳市,东陵区,长白街17号(远洋天地门市),(024)23775858,123.406143,41.7585
0a59a47437bb5aaaa1d23005,车友源快修美容装饰,,,,辽宁省沈阳市浑南区长白中路格林・观堂南门,,123.40127,41.746816
84cb0622b335b4e21329356b,泰和丰装饰,,,,长白南路330-2号310门市(富海澜湾半岛售楼处东侧),,123.420001,41.737596
47a8882981c376edbe484239,吉利贴膜装饰,,,,辽宁省沈阳市和平区文体西路100号,,123.415571,41.769667
b0f337e5487e591d59bbbc46,沈阳建筑装饰集团,,,,沈阳浑南新区天赐街5号沈阳国贸中心B座22楼,,123.47089,41.754578
ca767e9a2f39ca82c056acd3,百家装饰浑南店,辽宁省,沈阳市,东陵区,沈阳市浑南区,(024)83500922,123.457572,41.746979
c57b761108d946858415410b,沈阳华庭装饰工程有限公司,,,,浑南新区沈营路瑞宝国际花苑3-2号8门,,123.457746,41.746405
640986c4bf65468a0869d94b,魏行装饰,,,,沈阳市浑南区浑南中路9-4号3门,,123.483639,41.745209
ce688b4b116a124a250bd023,东石装饰,,,,辽宁省沈阳市浑南区南京南街245号,,123.411848,41.744817
c0063fcb2bccd47adb131851,沈阳乐轩装饰工程有限公司,辽宁省,沈阳市,东陵区,浑南区沈营路5-2-4门,,123.457898,41.745966
3d9755a7143df091d618b73e,车夫专业汽车美容装饰,辽宁省,沈阳市,沈河区,药王庙路5,,123.44075,41.802461
2f7ce13bdd1330a2f4b916ce,春阳建材装饰欧普照明,辽宁省,沈阳市,和平区,南九马路集贤街411号,,123.402148,41.780091
54097a1fe8ff133a2806cecd,起点装饰,,,,辽宁省沈阳市沈河区东顺城街69号,,123.471172,41.805167
748ff2b14ffc7355ede4a5a9,裕泰兴装饰材料,辽宁省,沈阳市,东陵区,辽宁省沈阳市浑南区浑南中路12-5号1门,,123.490707,41.748288
1304221381c33e460aa8d4aa,沈阳新叶装饰工程有限公司,,,,浑南新区金卡路亿丰时代广场C座729号,,123.469392,41.742381
a3fbd23b5cfcec59eb56fa2b,盛昊达装饰,辽宁省,沈阳市,东陵区,文化东路52号,,123.478245,41.775691
530b19098c85e90b400245d8,辽宁富新装饰工程有限公司,,,,辽宁省沈阳市沈河区广昌路8号楼,,123.441936,41.796701
9fa683450a56293beb56fa1d,振弘五金建材家庭装修,辽宁省,沈阳市,和平区,中兴街67号,,123.411734,41.77917
3f902b9bd3799e452811d116,同德装饰,,,,辽宁省沈阳市沈河区同德珠宝有限公司(怀远门地铁站东北),,123.456982,41.80598
4a55dcd5d74e966db04c495f,停车场(东北装修博物馆东),辽宁省,沈阳市,沈河区,中山路222附近,,123.437621,41.805592
d8a914b3b698df28f33cba18,荣泰装饰(浑南店),辽宁省,沈阳市,东陵区,沈阳市浑南区长白西路19号2栋2门,(024)31591898,123.405204,41.75297
a61b13b17f4284278ab988a5,徽派家庭装修,,,,南塔街道干休所小区文化东路24-8号1门,,123.474761,41.776656
9777b9253bbed7cd82a12e23,辽宁万家电力建设集团有限公司,辽宁省,沈阳市,沈河区,辽宁省沈阳市沈河区青年大街51-1号商会总部大厦a座19层,,123.439038,41.801561
624bab1f2e0c96c12b06ce45,专业家庭装饰,,,,大什字街7-1号,,123.475959,41.800065
fa5ac846b2e5756bfe0eb0b2,佑安装修装饰公司,,,,辽宁省沈阳市浑南区长青街52甲1号8门,18640471891,123.489692,41.779456
8b7d4155ee2375e496ca0765,东道装饰,,,,浑南区六路87号,,123.41029,41.750687
f6a771db982388074251c0be,专业钣金喷漆,,,,辽宁省沈阳市浑南区富民南街,,123.478001,41.742795
44c6350d483193deaf045754,唯品兴汽车美容装饰,,,,浑南区南塔西街亚历山大会馆西南180米,,123.450795,41.764138
6c2420e67aa3dc8f3904b1ee,顺天成美术装饰,,,,津桥街道东顺城街61号,,123.471019,41.805997
c6b9be6b41729a341f3894f4,公共厕所(装修中),,,,浑南区,,123.420041,41.746216
4fea73b06340368804026f88,鑫荣创装饰,,,,浑南西路3-12门麦德龙旁,4001024177,123.444386,41.738573
bac1ed53721122bcf2193759,沈阳科通建筑装饰,辽宁省,沈阳市,沈河区,文化路70甲10号,,123.446384,41.777363
5a032a103b9c1fd63e9a5e5d,转角装饰,,,,辽宁省沈阳市浑南区沈营路29-1,,123.446756,41.724567
f7f2f9c34a363477ddee8b96,艺亨装饰,辽宁省,沈阳市,大东区,东顺城街65号,,123.471163,41.805133
f97d28832b621efc0e3dda3b,顺祥青年泳馆,,,,南宁北街与泰安路交叉口西南100米,,123.411137,41.79692
f72a65b53f5735fc593ac88c,万涵汽车美容装饰,辽宁省,沈阳市,和平区,辽宁省沈阳市和平区太原街商圈天津南街76号,,123.403991,41.792416
21ec38f63e27e5dc11882429,东方峰硕装饰,,,,长白街道长白三街兴岛路龙湖唐宁ONE136号,,123.407411,41.736837
e064487172fb38d23913fd5e,名冉建材装修,辽宁省,沈阳市,沈河区,万柳塘路81号2单元1号,13082456341;14704002014,123.47141,41.782061
85ba68a5035bbf3f2bb97c12,无忧装修,,,,营盘南街与银卡路交叉口东南50米,,123.463998,41.736384
d1f09f52bb8d9e55fb221398,鲁旺发装饰装修五金建材,,,,辽宁省沈阳市大东区小什字街14号楼311号,15940162718;13555892291,123.477175,41.801802
b7ff46bb212cc5b18c1a898d,装修专业刮大白承揽各种工程新旧楼房改造,,,,辽宁省沈阳市沈河区小南街207-2号楼,,123.460536,41.788418
c90caa1b3806a4547cc876b1,沈阳建筑装饰装修有限公司,辽宁省,沈阳市,和平区,辽宁省沈阳市和平区和平北大街168号,,123.419345,41.795624
2bb5c222f85bfd268a36ee70,艺阁轩装饰,,,,中海和平之门一期安街183号,,123.420078,41.734945
ca117e9dd914314679dbd2de,诚信家装一条龙,,,,辽宁省沈阳市沈河区广昌路31-3号,15840063591,123.443386,41.79537
1b07a76de2959f0515c90556,金宝装饰,,,,辽宁省沈阳市大东区东顺城街62号楼,,123.470721,41.805919
e9ddab01c886aae4ef74f85a,华新装饰,辽宁省,沈阳市,沈河区,辽宁省沈阳市沈河区南二经街14,"(024)22708160,(024)22708675,(024)22931075",123.434657,41.79611
b477d864a52c1c627dc876c6,沈阳市奉泉装饰工程有限公司,辽宁省,沈阳市,和平区,辽宁省沈阳市和平区南京南街152号集智大厦12层1205,,123.400862,41.782789
1f7111ba4b444134c4f02556,美宅管家装饰,,,,辽宁省沈阳市浑南区金帆中路110号6门,,123.466598,41.734845
ec602b3a71b70d75d8d89164,尚林装饰,,,,沈水湾街道长白南路富海澜湾半岛342号,,123.422456,41.738041
851b046637c3cd9b78f7963e,同泽装饰门业,,,,辽宁省沈阳市和平区太原街商圈同泽南街108号,13940275838,123.403351,41.788634
035588d867a41153c42ba1a2,沈阳今朝装饰（浑南店）,辽宁省,沈阳市,东陵区,金卡路16号居然之家浑南店-东门1层,,123.469924,41.743082
76c6a182c8965a6fb4265527,北京英豪建筑装饰设计工程有限公司,,,,辽宁省沈阳市浑南区浑南新区浑南西路(浑南西路与沈营路交汇)美园东路金地檀郡9-29号301室,,123.446494,41.734637
6d400511af1b81b7ab0dd8f9,公牛装饰开关,,,,金帆中路110号附近,,123.466598,41.734845
e34cb9a65b10a1f2593ac8fd,沈阳市中实汽车美容装饰,,,,高雄路16甲2号附近,,123.417472,41.779902
60454032fcbe7dba78f79699,沈阳金葫装饰工程设计有限公司,,,,浑南新区浑南西路1号首创自在天地A座七楼,,123.449001,41.739764
98536741da0bb67b0289728c,喜车一族美容装饰,辽宁省,沈阳市,和平区,玉屏路砂山住宅小区南50米,15142571161,123.396562,41.767366
f1146003188b6a7aa2a9341e,锋速汽车装饰服务有限公司,辽宁省,沈阳市,和平区,辽宁省沈阳市和平区南六经街6号,,123.423759,41.79329
5cf167c9f8c50ee52b06cee4,室内装修环境检测治理,,,,沈阳市和平区,,123.404331,41.803965
3513375cc21ecb4f46e27458,沈阳励力众品装饰工程设计有限公司,,,,辽宁省沈阳市浑南区亿丰时代广场居然之家浑南店进口家居馆,,123.468773,41.7431
cf6cb936f7ac214e5b3ac8a2,北京港源建筑装饰工程有限公司,,,,文体路五里河城A座2102室,,123.437424,41.767009
b703e96b890d8cfa8e1a89b7,辽宁省装饰工程总公司,辽宁省,沈阳市,和平区,辽宁省沈阳市和平区雅典娜(中山公园南190米),,123.411765,41.787732
94452123f9251825c8c3db5c,沈阳巨鹏装饰材料有限公司,辽宁省,沈阳市,东陵区,仓储街与前榆路交叉口北200米,,123.41894,41.726047
002364c62bb7bf2614948e19,恒旺装饰装修建材超市,辽宁省,沈阳市,和平区,辽宁省沈阳市和平区中兴街11号楼,(024)62771118,123.416403,41.785981
3fd166aa511d6e07d618b779,东方装饰设计工程有限公司,,,,辽宁省沈阳市浑南区浑南新区浑南二路10-1号荣兴国际大厦a座4f中建三局,,123.471977,41.753676
666135af03175844db131807,京东装饰,,,,辽宁省沈阳市浑南区金卡路16号亿丰时代广场D座5层,,123.468796,41.743182
d5cfc88c4fbac66cbca82279,卓越装修日杂建材,,,,辽宁省沈阳市和平区新兴街18号,,123.411175,41.782025
84204642f570f4d55d0d0265,海锐装饰,,,,浑南新区远航中路3甲-3号世纪枫景汇东门,,123.469393,41.733271
5f3dae32a674166e5bf6be70,金鑫五金建材装修部,辽宁省,沈阳市,沈河区,山东庙街道南二经街24号,,123.434844,41.795678
c02757c00ae67c360c0e6b70,沈阳展鸿装饰工程公司,辽宁省,沈阳市,东陵区,长白街172-1号7门,,123.410031,41.735274
517029dab19970c107026f4e,沈阳市艺博装饰工程有限公司,,,,万寿寺街83-1号,,123.45164,41.805403
22f63b7be28b4ac73b221c4a,沈阳市木兰装饰工程有限公司,辽宁省,沈阳市,和平区,辽宁省沈阳市和平区十五纬路32,(024)23858988,123.430747,41.78731
ea81e426539e75d1d1f49e95,向前桥广告装饰,,,,辽宁省沈阳市和平区文化路42号附近,,123.435157,41.776595
e72d0f1a524bc744246e98e4,品匠装饰,辽宁省,沈阳市,东陵区,沈阳市浑南区,,123.458033,41.744834
7528230670598caf71210beb,浙江亚厦装饰股份有限公司,辽宁省,沈阳市,沈河区,文艺路19号地王国际大厦4层408,,123.447245,41.783694
d5c13af2930095d62efaa781,树山装饰,,,,辽宁省沈阳市和平区长兴街18号,13002482624,123.417924,41.779868
7166bdf9b705173988db73e9,鑫嘉恒装饰,辽宁省,沈阳市,东陵区,彩霞街36-19-3门,,123.458766,41.733198
b3ec7c60b3afed808bfc0630,鑫春阳装饰,,,,沈阳市浑南区长白街17224甲3门,,123.412072,41.736594
99bcd76a53bfef979de3214a,百姓家装服务中心,,,,辽宁省沈阳市沈河区顺通路58-2号附近,,123.449606,41.789602
42ffff08ff1cae6d41d63e4a,耶力建筑装饰工程有限公司(世纪新城北),辽宁省,沈阳市,东陵区,沈营大街36号附近,(024)23692168,123.448801,41.731208
c4e374b507bf9fa3c9e33cf4,辽宁泓大建筑装饰工程有限公司,,,,辽宁省沈阳市和平区中兴街9号,,123.416695,41.786222
e968187372cea374c7f02522,火柴装饰,,,,东顺城街68号,,123.470623,41.805424
8ab779df83d3a955c17da289,金鑫鑫广告喷绘装饰,,,,沈阳市大东区东顺城街35-2号10门,,123.472172,41.805893
ca4447be899751e170455b9a,亮点广告装饰,辽宁省,沈阳市,东陵区,辽宁省沈阳市浑南区文化东路91,,123.490383,41.77482
71d0cb317fc9eddc1576432b,明辉装饰装修,辽宁省,沈阳市,东陵区,辽宁省沈阳市沈河区长青街36巷8号,,123.47991,41.783391
b64c5f605b900dc92b201ae4,鑫博纳装潢装饰设计中心,,,,辽宁省沈阳市沈河区风雨坛街13号,,123.45565,41.797456
1a2b04cf9d43b8b6a20464f9,润之家装饰,辽宁省,沈阳市,东陵区,辽宁省沈阳市浑南区天成街1-1-8门,4000247574,123.473892,41.742009
480b24d0e03ce08c9dec2bab,鼎易建筑装饰工程公司新型建筑分公司,辽宁省,沈阳市,和平区,新华路30号新华国际商务会馆7层701,,123.398769,41.782452
1f8f5039a7671d704d2fdfd1,沈阳一阳装饰工程有限公司,,,,和平南大街39号嘉环大厦4层,,123.415312,41.789258
1991981fc7beb5a5adee7a34,中国建筑第六工程局装饰工程公司,辽宁省,沈阳市,沈河区,十三纬路70号顺翔园大厦5层503室,,123.435269,41.792036
ce2537e3b2e2e9468d7727fa,沈阳市嘉容装饰工程有限公司,辽宁省,沈阳市,和平区,青年大街386号华阳国际大厦7层0762,,123.44273,41.761922
d9e2c0716403a84b83a00c5a,快捷洗车装饰,辽宁省,沈阳市,沈河区,小南街260-11号,,123.45621,41.780258
63dca980f6bebfd7e215f96b,香港凤凰集团辽宁凤凰之家装饰设计有限公司,辽宁省,沈阳市,沈河区,辽宁省沈阳沈河区沈阳市沈河区大西路268号,,123.445404,41.799959
026c77aae9a4b87f2cb17e10,文勇汽车美容装饰,,,,辽宁省沈阳市和平区十四纬路工学巷12号附近,,123.432756,41.787214
3b1b6736f648d5bf2806cef8,冠达装饰,辽宁省,沈阳市,沈河区,长青街91号17门,(024)62666277,123.487599,41.781984
324c08998cf62403e01103d2,加西亚装饰装修公司,,,,亿丰时代广场B座六楼,,123.470186,41.742489
28d45543e0c382ea4e2fdf6e,浩腾装饰装修设计部,辽宁省,沈阳市,东陵区,辽宁省沈阳市浑南区文化东路60号-6门,,123.481349,41.775431
e69b3f04127446d19cf7798a,富强装饰建材日用品综合超市,,,,嘉兴街43号,13842054113,123.414561,41.780094
c9def36244c811a245e274db,家彬装饰,辽宁省,沈阳市,沈河区,沈阳市沈河区小南街224-1号,,123.45648,41.784599
2e35fbeab07586ae01897257,优家装饰,辽宁省,沈阳市,东陵区,沈阳市浑南区绮霞街8-41号1门,,123.44236,41.741108
d5ba84d31f7f1af69de32169,沈阳信美装饰工程有限公司,辽宁省,沈阳市,和平区,民主路181号亚洲时尚公寓1号8-2,,123.406111,41.7909
aff356e641a5aede4f3a5936,沈阳市大东区祥盛美术装饰部,,,,沈阳市沈河区东顺城街63号3-1-2,,123.47111,41.805342
9d8018454c760c736cc02c3b,鑫淼美术装饰,辽宁省,沈阳市,沈河区,辽宁省沈阳市沈河区小南街333号,,123.456015,41.777226
fb232d2c3c77cff18bfc068d,新浪乐居沈阳分公司,,,,长白岛万科中心3层,,123.399582,41.758356
1cd5adbd2e11fd8cf503b8d6,公牛装饰开关,辽宁省,沈阳市,沈河区,大西路42号,024-22948466,123.453001,41.802887
1ad0ed7bcbb056b04afd3ff4,秋名阁汽车美容装饰,,,,辽宁省沈阳市浑南区沈营大街,,123.439988,41.719727
74d31e6de03c19660482c225,洲际嘉丰・无忧公装,,,,天成街嘉龙中心B座1505号,,123.472606,41.756136
7f36a41e2feabf390482c23d,深圳设计装饰工程公司辽宁分公司,辽宁省,沈阳市,沈河区,十三纬路70号顺翔园大厦6层,,123.435274,41.792035
eaee06788ef86a8f7adbd223,德意隆装饰材料有限公司,辽宁省,沈阳市,沈河区,南一经街144巷152号,,123.43896,41.78995
cf8b17b370bd3ec13a04b1d2,大邦装饰(主树店),,,,仙岛路和祥街交叉路口中海国际社区二期,,123.414045,41.737309
490ca2088e6e70bc4afc8d28,沈阳齐骏装饰工程有限公司,,,,天赐街5-1号国贸中心A座507,,123.47081,41.755179
5fc151429f73d282a2d2307e,辽宁省工程质量检测中心-装修污染检测接待室,辽宁省,沈阳市,和平区,辽宁省沈阳市和平区南十马路93-3号楼,,123.404719,41.77677
ea0aab909b646e7dd6b74ed9,奇特装饰,,,,辽宁省沈阳市大东区江东街江东小区(西区)旁(航空城西南),,123.494721,41.791201
485648fefaf0f0f37402697b,小涛装饰建材,,,,胜利大街北四马路2号楼底商,,123.40869,41.806504
a90460d43582c678c2f1cf74,瑞家装饰(沈阳)地产代理有限公司,辽宁省,沈阳市,和平区,沈阳市浑南区,,123.429979,41.760323
64a2c36ca4bed95f41d63ed5,北京弘高,,,,长白南路万科鹿特丹南门西行100米,,123.405227,41.73434
521d56a54b610a464bcc4a7c,房产美术装饰,辽宁省,沈阳市,沈河区,十三纬路与南二经街交叉口南50米,,123.43617,41.791805
bc3c1f0c9620d3a94d554709,辽宁罗宝装饰工程有限公司,,,,南堤西路905号甲中海国际中心A903室,,123.423854,41.746622
c3a2badf557539e98bfc0629,沈阳欣荣杰装饰材料商行,,,,辽宁省沈阳市沈河区长青街45号,,123.481843,41.787739
70d5b2db886bdbbf85420e67,沈阳市兰庭艺墅装饰设计有限公司,,,,浑南区长白街道和泓国际花园南门,,123.408982,41.741969
d74a878b4e82d2840aa8d492,沈阳家辉装饰工程有限公司,,,,浑南新区沈营路3-1号瑞宝国际花苑1号楼1713,,123.457935,41.746958
a4c85bbd66eab185c2f1cffc,明诚装饰,辽宁省,沈阳市,沈河区,辽宁省沈阳市大东区东顺城街55号,,123.470691,41.806608
bbdf200c982a9879744ff1db,福建凤凰山建筑装饰工程有限公司,,,,辽宁省沈阳市浑南区远航西路3号昂立信息园it国际大夏主楼201,,123.454406,41.728324
3594b31c5151b1b1dc1e52ce,益阁装饰,辽宁省,沈阳市,沈河区,北三经街35号,(024)22894752,123.432514,41.803576
ea463cdec02dfea3c909f0d3,瑞泰装饰,,,,辽宁省沈阳市浑南区浑南区长白西路29号-8门,,123.399628,41.752496
299cf432ae8e640ba9f0cda4,车益佳汽车美容装饰,,,,太原街街道太原北街北六马路金城宾馆东50米,,123.418251,41.806892
b6c1ec7ac7b81097fe0eb04e,百盛五金建材装饰装修,辽宁省,沈阳市,大东区,津桥街道东顺城路育才巷东顺城5号,,123.473276,41.800387
f1fb8da18f3fd3953517dc9b,宏天恩润装饰材料商行,,,,辽宁省沈阳市浑南区丰乐方南路MOTO新城东北,,123.49455,41.772884
41737c36e4b012058b2fb58c,万盛家装材料商行,,,,辽宁省沈阳市沈河区长青街,,123.482252,41.787981
4cf2540bc4778a8be011030c,诚信家庭装修建材日杂百货,辽宁省,沈阳市,和平区,辽宁省沈阳市和平区株州街15号-2门,,123.424746,41.806973
cdef4edf7492144e29d7abb7,鲁美装饰,辽宁省,沈阳市,和平区,三好街附近,13840025797,123.434938,41.78215
36f12cda80d17cab24d2bbfa,顺和装饰,,,,亿丰时代广场B座628,,123.470421,41.743081
4dd7e5a5dd65b1389b68b43c,鑫晟宇装饰大东店,辽宁省,沈阳市,大东区,辽宁省沈阳市大东区滂江街171号-甲7门,(024)31780386,123.491057,41.798836
9fc5d0d8d1c155b597031906,风腾装修工程有限公司,,,,辽宁省沈阳市大东区凯翔二街31号,,123.495531,41.797917
db5f3cbfad1428a7fb2d61b1,精格装饰,辽宁省,沈阳市,大东区,沈阳市大东区滂江街振浩大厦8层,,123.492688,41.805415
660bb37eb628c035f5b9166e,国忠装饰,辽宁省,沈阳市,东陵区,东北装饰城二区3号,,123.49455,41.772884
fcdea49c0f6f9aaf8bfc0678,东兴工具装饰商行,辽宁省,沈阳市,东陵区,辽宁省沈阳市浑南区丰乐二街9号-甲-2号-2门,,123.493575,41.771457
e45a10548823a847b13c8151,桐正源装饰材料商行,,,,辽宁省沈阳市沈河区方南路荣天家园(MOTO新城东北50米),,123.494891,41.772951
570019782eed5150a11de9f3,老双隆精品装饰商行,,,,浑南区,24828422;24201149;13940016743,123.493319,41.771574
a7141873331b011b5c17c342,沈阳东北装饰城米妍飞水暖商行,,,,辽宁省沈阳市浑南区方南路荣天家园(MOTO新城东北50米),,123.494891,41.772951
b687dc02b7e71415028972da,金城杰滨装饰,,,,辽宁省沈阳市大东区东顺城街46号,,123.471055,41.806138
7336502d53cf6843465726e3,大正装饰,辽宁省,沈阳市,沈河区,广昌路55附近,,123.447828,41.796615
94bce7d55f3c4e4e16764333,凯盛装饰设计工程有限公司,,,,沈州路99号太和大厦0602,,123.448559,41.79867
66331cc9b332ad1c42d63e3c,盛新房产装饰,,,,辽宁省沈阳市沈河区东滨河路74号,,123.470566,41.792826
2a307820f67e0b7d96ca07fc,炬友博广告装饰,,,,辽宁省沈阳市沈河区乐郊路3附近,,123.456716,41.798041
ae8cfe7ba7f938fe96ca078b,沈阳瑞丰装饰工程有限公司,辽宁省,沈阳市,沈河区,辽宁省沈阳市沈河区西顺城街78号楼,,123.450676,41.806247
6ed5e7abedb2e32357bfff71,真赢牌匾门脸装修,,,,热闹路23-1号,,123.447565,41.792743
3db4a583a601ee3fb21e3692,工鑫星美术装饰,,,,辽宁省沈阳市沈河区金廊商圈广昌路31号,,123.443351,41.795491
ca72dd203b34a5edf12d836b,三越改造家(乐郊路站),,,,滨河街道南顺城路21-2号4-1-1,,123.457418,41.798037
29bdf27a7439946bb7265536,富美装饰,辽宁省,沈阳市,沈河区,沈州路99号太和大厦a座17层,,123.44856,41.798703
5e7379941639bf2574026902,天柱门窗家庭装修,,,,辽宁省沈阳市和平区株州街15号-4门,13002484837,123.424612,41.807156
b5f24ca3081b2f31f82d61a3,沈阳市金旺装饰庆典工程有限公司,辽宁省,沈阳市,和平区,南一马路109号力创大厦5层508,"(024)23210188,(024)23210199",123.40999,41.794329
30ecd5d1bab83e0d16c90581,好地装饰工程有限公司,辽宁省,沈阳市,和平区,和平北大街28号华利大厦11层11-4,,123.425612,41.803746
de2da7f7084b1fec471a326b,怀高装饰工程有限公司,辽宁省,沈阳市,和平区,太原南街89-1号10门,,123.404141,41.792732
f00ec502a2973da06f4760af,沈阳湾特装饰设计有限公司,辽宁省,沈阳市,和平区,沈阳市和平区新荣大厦B座14层,,123.407363,41.801016
4eda05b4dbffd8b63a13fdc5,富邦朗逸建材装饰有限公司,辽宁省,沈阳市,和平区,南京北街206号城市广场第一座15层1507,,123.415321,41.80061
23ae3287074f47cecb213d96,诚信建材装修,,,,八经街49号附近,,123.423301,41.796993
6757516ecd9d1d398e7727df,北方天宇建筑装饰公司沈阳办事处,辽宁省,沈阳市,和平区,和平北大街28号华利大厦15-3,,123.425398,41.803886
566aa23efb09f57516764396,沈阳万利盛装饰工程安装公司,辽宁省,沈阳市,和平区,沈阳市和平区,(024)23400998,123.411332,41.807258
99dfbea2055adf62f90cad54,华龙装饰,辽宁省,沈阳市,和平区,南京北街228号钻石星座1层,(024)23834555,123.413124,41.798955
29d7a7567dc513a236b06cad,佳宇广告装饰,辽宁省,沈阳市,和平区,辽宁省沈阳市和平区第一二六中学东(北三经街),,123.430875,41.800743
e1f0021b407d59b6e9f853b9,美家福装饰,辽宁省,沈阳市,沈河区,辽宁省沈阳市沈河区十三纬路70号顺翔园大厦7层,,123.435195,41.792006
dda0a13e4b9ebb493a04b19b,小嘎汽车美容装饰,,,,辽宁省沈阳市和平区八经街7-甲2号,,123.428679,41.804117
907c62ac4b4ab2b99222e03d,沈阳华霖装饰装修工程有限公司,辽宁省,沈阳市,和平区,南二马路33号商贸国际A座17层1701,,123.403603,41.794674
a7c43e2ccf1f106db8df8f2c,沈阳点石建筑装饰设计有限公司,辽宁省,沈阳市,和平区,辽宁省沈阳市和平区太原南街90号商贸国际B座B1116-B1117,,123.404077,41.793855
5a59927ddf9de986931fc9ec,正杨管业万利鑫装饰材料经销处,,,,辽宁省沈阳市沈河区长青街,,123.482261,41.788418
3dad531012dff8b03c9a5eaa,佳奇装饰展柜设计制作,,,,辽宁省沈阳市浑南区浑南区文化东路10号步阳国际公寓b1座6楼10号,,123.468505,41.775902
b104b95ec49aab06f02d8378,龙大装饰集团,辽宁省,沈阳市,沈河区,万柳塘路55号万泉商业中心6层609,,123.481148,41.788929
3c1831ac15181afdbbbd6386,公牛装饰开关,,,,万柳塘路97-7号附近,,123.46836,41.780641
9c6f6006d8742fb8b05c6a62,亮化美术装饰,,,,辽宁省沈阳市沈河区南通天街60,,123.463508,41.787765
22f3b07092f377e980a00c39,沈阳天美装饰家具有限公司,辽宁省,沈阳市,沈河区,万柳塘路55号万泉商业中心6层608,,123.481143,41.788925
b0e4b462fde9d16f21f017dd,老徐家庭装饰,辽宁省,沈阳市,东陵区,长青街34号附近,18240004118,123.482729,41.785262
1e640972931a224ac6f025ae,龙福家庭装修,辽宁省,沈阳市,东陵区,文化东路24-8号附近,(024)62461102,123.474709,41.776636
596486f88624c484c9fa5fb9,沈阳市黎华幕墙装饰公司,辽宁省,沈阳市,和平区,青年大街386号华阳国际大厦1666-1667,,123.44273,41.761922
ba976880c4e66c934354d791,顺通建材装修,辽宁省,沈阳市,和平区,十三纬路四平街十八巷,,123.418903,41.789136
c024d36ea6933ad1e956facc,雅田装饰设计工程有限公司沈阳分公司,辽宁省,沈阳市,和平区,三好街79号奉天硅谷大厦B座13层1301,,123.434349,41.768379
33feaaac08c479fb17948eba,如意铝塑装饰,辽宁省,沈阳市,和平区,辽宁省沈阳市和平区同泽南街138号,,123.401201,41.785861
8f89e1137e3fc582c336445d,鑫瑞丰装饰,辽宁省,沈阳市,和平区,辽宁省沈阳市和平区永安路4号院,13940509856,123.430791,41.77461
4e11da262f4d741014c8f668,沈阳鑫路驰汽车装饰用品有限公司,,,,中兴街与和平南大街中兴二巷交叉口西北50米,,123.413933,41.783104
fe21a1abbb0e86f4583ac849,沈阳泰岗建筑装饰工程有限公司,辽宁省,沈阳市,和平区,三好街79号奉天硅谷大厦A座902-903,,123.434285,41.768435
f5a7ff2aeac288d22fb17e94,沈阳雅之特建筑装饰工程有限公司,辽宁省,沈阳市,和平区,文化路19号金科大厦1515,,123.433026,41.776853
88e8cbd076b2c7f7d9eced93,祥合装饰铝塑白钢彩钢铁艺门窗,辽宁省,沈阳市,和平区,辽宁省沈阳市和平区南九马路21号,,123.399958,41.781315
595fcd9e003a17d140e1926f,住安建筑装饰工程公司沈阳办事处,辽宁省,沈阳市,和平区,三好街18号中润・国际A座1402,,123.434317,41.782439
4aa059025fb3eb27a10464f5,嘉尔崴装饰材料公司,辽宁省,沈阳市,和平区,南京南街54号鸿源大厦7层,,123.408301,41.791424
3146f1ba66f787462bb97c64,林发建材装修,,,,辽宁省沈阳市和平区中兴街36号,"15940177531,13604063985",123.412549,41.780027
989949a8a741ab55aeb22a07,铭泽装饰,,,,中兴街141号附近,,123.414404,41.781686
3e7f60902fe98a2a2fb96d89,天诺装饰设计,辽宁省,沈阳市,和平区,三好街22号中润・国际B座804,,123.434335,41.781991
3949fe351cab458cb6147f6d,祥合装饰,,,,辽宁省沈阳市和平区海口街31号,15330816699,123.406181,41.780203
f9c4953740e1419c96ca07d0,科源装饰,辽宁省,沈阳市,和平区,三好街90甲5号百脑汇科技大厦9层0902,,123.433282,41.770584
7cac137dc9fa47d2d22dd6c4,慧慧家服装饰品店,,,,沈阳市和平区南京南街176号112,,123.399206,41.779646
fbd4482f8d30733b0869d988,沈阳天正装饰有限公司,辽宁省,沈阳市,沈河区,十三纬路58号中国有色大厦1509,,123.433485,41.791721
7967d6780b0ed22fa8f729ce,沈阳汇海琦装饰工程有限公司,,,,和平南大街中兴二巷7号附近,,123.413933,41.783104
1c059cae2204823e8505bfdd,鼎唯装饰工程有限公司,辽宁省,沈阳市,和平区,太原南街99号环宇世纪星城C座8层806,,123.403,41.791815
0138c274f5275e6135b06c48,红鼎装饰公司,辽宁省,沈阳市,沈河区,十三纬路58号中国有色大厦1505,,123.433486,41.791723
52c9159f9db2bf48c61e51e4,沈阳金羽翼装饰工程有限公司,辽宁省,沈阳市,和平区,三好街18号中润・国际A座804,,123.434201,41.78247
b07a9da5b1380a58f4e73b4f,牛牛好管家(浑南店),辽宁省,沈阳市,东陵区,天成街1-2号,,123.474734,41.74206
ba39fbcc18fe4ab086420e4f,伟达昌装饰,,,,沈阳市浑南区临波路16-22号3楼,,123.44612,41.743479
d1bc609fc49821ebd813189f,沈阳浩轩装饰工程有限公司,辽宁省,沈阳市,东陵区,下深沟266-17号4门,,123.471238,41.715522
56355427f5486f7fd2f49efe,山盟华盛装饰(金地锦城店),,,,浑南新区高科路金地锦城26-3,,123.461177,41.717476
eae3692cdde06854f4eafcef,锦艺阁装饰,辽宁省,沈阳市,东陵区,沈阳市浑南区华园东路6-16号4门,(024)62730086,123.449062,41.733548
2b93542b76839c06631c67a6,壹加壹装饰,,,,辽宁省沈阳市浑南区沈营路3-6号4门,26401955,123.457518,41.747093
656452f7a32e1ad8db1318b7,讯房装饰,,,,新隆街1-33号楼附近,,123.463507,41.727627
2dea599b92730e92130daaf3,家倍得装饰公司,,,,浑南新区临波路10号红星美凯龙西厅一层,,123.452071,41.741319
2484d01b333f30bcc51b7502,文冉大理石装饰,,,,辽宁省沈阳市浑南区金帆西路,,123.461367,41.733005
8d40ef344ed9f5d1220262ef,北灰装饰,,,,金卡路24号附近,,123.468747,41.743127
c686cf91ec65365f83a00c15,万盛装饰,辽宁省,沈阳市,东陵区,沈阳市浑南区,,123.402915,41.736442
2c2939c94ccba59a3ce23150,睿凡装饰(浑南店),,,,辽宁省沈阳市浑南区五三街道临波路荣盛・爱家郦都,,123.440132,41.74146
2107afff5ff366007ec8768d,圣贝拉沈阳总代理,,,,长白街172-20号1门沈阳市城市管理行政执法局和平分局长白勤务区附近,(024)81307777,123.411409,41.738315
3302cc6555fab3be5fd4fe4c,天利德装饰装修设计,辽宁省,沈阳市,铁西区,沈阳市铁西区兴工北街57号金昊大厦15楼10号,,123.397654,41.805494
f025776e08ab398e6c476039,沈阳艾美特装饰装修设计工程有限公司,辽宁省,沈阳市,铁西区,沈阳市铁西区兴工北街57号金昊大厦18楼8号,,123.397794,41.805655
e20e51f6b590dda014b54bd8,沈阳建林装饰工程有限公司,辽宁省,沈阳市,铁西区,兴工北街57金昊大厦23层3/4号,,123.397795,41.805661
79fd893daa4191ebeb1e97ca,小宇洗车美容装饰,,,,辽宁省沈阳市和平区玉屏路19号-4-16-15号,13998341502,123.396139,41.767106
9bf5262fdd053881eaf85379,通艺达装饰,,,,长白街道胜利南大街391号2门2-1,,123.397476,41.738376
92ef0f22bbdcfc5e5a3ac80b,派东装饰,,,,辽宁省沈阳市大东区凯翔二街20-1号-8-1门,,123.495363,41.800015
22fa2d616758d5bdc72ba106,远盛佳装饰,辽宁省,沈阳市,大东区,万泉街道大东区滂江街78号107中学正对面,,123.491216,41.802012
85405d12aee51be73786f45a,创泰建筑装饰工程公司,辽宁省,沈阳市,大东区,滂江街221号,,123.490146,41.79643
3b2763a87e00295328201aa8,东北装饰城坤健水暖商行,辽宁省,沈阳市,东陵区,辽宁省沈阳市浑南区方南路荣天家园(MOTO新城东北100米),,123.494898,41.773194
21390cbd83c171ab246e98de,东北装饰城-西2门,,,,辽宁省沈阳市浑南区长青街荣天家园(MOTO新城东北100米),,123.49498,41.773342
506b52b00b1a0835cb213d20,艺程顺装饰,,,,丰乐街道长青街东北装饰城二区一层六号,,123.49455,41.772884
561dc43276cce255a8f7298a,鑫雅新装饰材料商行,,,,方青北路与长青街交叉口西南150米,,123.494891,41.772951
d3775631e58aacbf8e772715,老太太汽车美容,,,,辽宁省沈阳市大东区江东街59-5,,123.494765,41.78505
c813ec993124d4cbaaf0cd59,沈阳今天装饰设计有限公司,辽宁省,沈阳市,东陵区,浑南中路12-17号金地国际花园,,123.490707,41.748288
d1949da35df10839a8f0cd93,飞隆装饰商行,辽宁省,沈阳市,东陵区,辽宁省沈阳市浑南区丰乐二街9号-甲-1号-3门,31832840;18624065589,123.492796,41.771328
4641b44645004e55d12dd64c,南方丽阳装饰材料,,,,长青街74号-49门,,123.494639,41.77357
c8dba2c37a974fd90bf5eb27,盛元装饰水暖五金建材,辽宁省,沈阳市,沈河区,辽宁省沈阳市沈河区北热闹路25号,13709839285,123.443827,41.794244
131b1c757b2ff65b82a12e65,通海建筑装饰工程公司,辽宁省,沈阳市,沈河区,小西路友爱东巷11号,,123.450406,41.805487
92c6c5a1cbb6e13e40e1924d,意星装饰,辽宁省,沈阳市,沈河区,沈阳市沈河区广昌路49-13-1-1,"(024)22900914,(024)22952236",123.44623,41.796132
375ffffc7966c47dd23ce37e,鹏禄装饰工程有限公司,辽宁省,沈阳市,大东区,辽宁省沈阳市沈河区中街东顺城街皇城公寓(中兴新一城东南),,123.471303,41.806992
6b11aa3a1aac43045abbbc98,欧罗蒂克进口装饰画,,,,辽宁省沈阳市沈河区热闹路54号,,123.454173,41.793804
0df0835b5534b8d938221ccf,捷洁杰汽车美容装饰,辽宁省,沈阳市,沈河区,药王庙路132号3门,13342419131,123.45016,41.802572
4773f222bd96937bf02d835f,福地装饰部,辽宁省,沈阳市,沈河区,东顺城街62,13555779818,123.470672,41.805558
392c9902b1b63d37f42310e0,腾龙白钢吸塑亮化,,,,辽宁省沈阳市沈河区中街商圈东顺城街63号,,123.471077,41.805648
066ecc58cbf9a0d828b97c0a,天顺建材邱阳装饰,辽宁省,沈阳市,大东区,辽宁省沈阳市大东区小什字街20号楼,,123.477346,41.801696
8dc42e66bdc6cd125bf6bef4,公牛装饰开关,,,,辽宁省沈阳市沈河区十四纬路43号,,123.444793,41.794329
b85ad91fb4c568c871455b55,建鑫行装饰材料商店,,,,辽宁省沈阳市沈河区北热闹路84号,15802454969,123.447895,41.794525
302c62d22435e3ed0c0e6bc4,东方瑞德装饰,,,,辽宁省沈阳市沈河区沈州路99号太和大厦B座601,,123.44844,41.798579
7b5dd4950d200e9ea4c756e1,明珠装饰,辽宁省,沈阳市,沈河区,辽宁省沈阳市沈河区大南街第一小学(五联商业广场东北),,123.461789,41.792835
f1def5862887cf9a1c389478,金贺东吸塑招牌装饰亮化,辽宁省,沈阳市,大东区,辽宁省沈阳市沈河区东顺城街65号,,123.471172,41.805096
6df8952a6bf35fb35abbbcb9,沈阳昌盛装饰工程公司,辽宁省,沈阳市,和平区,十一纬路云集西巷7,,123.426814,41.794156
0823c3aba850c6b37369d360,上海佳安建筑装饰工程公司,辽宁省,沈阳市,和平区,南京北街266号海润国际19层1909,,123.413486,41.79838
df4844b38f70dab9db1318b8,鑫源美术装饰,,,,辽宁省沈阳市和平区昆明北街28号,,123.409019,41.806349
45b48fa17d24a861ae080f2e,沈阳圣瑞家装饰工程有限公司,辽宁省,沈阳市,和平区,南京北街270号海润国际16层1602,,123.413023,41.797928
4c8862f8ce22f7e35cd4fe5e,沈阳昆海装饰设计工程有限公司,辽宁省,沈阳市,和平区,和平北大街78号鸿运大厦5层,(024)22813880,123.42192,41.798888
e371f6262b2760256f4760cb,沈阳装饰工程设计公司,辽宁省,沈阳市,沈河区,中山路355号高登国际大厦13层1311,,123.436316,41.805521
a427a5cb2886435a0aa8d483,辽宁营园装饰集团,辽宁省,沈阳市,和平区,青年大街386号华阳国际大厦23层2390,,123.44273,41.761922
4321c33910394cff96ec847d,瑞海龙宝装饰设计,辽宁省,沈阳市,沈河区,风雨坛街道顺通路56号,,123.448724,41.789704
d9bda6f99f78f74f1b94c648,辽宁越东装饰工程有限公司,,,,辽宁省沈阳市青年大街197-2号,,123.44256,41.768603
1867c3f7444b68ccc27da286,沈阳程越装饰工程有限公司,辽宁省,沈阳市,沈河区,万柳塘路万柳塘路45号鸿翔大厦5层,,123.483594,41.790593
c1efcd1af2ba627a9d95deef,鑫阳光装饰,,,,辽宁省沈阳市浑南区文萃路171号-8门,,123.479192,41.769781
c38d4a70593a072b3586f432,沈阳鸣泽诚成装饰工程,,,,辽宁省沈阳市沈河区大南街214-3号楼,,123.463537,41.7896
bd7cf0bfca574f7b6318090a,深圳海外装饰工程公司,辽宁省,沈阳市,沈河区,万柳塘路55号万泉商业中心9层919,,123.481144,41.788921
246ab6b6264138a2ee74f87b,合山装饰工程公司,辽宁省,沈阳市,沈河区,风雨坛街138号奉天壹号14层1411,,123.450219,41.789644
1881e51ab737d6859e95de9c,沈阳申科机房装饰工程有限公司,辽宁省,沈阳市,和平区,青年大街386号华阳国际大厦23层2375,,123.44273,41.761922
9eebccaec9033e7eda2f2808,沈阳亿顺建安装饰工程有限公司,辽宁省,沈阳市,沈河区,万柳塘路36-1号弘锦大厦6层609,,123.480977,41.787681
d6f8bd15d961443726d2bbc3,沈阳永太装饰设计有限公司,辽宁省,沈阳市,沈河区,万柳塘路36-1号弘锦大厦2层211,,123.479847,41.789879
09d9cd4e6614d5cb220220ac,辽宁华辉装饰工程有限公司,辽宁省,沈阳市,沈河区,文艺路19号地王国际大厦7层701,,123.447245,41.783694
36aabf1cfa0adff0b75f1eb4,江峰装饰材料商店,,,,万柳塘路63号万泉家具市场,,123.482284,41.787901
89ef74f2dd7a7b1d6c3e1ba0,海航广告装修,,,,沈阳市文化路102号1-1-2,,123.462611,41.777181
76f77ed05e66ffb5c61e51a3,三和装修装饰服务,,,,辽宁省沈阳市浑南区文富北路42号,,123.47242,41.779261
5fe97ebbd8ffde01e115f9bd,东华汽车装饰,辽宁省,沈阳市,沈河区,万莲路6号附近,,123.485791,41.791047
9dbaec0e89fa25894f2fdf51,沈阳铁源装饰设计工程有限公司,辽宁省,沈阳市,和平区,三好街18号中润・国际A座1406,,123.434319,41.782442
d6411104333985151c389411,天缘建材装修,辽宁省,沈阳市,和平区,南七马路114号附近,,123.41205,41.780812
07d3d14e66d74e0b0bccdd99,大成装饰,,,,辽宁省沈阳市和平区吉林路22号,,123.418553,41.786205
d9c5fc38e4521d1c41d63ec4,汇洋实业,,,,辽宁省沈阳市和平区太原南街295号,,123.399025,41.786312
a29d8c28b6781a72e0110379,铭瑶装饰工程有限公司,辽宁省,沈阳市,和平区,南京南街150-152号集智大厦12层2,,123.400833,41.782847
d2b17584206c640e84420ee0,兄弟车装饰,,,,文体西路104号,,123.413974,41.76987
29c04b604ff433d5cd04ef19,沈阳泰和源装饰工程有限公司,辽宁省,沈阳市,和平区,辽宁省沈阳市和平区中兴街65号-,,123.412052,41.779422
e53d82e7232bea9b61685812,大海建材家庭装修,辽宁省,沈阳市,和平区,辽宁省沈阳市和平区南京南街136号B2-1-1,13940007718,123.40287,41.784604
bba460b39c98ceee5cd4fef2,恒福临建筑装饰设计工程公司,辽宁省,沈阳市,和平区,三好街87号三好SOHO6层,,123.434587,41.767021
3bf68a9ee0790b6303ec012d,米德装饰工程有限公司,辽宁省,沈阳市,和平区,三好街88号五里河商务大厦3层,,123.435145,41.766635
77e2e9fb7db3355925e0a05c,敏富强装饰工程队,,,,辽宁省沈阳市和平区新兴电业社区(绍兴街西),,123.413671,41.780535
d145b928fcac0d3316b54b82,洁顺喷漆美容装饰,,,,文体西路106号,,123.413262,41.769936
d9cb1c8ff800f25b8bfc0663,鲁美装饰工程公司装饰画研发中心,辽宁省,沈阳市,和平区,辽宁省沈阳市和平区三好街24号光大银行南湖支行,13840025797,123.435138,41.781309
1c6a644e5da29ac7a1d23064,广俊汽车装饰,辽宁省,沈阳市,和平区,马路湾街道振兴街52,,123.415917,41.779714
6f19cfbd59153dd43517dcbc,双赢装修队建材,,,,辽宁省沈阳市和平区南九马路76号楼,,123.40118,41.780585
dd095112d7478e344e2fdfc5,大维设计家装工程,辽宁省,沈阳市,和平区,辽宁省沈阳市和平区三好街22-1号,18640153237,123.434308,41.781433
d21c77435726ff9cb7265513,沈阳诚规建筑装饰工程有限公司,辽宁省,沈阳市,和平区,辽宁省沈阳市和平区南五马路185巷3号,,123.424867,41.778755
4b1e36f063c7792133169bd9,贴膜装饰美容车间,,,,辽宁省沈阳市和平区南四经街100号,,123.429968,41.789234
36c66643d1f0feaf2b201a4d,浩杰建材装饰装修,辽宁省,沈阳市,和平区,辽宁省沈阳市和平区南七马路121号,,123.408169,41.782489
b8f10e7b6e5e7f5b79b55cf2,辽宁安知装饰,辽宁省,沈阳市,东陵区,沈阳市浑南区,,123.489831,41.747797
5a31097f40f7b06af90cadf9,建林装饰设计师艺术工作室,,,,辽宁省沈阳市浑南区浑南中路,,123.475555,41.743868
80e245ac34dd022d3010af50,鑫乐达装饰,,,,辽宁省沈阳市浑南区高迎路1号,,123.461603,41.726995
ecff7ca31f837391bfa240be,沈阳润美东方装饰工程有限公司,,,,沈阳市浑南新区涌泉路8-3号雷克大厦C座4楼,,123.468658,41.732059
33210dfa7454a0b231f71df3,实创装饰工程（沈阳）有限公司,辽宁省,沈阳市,东陵区,辽宁省沈阳市浑南区居然之家亿丰店4层,,123.470436,41.743035
4eabe113531de681283a9f4e,靓车坊汽车装饰美容中心(西北门),,,,沈营路与新秀街交叉口东北100米,,123.433334,41.708395
4558ba6f20fa88c1fda778cb,首付装饰,辽宁省,沈阳市,东陵区,辽宁省沈阳市浑南区万科新榆公馆3号门,,123.441054,41.720053
5592b01e2e079890d23ce321,晟峰装饰,,,,长白街道仙岛北路136号,,123.413127,41.742527
5e58638bb15083e3e5e965d5,沈阳胜轩装饰工程有限公司,,,,长白街172-19号2门,"81307777,23714000",123.410875,41.738251
84fca0e5dede441d4f3a5987,壹家壹饰装饰公司,,,,长白中路194号7门,,123.40127,41.746816
ab87c9a00d383360abf72934,巨汇装饰,,,,长白街道长白1路52号新加坡城2期南门,,123.400996,41.733416
cc218bb559519521dbd891ef,D3装饰,,,,长白南路和安街163号,,123.420113,41.735282
01dce2a704f201debadf8fde,方勇室内室外装修,,,,仓储街与前榆路交叉口北200米,,123.418383,41.725899
2dfea00b3281ff682a02e1f7,野木装饰工程(大连)有限公司沈阳办事处,,,,辽宁省沈阳市浑南区沈营大街,,123.437916,41.709297
2f86b6cf9ca41fd9b74f5491,白钢铁艺美术装饰,,,,南京南街117甲附近,13940279918,123.397489,41.776434
5e7c30ba9da4c46296ca0750,永顺建材家庭装修,辽宁省,沈阳市,和平区,太原街街道太原南街南七马路39号楼,,123.397881,41.786828
459473260b2b52b5d0ff234c,沈阳天彤装饰工程有限公司,辽宁省,沈阳市,和平区,沈阳市和平区南五马路东大商巢17号336室,,123.398088,41.791066
4ac9ce22f159f56108ccdd17,沈阳天骄装饰工程有限公司,,,,和平区胜利大街南五马路3号中驰国际大厦16层,,123.397101,41.791414
497c8ec7ace52c6f45e2743d,沈阳瀚宇绿建筑装饰工程有限公司,,,,和平区胜利大街南五马路3号中驰国际大厦12层,,123.397101,41.791414
0c7224d545e3cbb22a02e1e1,MIX汽车美容装饰中心,,,,辽宁省沈阳市大东区莲花街长顺三巷39-9号,,123.49447,41.79229
05fa16d6c0b2db8860180932,顺民装修,辽宁省,沈阳市,大东区,辽宁省沈阳市大东区凯翔一街56附近,,123.492492,41.796302
d5026d1d07c1cc6e28b97c35,沈阳汐旺装饰工程有限公司,辽宁省,沈阳市,大东区,沈阳市大东区滂江街振浩大厦5层,,123.492688,41.805415
07d78524bc3cf150d3ff233c,鼎发摩托车装饰用品商行,辽宁省,沈阳市,东陵区,辽宁省沈阳市浑南区丰乐二街9号-甲-2号-11门,,123.494174,41.771906
f9208142f9e3c45efe0eb0a0,老华友装饰精品,,,,辽宁省沈阳市浑南区丰乐二街9号-甲-2号-6门,,123.493823,41.771725
8b484c59d8cd92911d580035,金开泰装饰材料商行,辽宁省,沈阳市,东陵区,辽宁省沈阳市浑南区文萃路荣天家园(MOTO新城东50米),,123.495115,41.77244
7042aad91c26a92fcb213d3c,方正装饰材料,,,,沈阳市浑南区长青街76号,,123.494696,41.77225
92daf878168e2c518605bf1d,裕丰装饰用品,,,,辽宁省沈阳市浑南区丰乐二街9-甲,,123.493073,41.77173
1fa2cc66f3040dc7e8e58202,美德装饰,辽宁省,沈阳市,和平区,沈水路616甲5,,123.488294,41.766318
06cc672ef59288057adbd2a8,枫香树装饰材料商行,,,,沈阳市浑南区,,123.494891,41.772951
51e94840254c1ddc2fb90840,盛德装饰,辽宁省,沈阳市,东陵区,辽宁省沈阳市浑南区江东街86,(024)24207299,123.493935,41.777484
f65b82e92b642119128824fc,东北装饰城-金顺水暖,辽宁省,沈阳市,东陵区,沈阳市浑南区,,123.495152,41.773131
735f6d46c716b08feb12e42c,装饰设计,辽宁省,沈阳市,东陵区,沈阳市浑南区,,123.491393,41.748111
d5051239766d3249a5da3950,鑫威远汽车美容装饰,,,,辽宁省沈阳市大东区江东街34号,,123.494836,41.787121
956c497261324fb4ede4a5e6,鸿岩装饰三防板,,,,长青街74-33门附近,,123.494898,41.773194
6a542a6436d1dfbf2bd7ab6f,沈阳艺典装饰设计有限公司,辽宁省,沈阳市,沈河区,风雨坛街1号中船重工大厦6层,,123.455505,41.798735
443462974dc6bdf784330496,海之梦装饰,辽宁省,沈阳市,大东区,辽宁省沈阳市大东区东顺城街44号,,123.471064,41.806148
39ae75745b59b70c770269a4,立军装修,,,,辽宁省沈阳市大东区大东路1号,,123.472276,41.802972
2982b796d286cd3315c905f1,盛欣广告装饰,辽宁省,沈阳市,沈河区,沈阳市沈河区,,123.442869,41.805642
37fbee8bd4e4594c4e3a59fc,瑞家地产装饰,,,,辽宁省沈阳市大东区大东路89号,,123.478827,41.803652
b7d96d6ea7da64e3acee7ad7,沈阳美洁装饰清洗公司,辽宁省,沈阳市,沈河区,大西路1号文峰大厦13层A09-10,,123.454472,41.802743
bab694c4c4b171c5e81e97db,家庭装饰电脑维修,,,,沈阳市大东区,13066721001,123.482948,41.803134
60a3b9661849bd94be4842cc,久旅广告装饰,辽宁省,沈阳市,沈河区,辽宁省沈阳市沈河区热闹路吉庆社区(万柳塘公园北100米),,123.470153,41.793532
a5cdaed999c84a424e5547c3,创益装饰,辽宁省,沈阳市,沈河区,辽宁省沈阳市沈河区东顺城街42号,,123.470544,41.806228
01c664925b70d0e87bdbd285,牌匾门脸装修,辽宁省,沈阳市,沈河区,辽宁省沈阳市沈河区热闹路15,,123.447328,41.792801
cc40e8b02a48da0103ec0110,晴天汽车美容装饰会所(No.28),辽宁省,沈阳市,东陵区,辽宁省沈阳市浑南区方兴路6号-6门,,123.503546,41.782741
91cc7de01b8c50cbe5073823,东北装饰城-北门,,,,辽宁省沈阳市浑南区长青街东北装饰城西北(MOTO新城东北),,123.495707,41.773409
684b1b5f012cf5e8a1d230de,靓车坊洗车美容,辽宁省,沈阳市,东陵区,辽宁省沈阳市浑南区银卡东路1-47号6门,,123.50889,41.746116
fd45140094b809f55fbe8678,圣雅峰装饰浑南店,,,,辽宁省沈阳市浑南区沈本线圣雅峰装饰(金水湾西50米),"4000247880,024-62336888",123.502107,41.720173
cdabc5c2732b8cedca1b951d,宝城装饰五金建材,,,,方凌路27号2-1门,,123.521028,41.791965
53a4ab9da1f7f175bb17e723,鑫如意装饰材料商行,,,,沈阳市浑南区,,123.496843,41.772306
aa47920623325f6b09b93ad7,宏昆装饰公司,辽宁省,沈阳市,东陵区,辽宁省沈阳市浑南区五三街道浑南中路江南水乡19-37号,(024)31032264,123.504552,41.745999
45c9d61d1b1319dd882fb523,北奇达汽车美容装饰连锁大东店,辽宁省,沈阳市,大东区,小河沿路150号民航北门建行东500米,,123.501321,41.797128
9bee29ad3ca66b0628d7abdc,沈阳昌远装饰工程有限公司,辽宁省,沈阳市,东陵区,浑南新区营城子街9号博荣水立方,,123.500446,41.722258
2edc394a0a2ac91cab0dd8e6,亿家装饰,,,,辽宁省沈阳市浑南区浑南东路59-28,,123.557238,41.77263
fe61152ba2444dcac1f1cfb3,东北装饰城-东1门,,,,辽宁省沈阳市浑南区长青街东北装饰城(和泰长青园北200米),,123.497326,41.772602
82c2df2239b37050fbdc855f,鹏鸿金福缘装饰商行,辽宁省,沈阳市,东陵区,辽宁省沈阳市浑南区浑南区东北装饰城四区1层7号,,123.49601,41.772877
478c9226e58cef889e82eac1,车盛技服佳汽车装饰,辽宁省,沈阳市,大东区,沈阳市大东区长安路48,,123.497051,41.803969
e529e419f56d42e0eddfcacd,创梦装饰,,,,辽宁省沈阳市浑南区浑南东路59-28,,123.556883,41.772459
a6d726dd5182fc95a3acc4d1,龙福源装饰,辽宁省,沈阳市,东陵区,长青路16-1号楼附近,,123.495742,41.772461
66c5c6db611ceec1b320a831,百恒装饰,辽宁省,沈阳市,东陵区,方荣路6号6门,(024)24622559,123.509992,41.775316
d889b55a0824376276e5b67a,腾禹户外装饰,,,,辽宁省沈阳市浑南区全运路与营城子大街交叉口西北50米,,123.508465,41.715651
36149d44452a13b8c42ba118,车来车往汽车美容装饰(营林社区卫生服务站西北),,,,营城子街道营城子大街后林新村,13478888121,123.520531,41.711241
259e69a291086a672002207b,延兴相框装饰材料,,,,辽宁省沈阳市浑南区长青路18-1号楼附近,,123.496949,41.772432
216123c7f2009d90aeb22a28,徽派装饰,,,,丰乐街道方家栏路20号,,123.500006,41.779755
ba875fb441ca786ec9e33ce9,鑫淼汽车装饰,,,,辽宁省沈阳市浑南区方荣路3号-6门,,123.507518,41.775147
b1ed7a18e8d98ece704b87cc,东北装饰城-东2门,,,,辽宁省沈阳市浑南区长青路东北装饰城(长青小区北),,123.496921,41.771827
bfbb18ad79821f19a8059d4f,立华铁艺装饰有限公司,辽宁省,沈阳市,东陵区,辽宁省沈阳市浑南区方正街御龙逸城北区东北250米,,123.519747,41.791237
1fb468618696900d6cc02c63,鑫巢装饰工程有限公司,,,,东湖街道浑南东路20-5号12门,,123.530234,41.757274
4ff1b018f1096aab3c9a5e0d,东林装饰,,,,辽宁省沈阳市浑南区荣盛・紫提东郡二期(浑南中路南),,123.558985,41.773992
76a7bde7d709087426e0a083,瑞家地产装饰,,,,浑南区浑南东路18-7号11门,,123.523035,41.756979
4ccefdee040f7ff62d47334f,华龙装饰,,,,方凌路21号惠民新居19-2号A3-21门,,123.521894,41.793437
ad4979a8d67fa4e203ff2d1b,天添装饰,,,,沈阳市浑南区,,123.519803,41.792316
c7811576bdb3d8465810932b,鹏安装饰,,,,沈阳市浑南区,,123.496949,41.772432
a8451db98a2605d9c5effb2e,康乐装饰材料商行,,,,辽宁省沈阳市浑南区长青街荣天家园(MOTO新城东北100米),13840399976,123.495755,41.772706
3a54fa5ae1fda9b5a80dd87f,千晟美装饰材料商行,辽宁省,沈阳市,东陵区,长青路18-1号楼附近,,123.496949,41.772432
2972e251839423f1b34c4997,逆变电源装饰工程,,,,辽宁省沈阳市浑南区方凌路,,123.5173,41.78315
09086a8b1c979195deee8bf7,红吉装饰,,,,辽宁省沈阳市沈河区方家栏小区(方家栏路北),,123.50223,41.779802
54f5d068b393053e61685805,新程艺装饰,,,,辽宁省沈阳市浑南区方家栏路25巷-6号,,123.510733,41.776594
0e892820e04c960346572662,沈阳华博幕墙装饰有限公司,辽宁省,沈阳市,东陵区,辽宁省沈阳市浑南区张施线南50米,,123.557719,41.722178
fcdfe65e5a4066dd49fd3f50,正林装饰,,,,辽宁省沈阳市浑南区营城子街道孤营线花溪林语,,123.519664,41.728097
80fb5095bf8d13d932f71d61,王姐汽车美容装饰中心,辽宁省,沈阳市,大东区,辽宁省沈阳市大东区长安路113-8号,,123.51676,41.801881
7c9a413cc93da91ee115f9fc,鸿妍广告装饰,,,,凌云街66-1号,,123.523379,41.800618
df71f5181d7ddb2f100daab0,惠民家装馆,,,,凌云街82-1号附近,,123.52096,41.792523
0ace262220ebb64294ec8482,天龙装饰铝塑铁艺白钢断桥门窗,辽宁省,沈阳市,大东区,辽宁省沈阳市大东区长安街道凯翔二街1号楼,,123.497546,41.802057
cd45b4f7b7159483f4e73b10,群启装饰,,,,浑南新区浑河东路紫提东郡二期东门,4000249776,123.562296,41.77649
41dcd234534dead9fb2d6186,嵘金装饰,,,,辽宁省沈阳市浑南区沈抚大道,,123.561132,41.777142
332a73095825769204fef5dc,艺江南新程艺装饰,,,,沈阳市浑南区,,123.510788,41.776634
51b6d45ab3cbd3de13293556,东北装饰城停车场-出入口,,,,长青街74-11号附近,,123.495716,41.773394
5b47a95c8b5960cfc356acf3,腾达康乐装饰材料商行,,,,沈阳市浑南区,,123.496949,41.772432
056e3916dfc3b4d4a11de9b1,利欣源装饰材料商行,,,,沈阳市浑南区,,123.496843,41.772306
98f576529ede357796031972,鸿滏装饰,,,,方家栏路51-2号7门,,123.517062,41.781349
11e37cff9c96780a43e192a2,吉安顺汽车美容装饰中心,辽宁省,沈阳市,东陵区,辽宁省沈阳市沈河区泉园街道小河沿路5甲-12号1门,,123.507478,41.78492
c640e0476ae1a63fd518b7ce,云梦装饰材料商行,,,,辽宁省沈阳市浑南区浑南区东北装饰城8区2-3号,"024-62426807,13940300894",123.495742,41.772461
bfe0d39abe6a77d42cb96da1,好房多装饰,,,,辽宁省沈阳市浑南区浑南东路金地滨河国际左岸附近,,123.529365,41.757123
b7b04c9bbee400492b11d1e9,东北装饰城停车场-出入口,,,,辽宁省沈阳市浑南区长青街东北装饰城附近(万科花园新城南),,123.497173,41.773166
aabcb5470d2700a2250bd0ce,丹丹洗车美容装饰,,,,辽宁省沈阳市浑南区方青北路27号-20门,,123.505212,41.773576
38792a572905957a343a71dc,二敏汽车美容装饰,,,,浑南区方圆街17号-1门,,123.513123,41.786751
ca5f9659ab11e0bb28201a35,晨伟装饰,,,,沈阳市长青街76号,,123.496705,41.772656
64e699ef8e91383cd4851f13,明通装饰工程有限公司,辽宁省,沈阳市,东陵区,文萃路255号长青小学附近,,123.497243,41.769296
52dd502ce723fc92744ff16f,锦程装饰,,,,辽宁省沈阳市浑南区五三街道沈祝线金地・檀溪北门,,123.523648,41.757682
b6f8c50b610a9fcfe50738f6,正大装饰,,,,辽宁省沈阳市浑南区五三街道长青南街正大江南水乡2期,,123.508062,41.747384
9e95af7526e75900130daaef,多之彩装饰,,,,辽宁省沈阳市浑南区营城子街道沈本线华新园北,,123.520263,41.711322
278abf907998834994ec84b4,鹏鹏汽车美容装饰,辽宁省,沈阳市,东陵区,辽宁省沈阳市浑南区沈祝线,,123.591788,41.75026
e92dde27d0df9fc9eddfca1f,沈阳壁虎装饰工程有限公司,,,,辽宁省沈阳市浑南区新泰街28-2号保利・海上五月花110-03,,123.538906,41.807495
73d1d8681e8063d33b04b1a1,刚子装饰,,,,凯翔二街1号附近,,123.497181,41.802153
bc1bea9ee801a1fcd22dd6b9,鑫忆洗车美容装饰,,,,沈阳市大东区小河沿路152-3门,,123.5017,41.797468
14cfd849fc925004d2f49ed3,童洋汽车装饰美容中心,,,,辽宁省沈阳市浑南区凌云街童乐宝贝幼儿园东北100米,,123.524382,41.798041
990f7bb8dcafef2afea77871,宏澳装饰材料,辽宁省,沈阳市,东陵区,丰乐三街与长青路交叉口东北150米,,123.496705,41.772656
e83991521063cef114c8f683,铭子越装饰材料商行,辽宁省,沈阳市,东陵区,东北装饰城6区26-27号,13940172236,123.495755,41.772706
71c3e16ecb22b172626858f4,弘讯建筑装饰工程有限公司,,,,辽宁省沈阳市沈河区文萃路255号长青小学旁,,123.497346,41.769315
c906ff3d09e822e49122e0f9,大红泰装饰材料商行,,,,长青路18-1号楼附近,,123.496949,41.772432
448b977c08954bc4455726b9,汇尚装饰,辽宁省,沈阳市,东陵区,浑南中路19-3号2门,(024)83812225,123.502951,41.749044
36dd0dfb1b31c4d26f476017,云香生态板装饰专卖,,,,长青路16-1号楼附近,,123.495742,41.772461
045bb833a7a08708f5eafcdd,东北装饰城停车场-出入口,,,,辽宁省沈阳市浑南区长青街东北装饰城东南50米,,123.497922,41.772373
1b345596552daca12efaa721,洗车装饰,,,,辽宁省沈阳市浑南区方圆街6号-2门,,123.510345,41.787036
d113e1350db63cd716c90598,兴兴奇阔装饰材料商行,,,,辽宁省沈阳市沈河区长青东北装饰城(长青街南),,123.495755,41.772706
8b8350aecbccd236e0110339,唯美背景墙装饰,,,,营城子大街后林新村,,123.523749,41.710291
c9f4e1162bd6ce7c4e2fdf6f,新天资汽车装饰总汇,辽宁省,沈阳市,东陵区,辽宁省沈阳市浑南区深井子重庆川椒火锅(深小线北),,123.664423,41.79032
1e12a73d959b6cfc09b93aea,鑫汇装饰,辽宁省,沈阳市,东陵区,辽宁省沈阳市浑南区深井子东路,,123.665164,41.789105
9eb26cb68370bdbf130daa4d,欧建装饰,,,,辽宁省沈阳市浑南区深小线时利和果蔬生鲜超市深井子店,,123.665689,41.788723
840cce53fd8394507369d372,鸣宸装饰,,,,辽宁省沈阳市浑南区深大线,18240078688,123.664601,41.788298
8086b342ac09473d157643e7,辽宁安胜门窗装饰工程公司,辽宁省,沈阳市,东陵区,东李路附近,(024)24718705,123.611916,41.806331
f52aeee8f8e66ff29fe321b9,荣上五金装饰厂,辽宁省,沈阳市,于洪区,辽宁省沈阳市于洪区洪汇路203,,123.236977,41.808112
1e7a5d7e7275671e42d63e95,沈阳品味装饰材料有限公司,辽宁省,沈阳市,于洪区,辽宁省沈阳市于洪区前民工业园,,123.241466,41.817229
1e4a9e3880448a0603ff2d37,沈阳鑫业金属装饰材料,辽宁省,沈阳市,于洪区,东方木业附近,,123.282934,41.821331
1d1231b46407599d3010afb6,荣上五金装饰厂-西北门,,,,洪汇路203号附近,,123.237069,41.808155
86960c621ca3ea908bf15dfd,舒心装饰,,,,辽宁省沈阳市于洪区沙岭街道俪锦城三期西门,,123.201599,41.80857
3a5dce33647f00ddbda24095,沈阳蓝天装饰板厂,辽宁省,沈阳市,于洪区,辽宁省沈阳市于洪区马三家中街金马鸣园南,,123.251602,41.900528
4983b30dc5e06fde9f09f78f,御龙装饰建材,,,,辽宁省沈阳市于洪区马三家中街69-7门附近,,123.253093,41.904027
b353e1fe532650d2cb213d96,瑞祥隆装饰,,,,辽宁省沈阳市于洪区五洲国际工业博览城(红兴路北),,123.293299,41.85419
cd4bb88b4249a4b17369d3c1,奥林装饰,,,,辽宁省沈阳市于洪区永盛街附近,,123.26955,41.821902
47e18d3b2bd6263f00294f4f,方林装饰体验馆,辽宁省,沈阳市,铁西区,铁西区兴华北街30号新财富大厦4楼(近红星美凯龙),,123.384974,41.810929
25aee6ae113309e7abf0cd71,林凤装饰体验馆,辽宁省,沈阳市,铁西区,铁西区兴华北街18号千缘财富商汇5层,,123.38802,41.815571
26d01f929df226016318090a,辽宁方林装饰工程有限公司,,,,铁西区兴华北街30号新财富大厦4楼,,123.384973,41.810934
d884b9d9e92ce95cb320a8f9,奉泉装饰,辽宁省,沈阳市,皇姑区,辽宁省沈阳市皇姑区淮河南街11号,,123.394013,41.82831
ce1a938f34fbc519047ce83f,恒大家装,,,,铁西区兴华北街小北一路7甲号12门,,123.389077,41.815064
1e9841fb16cbf022abf0cd6f,沈阳九创装饰工程有限公司,辽宁省,沈阳市,铁西区,沈阳市沈阳市兴华北街11号,,123.388476,41.814193
6f44b5da5fb5aa2febe58228,沈阳品艺装饰工程有限公司,,,,沈阳市沈阳市兴华北街18甲5门,4000245007,123.387855,41.815868
b259ec5b28be35d3e5073869,沈阳今朝装饰设计公司,辽宁省,沈阳市,铁西区,辽宁省沈阳市铁西区兴华北街18号千缘财富商汇A座2门,,123.387753,41.815042
8183366b4a4cad2b26e0a02d,沈阳宜家装饰工程有限公司,辽宁省,沈阳市,铁西区,辽宁省沈阳市铁西区兴华北街小北一路千缘财富商汇B座4门,(024)31327839,123.387624,41.81589
3c4daf633fa94106276e982b,绿港装饰(铁西体验馆),辽宁省,沈阳市,铁西区,小北一路千缘财富商汇大厦B座3门18甲,,123.387978,41.815284
66bfa0b95213ae97b5f42f36,沈阳匠臣装饰有限公司,辽宁省,沈阳市,铁西区,辽宁省沈阳市铁西区保工北街18号-6-3门,,123.373377,41.819739
7388c6dbd0bf4fdabe4842c2,一龙装饰(沈阳店),,,,华山街道昆山西路55号,,123.394586,41.831161
e097f2db9a92a5449222e0a2,尚居轩装饰,,,,重工街北三路凯荣国际花园1号2门,,123.336313,41.825483
8b3b22d827401975744ff13e,辽宁方林装饰建材精品馆,辽宁省,沈阳市,铁西区,铁西区兴华北街30号新财富大厦3楼(红星美凯龙对面),,123.385006,41.810946
eb0a180c3b55e7c308f5ebaa,方林装饰(市场部),,,,兴华街道小北二路新财富大厦27楼,"4000651918,(024)31351918",123.384974,41.810929
f868fc87263638ec40ab9a15,梵客家装（铁西店）,,,,辽宁省沈阳市铁西区北二东路22-12门,,123.391036,41.809894
2a56382f0b91e80cb15c6acb,玺霖装饰,,,,保工街小北四路68号1门,,123.364324,41.809894
06a3dc3fa951a6bec8213da4,立信东升装饰材料市场,辽宁省,沈阳市,于洪区,辽宁省沈阳市于洪区洪湖北街6号,,123.3159,41.810427
7488fa2d95d2bfa403ff2d3e,军诚装饰家居体验馆,,,,辽宁省沈阳市于洪区美的城(赤山路北),4000777540,123.365243,41.873477
32a91e04ffb596a4b05c6a11,尚亿装饰,,,,辽宁省沈阳市铁西区北二东路22-1号7门,,123.389792,41.810474
de6d9c19483b5fd248cc4ad2,百隆智能整装,,,,北三东路28-1号3门(应昌街北三东路路口北行50米),,123.386301,41.807819
e6ceb6cde72d5032a6da39b3,大展装饰设计顾问有限公司,辽宁省,沈阳市,铁西区,辽宁省沈阳市铁西区保工北街1甲1号4门,,123.374862,41.821505
9b3ddec42df6c11341024543,明廉装饰材料大厅-东门,辽宁省,沈阳市,皇姑区,沈阳市皇姑区锦水街65号2门,,123.37116,41.834115
4b0d3c640d75936c14b54b34,北轩装饰(铁西店),辽宁省,沈阳市,铁西区,铁西区北二东路35号红星美凯龙正对面,,123.387899,41.811214
ceaadf2bf6a9014b4d5547ac,方林装饰1918大宅,,,,兴华街小北一路千缘财富商汇B座4层,,123.387809,41.815565
6eb0d5a254c484e6f11937ea,辰歌装饰,,,,辽宁省沈阳市铁西区保工北街42号-2号-2门,,123.366343,41.812691
a7c528ee02b768f5631c67f1,刘鹏装饰,,,,于洪赤山路122号(西江西街与赤山路交汇处西行),,123.366366,41.873733
e9a0bcb214a2ed208605bfe1,鑫淼汽车装饰养护中心(CM美车西江店),,,,辽宁省沈阳市皇姑区塔湾街79-38,,123.395192,41.847961
dd66db158b6253c7f8f0cbfe,盛京百车汇洗车装饰补胎,,,,辽宁省沈阳市于洪区洪湖北街62号,,123.316135,41.814593
2226edc01e2b763cab059d6e,沈阳鑫友装饰铁西店,辽宁省,沈阳市,铁西区,铁西区北二路22-1号门,,123.390305,41.81022
2d5d5ec8f9ecf9eb5bf6be4c,兴辉装饰装修公司,辽宁省,沈阳市,铁西区,建设中路92号5门,,123.356745,41.808559
7c56c19451bc191e9a0050c0,沈阳德方装饰工程有限公司,,,,辽宁省沈阳市皇姑区白山路208号9门,,123.367534,41.858681
ae60e10b667d5236e115f9fa,方林工程装修中心,辽宁省,沈阳市,铁西区,兴华北街18号(小北一路千缘财富商汇B座4楼),,123.388081,41.815443
856b05b394a5bb009ff77964,平原美车汽车美容装饰中心,,,,肇工北街4甲号4门,,123.349041,41.829098
77248c0a00d52686adb22a52,昌隆装饰材料厂,,,,千山西路62号,,123.389529,41.88334
4584bf1866d8889ac5effbe3,车之宝汽车装饰,辽宁省,沈阳市,铁西区,虹桥路25-2号3门,,123.390903,41.811522
9252351904a73c32adcb6606,彤祥装饰,,,,沈阳市沈阳市兴华北街8号2门,,123.388962,41.817299
deea06b083b4c331631809f4,沈阳佳诗美装饰工程有限公司,,,,辽宁省沈阳市铁西区贵和街3号-2号-1门,31999488,123.381065,41.807951
d3b0ae5e80090a8e93114cdc,立信东升装饰材料市场-2门,,,,沈阳市于洪区,,123.316281,41.812127
f8e5c99d03c167f18d1a8929,轩腾装饰工程公司,辽宁省,沈阳市,铁西区,沈阳市铁西区兴华北街34号,,123.382682,41.808005
a85bad8ad8657b074e5547de,天宇艺丰装饰,辽宁省,沈阳市,于洪区,辽宁省沈阳市于洪区赤山路300米,,123.367387,41.875549
46d118fc9ead001ebea24053,鲁鑫装饰,,,,赤山路119号,,123.372346,41.875645
f3efd8cfd7ffe77e2cb96dad,车鼎汇汽车美容装饰,辽宁省,沈阳市,于洪区,沈阳市沈阳市白山路168-1-4门,,123.376589,41.862807
f8136cdb20c1b5cb58f6bec4,沈阳乐家装饰（铁西店）,辽宁省,沈阳市,铁西区,辽宁省沈阳市铁西区北二路24号（红星美凯龙对面）,,123.388528,41.811022
cc52c9bf19d9da8821f017c3,北京元洲装饰集团沈阳分公司,辽宁省,沈阳市,铁西区,北二东路35号红星美凯龙6楼,,123.389736,41.810422
818b5c3b11052206b4f42fcb,沈阳拉菲装饰,,,,沈阳市铁西区兴华北街25号2门(盛京银行南走30米),,123.383094,41.807781
e79b01349ff9a673e5e965d2,鑫起来装饰,辽宁省,沈阳市,皇姑区,明廉路111,13252892218,123.360878,41.832443
dbc319837bf5000bac31e558,有嘉装饰,,,,辽宁省沈阳市铁西区北一东路81号-4门,,123.39304,41.818853
46feb08261f9951e74026919,家海装饰,辽宁省,沈阳市,皇姑区,辽宁省沈阳市皇姑区昆山西路108号-3门,(024)62458588,123.385662,41.83411
c7df6f8fdb60ef0d3a13fd20,博明装饰,,,,兴华北街32号-1门,,123.384783,41.809863
1fe6d454e2a92e8b7069d3b9,新北方装饰建材城-东2门,,,,齐贤北街30号甲,,123.368229,41.808644
a718040149d914cb9d9d6875,鑫锦鲤装饰,辽宁省,沈阳市,铁西区,二环内景星北街小北一路22-2号,(024)64690800,123.378937,41.819424
0f26eb37cc8230fbae04571e,鼎祥装饰,辽宁省,沈阳市,铁西区,兴顺街3-1号7门,,123.373196,41.80972
b7e755e66f014c3881288a2b,齐轩装饰,辽宁省,沈阳市,铁西区,辽宁省沈阳市铁西区保工北街32-1号-10门,(024)85616677,123.369576,41.816288
276c905ce22369123717dc49,北方装饰建材城刮大白刷乳胶漆,,,,辽宁省沈阳市铁西区齐贤北街30号-6号-5门,,123.368089,41.809667
14bf53ef3c4a0ef77f29bd79,家装e站,,,,沈阳市铁西区兴华北街小北一路千缘财富商汇A座4门,,123.387818,41.815228
7a25de1e2fc5ca50725e8081,泰格装饰,辽宁省,沈阳市,于洪区,辽宁省沈阳市于洪区洪湖北街木材市场食杂店对面,25344508;13840481789,123.315616,41.810292
fbe793ae648c67ff1a94c673,车无限汽车清洗美饰广场,辽宁省,沈阳市,于洪区,辽宁省沈阳市于洪区西江街119号,,123.389758,41.860916
c51ca65667e78ada17948e21,石磊装饰,,,,白山路278-212门,,123.354396,41.849738
88bd3b29e038952f213bf28a,车魔工作室,辽宁省,沈阳市,铁西区,沈阳市铁西区瑞京时代汽配广场西5门,,123.34968,41.823211
d4448d4738db8bae4e6d46b7,艺棠装饰,,,,辽宁省沈阳市于洪区赤山路55号,024-31040567,123.386072,41.879337
c0e5ca2f083ab92fd23ce399,家艺陶瓷装饰材料,,,,洪湖北街8号附近,,123.315911,41.809534
97844f6f10485539b35c6ad3,美家帮家装体验馆,,,,沈阳市铁西区保工街北三路38-2,4006059201,123.367392,41.814045
df023fafe6e7a51bc17da2d6,世凯装饰,,,,辽宁省沈阳市于洪区迎宾路高架188号附近,,123.316908,41.808759
8c001dcf93ec965932f71d7b,荣泰装饰(铁西店),辽宁省,沈阳市,铁西区,景星北街22-2号,(024)64691898,123.378938,41.819424
2a4c6d438e07bbc3cac3dbbd,富林装饰,,,,沈阳市于洪区松山西路158号,024-67763559,123.365535,41.866297
8b957c9438ec2bb9d9ecedbe,邑品汇,辽宁省,沈阳市,铁西区,云峰街北二东路鑫丰国际22号8门,,123.390682,41.810049
670d54d9cd3d909579dbd2cb,城瑞装饰,辽宁省,沈阳市,皇姑区,辽宁省沈阳市皇姑区昆山西路106号-10门,,123.386147,41.833933
cc7cf3edb607353a4c3a59f6,沈阳驰尚汽车装饰用品有限公司,,,,沈阳市铁西区北二路瑞盛汽配城,,123.350248,41.824617
e725874413f66f86fbdc858d,沈阳特莱美汽车装饰用品有限公司,辽宁省,沈阳市,铁西区,北二西路瑞盛国际汽配城34-12号,,123.351142,41.824631
c37215c2f8d067252fb96d96,鑫海森装饰(铁西店),辽宁省,沈阳市,铁西区,沈阳市铁西区兴华北街5-3号13门,,123.389931,41.816485
2a23b880ad7951696d20b9ca,万里装饰,辽宁省,沈阳市,铁西区,沈阳市铁西区重工北街32号,,123.340343,41.831835
ec39587e56c6089a3a04b187,欣美信汽车装饰,,,,辽宁省沈阳市铁西区北二西路26号甲30-12门,,123.3504,41.825205
861e91cd3e59f3b1c5effb2d,海英装饰,,,,广业西路122-5号附近,,123.311864,41.851296
85576e814486b850adcb6674,金嘉家装饰,,,,沈阳市沈阳市西江街188号1门,,123.382185,41.869533
02bc20ae2105d9db2ce67b78,家家乐装饰装修公司,,,,洪湖北街18-2号附近,,123.315313,41.809218
0879261a49de1e09fea778c8,神州五金水暖建材益兴装饰,辽宁省,沈阳市,铁西区,南六西路518不动产旁,,123.344858,41.809164
e6bb4a713faa4ed0a8f0cd29,帅林汽车美容装饰,,,,广业西路36-2门,,123.329984,41.84626
f43b72ea6ca444d8bb17e776,车之海汽车装饰,,,,辽宁省沈阳市于洪区玉龙山路26,,123.357482,41.844264
5e3a6fbb5cd92f9ad8ecedf7,瑞家地产装饰,辽宁省,沈阳市,皇姑区,昆山西路77-16,,123.385481,41.832305
21d46a694c22e97a203bf27c,启点装饰,,,,橙山路11号7网点,,123.360218,41.866979
5458444c1a8ac0af8a36ee29,弗莱尔汽车美容装饰,辽宁省,沈阳市,铁西区,辽宁省沈阳市铁西区北三中路5号-10门,,123.378023,41.810524
694fae01d18e37a1aa175af0,格豪装饰,,,,广业西路36-8号附近,,123.331296,41.848613
7f06b66cf86504eb43e192fe,万美家装饰工程公司,辽宁省,沈阳市,于洪区,沈阳市于洪区西江街217号2门,(024)86310877,123.378388,41.874835
5c8cc020d2d60fb91f38947b,沈阳龙发装饰(铁西店),辽宁省,沈阳市,铁西区,北二东路35号红星美凯龙6楼,,123.389803,41.810395
c31a02e71e319f674054d730,新北方装饰建材城地上停车场-出入口,,,,辽宁省沈阳市铁西区北四中路62号附近,,123.368436,41.808509
719d2ec7a88d08c32cb908a9,新北方装饰建材城地上停车场-出入口,,,,沈阳市铁西区,,123.366189,41.80903
778439ef321c5fdb631c67de,新北方装饰建材城-东1门,,,,辽宁省沈阳市铁西区齐贤北街30甲,,123.368113,41.809161
ca0f242457dc9366b5f42fb5,汽车美容精品装饰中心,辽宁省,沈阳市,皇姑区,辽宁省沈阳市皇姑区信江街2号8门,,123.378417,41.836506
494ebf8d7d767448f4b9163c,沈阳志鑫装饰装修工程有限公司,,,,辽宁省沈阳市于洪区沈大路18-2号1门,18809889660,123.315783,41.809013
b81ae7450ac9ad290a5cb324,沈阳博航一统装饰材料有限公司,辽宁省,沈阳市,铁西区,辽宁省沈阳市铁西区北一中路北一路万达广场四楼,,123.388027,41.82045
1973eb73b1d1e7955a3ac82d,京东装饰,,,,沈阳市皇姑区昆山西路108号11门,,123.386251,41.83398
e8d0a1cf4c9d5b376e20b9a3,凯澌特装饰(铁西旗舰店),辽宁省,沈阳市,铁西区,肇工北街4甲3网点12门,,123.347807,41.828795
0ae843442095580b960319c6,艺景装饰,辽宁省,沈阳市,铁西区,保工北街34-1号1门,,123.368353,41.81518
fac65a3c0d1028458bfc06ac,金巢装饰,辽宁省,沈阳市,铁西区,保工北街261号附近,,123.375112,41.821373
959505c70104d2cc4251c01e,春天装饰建材,辽宁省,沈阳市,铁西区,辽宁省沈阳市铁西区重工北街50甲23网点3门,,123.336661,41.830875
3ab9a4bff27d88d896f08c47,东阳汽车美容装饰,辽宁省,沈阳市,铁西区,重工北街50甲37号18门,,123.33743,41.827746
3fdedbaf3b385f544007c102,迹想装饰,辽宁省,沈阳市,铁西区,铁西区兴华北街18号千缘财富商汇13层,,123.388187,41.815468
4cdd1c174e4b3f44d92f2802,领家装饰,,,,北一中路19-1号103门,,123.382177,41.819411
20fb01f410d86731d81318ba,沈阳加强装饰公司,,,,西江街201-8号附近,,123.382402,41.87396
4af849d993ddbf919222e06e,腾辉鑫装饰,,,,于洪街道赤山路76号绿地老街坊二期126-3门,,123.382118,41.87955
6672063d31c689e335b06ca4,富浪汽车美容装饰中心,,,,辽宁省沈阳市铁西区北一西路21乙1号7门,13840502728,123.333832,41.831265
d76856c760cdc9ec4f5547bd,沈阳同旺汽车装饰用品有限公司,,,,北二西路26-甲6号附近,,123.350516,41.827337
84ccdc3a966615b2c33644fa,成林美容装饰会馆,,,,辽宁省沈阳市皇姑区昆山西路77-21,,123.384807,41.830749
d5d0e81f5008d7701388249c,泉泉洗车房汽车美容装饰中心,,,,广业西路148,,123.302217,41.849172
01847ad14e52bc0958f6bedc,辽宁省轩铭工程装饰有限公司,,,,北四西路4甲7号,,123.349606,41.812402
5c3618c89d7e679f047ce8ce,沈阳市铁西区正天电脑美术设计装饰部齐贤店,,,,辽宁省沈阳市铁西区齐贤北街30-1号6门,,123.369375,41.809865
caaa49c991c4fffa0f0e6bc8,祥圣泰装饰,辽宁省,沈阳市,铁西区,沈阳市铁西区铁西区政府后门,,123.381168,41.808322
1bc947450a0f663295f08cb4,安泰装饰材料(洪湖北街),,,,洪湖北街15附近,,123.315812,41.809917
b420defaa4f158ed43ab9a9b,新北方装饰建材城地下停车场-入口,,,,齐贤南街30号附近,,123.366074,41.809041
c7e6b44a439b9d53a6da39bc,沈阳聚鑫才,,,,重工街道肇工北街爵仕意境14甲3网点,,123.342678,41.814922
4e4cbde8f7ba2af1c4f02547,辽宁尚品地产装饰,辽宁省,沈阳市,于洪区,辽宁省沈阳市于洪区橡树湾(松山西路南),,123.366603,41.866304
2976bc5c5f5115072cb96dc1,立信东升装饰材料市场-西门,,,,沈阳市于洪区,,123.316002,41.811163
baa2be423219bfa57bf7969c,美好装饰材料批发经销处,,,,辽宁省沈阳市于洪区迎宾花园(洪湖北街东),14741555677,123.317305,41.809446
eadfad99ba3499e03a04b12a,万汇装饰,辽宁省,沈阳市,铁西区,辽宁省沈阳市铁西区北一东路65甲2号3门,,123.395039,41.81705
b414c93d186ea3a541d63e71,绿色空间装饰,,,,沈阳市于洪区赤山路59号8门,024-31017818,123.3882,41.879252
bf6b28916a69b89a601c676e,锦蓝装饰(于洪店),,,,赤山路123-3门,,123.380042,41.878957
88b956dd58b95ca24354d785,鑫城汽车装饰贴膜,辽宁省,沈阳市,铁西区,沈阳市铁西区瑞盛国际汽配城31-8,,123.350273,41.825116
cbf2550f8a5692849e9d6803,天成饰佳装饰工程有限责任,,,,造化街道元江街迪卡侬南47号,,123.355588,41.86926
cf9572511edb32bbf5c59c8d,沈阳荣鑫装饰(橡树湾店),辽宁省,沈阳市,于洪区,汀江街G2-6号3门,,123.367975,41.862921
7548cc07c49c85244c3a59a8,美思迪集成墙面,,,,于洪区北一西路邦达汽车钣金喷漆修理服务站楼上,,123.321674,41.846085
df7c720583640e2912882443,瑞迪装饰,辽宁省,沈阳市,于洪区,松山西路西江街西行300米松山西路120-6号,,123.377843,41.87107
3e9445a3a0564be615a1905d,广发装饰材料,辽宁省,沈阳市,于洪区,辽宁省沈阳市于洪区洪湖北街24号,13478189318,123.315966,41.810999
5b953809a2438aabc4f50dfd,百纳装饰,,,,造化街道青城山路海逸铭筑小区205-1网点2门,,123.375313,41.889776
dafa05a911baa8a69b68b4dc,沈阳兴辉装饰装修有限公司,辽宁省,沈阳市,铁西区,建设中路92号5门,(024)25602988,123.356188,41.808739
2209cbfec8500d650a5cb3dd,靓馨汽车美容店,辽宁省,沈阳市,铁西区,爱工北街11-1-3门,,123.394902,41.808366
b5ad930d401b947af603b80a,鑫饰源装修装饰工程有限公司,,,,辽宁省沈阳市于洪区滨江街与赤山路交叉口西北150米,,123.367498,41.875227
c044bf4685c656fcbb17e7f2,暄泰装饰,,,,北一西路27-4号6门,,123.330039,41.835107
91460d7b2cfe97f81df74d0f,辽宁鸿业装饰装修有限公司,辽宁省,沈阳市,铁西区,沈阳市铁西区保工北街42-1-2门,4006803400,123.366436,41.813088
15ea50a11d547b6ba1a93441,亨泰装饰公司,,,,启工街建设西路千缘财富星座B座507,,123.346895,41.809962
3e901f4616ac01959f09f74d,公牛装饰开关,辽宁省,沈阳市,铁西区,辽宁省沈阳市铁西区保工圣工街富云新都(西区),,123.364544,41.816721
d69b8a9b39aaf140abf729ce,欧域装饰,,,,辽宁省沈阳市皇姑区天山路274号,,123.391139,41.828027
591bfa5ea4c04c7c1cf74d49,筑鼎装饰,,,,沈阳市铁西区北一中路19号沈阳国际纺织服装城F1,,123.382127,41.819985
2d036acdacf111d32e4733b5,沈阳西部石材装饰材料交易中心-西南门,,,,洪湖北街,,123.315683,41.809285
af4953117c3ddae326d2bbf9,海尔家装馆(沈阳北一路万达广场),,,,北一中路1号沈阳北一路万达广场F3层,,123.38714,41.820077
5a866227ee1ef3b2fa0cadad,瑞京汽车美容装饰服务中心,,,,辽宁省沈阳市铁西区肇工北街11号,,123.351647,41.827582
b21524c0d18ebd58118824c0,圣多美汽车装饰广场,,,,辽宁省沈阳市于洪区北陵街道青城山路环北家园B区北100米,,123.393382,41.899304
af7f13f3bb0d58b2e856fabb,喧泰装饰(皇姑店),,,,三台子街道文大路保利溪湖林语五期北门对面,,123.393782,41.902036
465af758fa870160cc04ef40,旭盛鑫装饰,,,,辽宁省沈阳市于洪区造化街道造小线丽仁花园旁,13889270515,123.331283,41.888501
d559827c3aa682e908f5eb26,洁净汽车美容装饰,辽宁省,沈阳市,皇姑区,西江街79-10号(怒江公园西门对面),,123.395102,41.848159
07e8ba330f1f8cd1bbbd63cd,精艺求新装饰(皇姑店),辽宁省,沈阳市,皇姑区,太岳山路7号,4000240822,123.393451,41.854084
69eba590760b4a5d0aa8d417,Z铭装饰于洪店,,,,辽宁省沈阳市于洪区赤山路125-6门,024-67759395,123.381647,41.879537
f274cd8ff8ebc4fbe507382b,欣雅居装饰,辽宁省,沈阳市,于洪区,辽宁省沈阳市西江街168号-44门,,123.384471,41.866951
912ac770de819502f90cad31,名门装饰,,,,沈阳市皇姑区橡树湾2期南门,,123.369221,41.863867
75b16c7f309728401029352e,嘉毅美容洗车,,,,辽宁省沈阳市于洪区四季花城(丹景山路),,123.390163,41.86037
b324090096538c21343a7132,实创整体家装(于洪店),辽宁省,沈阳市,于洪区,辽宁省沈阳市于洪区松山西路15号附3号,,123.367271,41.866649
1c7dbb548bf37a548605bfda,凯滨汽车装饰美容轮胎超市-西北门,,,,广业路与重工北街交叉口东北150米,,123.344411,41.837227
b21586a028bf144ceaf85307,鲁艺园石材私人定制石材装饰,,,,东平湖街东100米,13940423562;15140032818,123.300758,41.838003
44570dc27be4b7f948cc4a3a,星云装饰,,,,沈阳市铁西区陶林居北4,,123.372633,41.807786
93f325b778b75f39f6c59c33,兴晟汽车装饰,辽宁省,沈阳市,铁西区,辽宁省沈阳市铁西区北三中路25-3号,,123.363065,41.814787
7105080dbeba808c1df74dac,沈阳诗美绘建筑装饰材料有限公司,辽宁省,沈阳市,铁西区,辽宁省沈阳市铁西兴华北街30号新财富大厦25层,,123.384974,41.810933
b44f4a9cd719bfff15a1906d,北京瑞原爱格装饰材料有限公司沈阳办事处,,,,沈阳市铁西区北二东路33甲5门红星国际4号楼407室,,123.388387,41.809124
e4936c92f6dcd6be1811d542,沈阳晋利恒装饰工程有限公司,辽宁省,沈阳市,皇姑区,辽宁省沈阳市皇姑区淮河南街11-1号,(024)86425909,123.39516,41.827275
74e403456c5aff484054d767,龙装饰集团工厂店,,,,辽宁省沈阳市皇姑区昆山西路53号,,123.394204,41.831246
d92266b562ea1fccb75f1e7a,沈阳艺万家装饰装修工程有限公司,辽宁省,沈阳市,铁西区,铁西区北二东路35号红星美凯龙斜对面,,123.390899,41.809872
e2a11c77f277029f3a13fda2,沈阳昊跃装饰装修工程有限公司,辽宁省,沈阳市,皇姑区,辽宁省沈阳市皇姑区锦水街57号-2门,,123.370657,41.83293
21fa38d3edbe57b97069d33a,仪铭装饰,辽宁省,沈阳市,铁西区,铁西区兴华北街18号千缘财富商汇8层,,123.388184,41.815458
7cc53c9197fbef879b68b437,四海汽车美容装饰(北四中路),,,,北四中路32-3-5门(宏伟金都北门),,123.358706,41.813269
353ca18e696e5d5f4c6d4643,精艺求新装饰工程公司,辽宁省,沈阳市,铁西区,景星北街22号6门,15940550435,123.380574,41.818879
a133f1c7a48e4ea4471a320f,宇阳装饰沈阳工程公司,辽宁省,沈阳市,铁西区,景星北街21号7门,(024)31656459,123.375615,41.808842
db57e89a2fe798174207c1a1,圣兴建筑装饰工程有限公司,辽宁省,沈阳市,铁西区,铁西区兴华北街18号千缘财富商汇8层,,123.388187,41.815468
81ef7bc480e08652095cb315,鑫奇峰装饰,辽宁省,沈阳市,铁西区,北四中路22号2门,,123.371055,41.808473
cd43862ff01128ce0782c2b7,力创装饰沈阳公司,,,,兴华北街11,,123.388611,41.814092
4264dfd3212a5e32dbeced7d,东飞装饰工程有限公司,辽宁省,沈阳市,铁西区,辽宁省沈阳市铁西兴华北街30号新财富大厦16层,,123.384974,41.810933
efeb30f1e982d46a17948e57,景尚装饰个性化设计研发中心,,,,沈阳市铁西区,,123.384403,41.809058
54ba4684032bfc77f6c59c1e,工程家庭室内外装饰装修修缮,,,,向工街16号附近,,123.364803,41.831059
1e3192b973f56f7549fd3f5a,冠甲装饰有限公司,辽宁省,沈阳市,铁西区,保工北街32号2号3门附近,,123.36329,41.813636
d3e50b38592626a3c336442c,飞扬装饰,辽宁省,沈阳市,皇姑区,辽宁省沈阳市皇姑区涟水街4号-1门,(024)31562697,123.361705,41.832549
a281f1272db67946fa42b23d,美海家装饰,,,,沈阳市铁西区,,123.389169,41.808233
826ce514c7586b98fda778fd,印像创意壁纸装饰画,,,,辽宁省沈阳市铁西区齐贤北街30-2号-3门,,123.368714,41.80948
66816d6c1e5f6882a2d230e9,d多知轩装饰,辽宁省,沈阳市,铁西区,辽宁省沈阳市铁西区北三东路28-2网点12门,(024)62642333,123.386523,41.808028
daa409804920be74f82d61aa,新北方装饰建材城地上停车场-出入口,,,,沈阳市铁西区,,123.366891,41.809888
cd2960f4a625504c72455b48,吉星装饰牌匾白钢铝塑,辽宁省,沈阳市,铁西区,辽宁省沈阳市铁西区富工五街15号,13804050463,123.335214,41.808997
5e5acab9a5e6e28eafee7af1,梓瑞装饰,,,,辽宁省沈阳市铁西区北四西路5号-22门,,123.338559,41.817644
673656eadce040f1d0ff2325,立信东升装饰材料市场-北门,,,,辽宁省沈阳市于洪区洪湖北街40号附近,,123.316163,41.812205
0dde6453096fb56495ca073c,立信东升装饰材料交易中心-4号门,,,,辽宁省沈阳市于洪区于洪街道洪湖北街于洪建材市场公交站,,123.316009,41.810543
1d491a8d915a01beadcb66ec,凌丰装饰,辽宁省,沈阳市,铁西区,辽宁省沈阳市铁西区北二西路26号甲4-12门,,123.350516,41.827337
324d611e0c352455d8d891c2,陕西建工安装集团,辽宁省,沈阳市,铁西区,北四西路4-4号7门,,123.352173,41.811064
6d9d9fbaabc47ac7940319c7,鑫盛源装饰材料,,,,辽宁省沈阳市于洪区沈大路,13898189305,123.31703,41.808968
a3bdaf5596bbb6481b11d534,成国汽车装饰用品厂-专业生产汽车脚垫,,,,北二西路26-3号附近,,123.352454,41.825866
993e3e662731daac40ab9a69,龙艺峰装饰,,,,辽宁省沈阳市铁西区富工二街8号,,123.338431,41.809754
ac672218269ed6f8260bd09b,晋泽汽车装饰,,,,辽宁省沈阳市铁西区瑞京时代汽配用品广场6门,15640217710,123.349627,41.823429
b6cbb6a1d2973d884d2fdf85,和沐建筑装饰,辽宁省,沈阳市,铁西区,辽宁省沈阳市铁西区北一西路25号-6门,,123.332401,41.835901
36569d7228f076d01d5800ea,筑汇装饰()华府店,辽宁省,沈阳市,铁西区,肇工北街25号恒大华府1号楼商铺2楼,,123.347421,41.822579
371ec5c77d87b3620bccdd9a,艺佳鑫鸿琳装饰材料经销处,辽宁省,沈阳市,于洪区,辽宁省沈阳市于洪区洪湖北街6号,13654997500,123.315812,41.809917
460b94af2828f87771210b99,众友装饰材料,,,,迎宾路街道洪湖北街西部石材32,,123.315911,41.809534
4282e56fdfdb0a62bea240ad,立信东升装饰材料市场-南门,,,,辽宁省沈阳市于洪区森美灯具(洪湖北街),,123.315868,41.810397
97992bb9928a0639b6147f3f,冀沈装饰,,,,沈阳市于洪区,15998813496;13234019122,123.316057,41.811691
70c99286f01a43a70c0a70e6,嘉驰越野装饰,,,,辽宁省沈阳市铁西区启工瑞盛家园小区西北(北二西路北),,123.351481,41.825843
c4315a2b0486a8e0fadc8506,中原装饰材料,,,,辽宁省沈阳市于洪区洪湖北街24号,15710559232;15566190588,123.315966,41.810999
d2feaf9d0988c3602fb9085b,冠亿装饰,,,,辽宁省沈阳市于洪区赤山路84-6号-1门,,123.378615,41.880687
88d45847ddd928afadcb6657,华鑫汽车装饰,,,,千山西路68号附近,,123.39027,41.883253
579b153a2f83742085420ea9,天佑水暖建材装修商店(No.00254),辽宁省,沈阳市,皇姑区,辽宁省沈阳市皇姑区汾河街27号,,123.392047,41.838706
d7ded47c5afa0f25c2f1cf67,居雅装饰,辽宁省,沈阳市,皇姑区,太岳山路7-2号楼附近,,123.393703,41.854046
41ed1ccd04f4e0bd58f6bee7,益源利汽车装饰,,,,辽宁省沈阳市于洪区向工街宏达家园北门,,123.3699,41.844408
5a937f63969bb7763fe231fc,棠装饰,,,,沈阳市于洪区,,123.386072,41.879337
75ffadc4e02dcc3b0ab93acc,鑫鸿家装饰,,,,辽宁省沈阳市于洪区赤山路124-8门,,123.380524,41.879127
fd10937854c44ca1df1e5275,沈阳禹地防水工程公司,辽宁省,沈阳市,皇姑区,辽宁省沈阳市皇姑区崇山西路38号412,,123.388324,41.836752
bc99a786737151180c0e6bcc,龙泰韵畅装饰,,,,沈阳市皇姑区,,123.366214,41.862653
6032f34cb21da50509ccdd66,凯东装饰工程设计有限公司工程部,,,,辽宁省沈阳市于洪区赤山路,,123.388586,41.877029
fbe0b661ebea1b9e8c1a89cd,宝兴隆汽车美容装饰洗车行,辽宁省,沈阳市,于洪区,辽宁省沈阳市于洪区青山路,,123.39243,41.87416
1794abdb6b22263a871541fe,大可以装饰,,,,广业西路30-1号附近,,123.332309,41.845356
b67ea6cf53ed0c8adbd8911f,中磊装饰,,,,辽宁省沈阳市于洪区广业西路,,123.332738,41.846363
df0f94e65876be591c38943c,凯滨汽车装饰美容轮胎超市,,,,广业路与重工北街交叉口东北150米,,123.344464,41.837217
d6e16037b5d5a4ebc91b959e,鑫君瑞装饰铁西旗舰店,辽宁省,沈阳市,铁西区,北四中路20号4门,(024)31670066,123.372617,41.807846
9e6e77ef86327cba31870ae3,满地荷装饰材料,,,,沈阳市铁西区北四中路24-611门附近,,123.367358,41.811294
d5c50775bfbbe61b0482c260,沈阳蓄丰装饰工程有限公司,辽宁省,沈阳市,铁西区,辽宁省沈阳市铁西兴华北街30号新财富大厦26层,,123.384974,41.810933
e60d9fc6fb3044f508a8d456,沈阳市荣麟装饰材料有限公司,辽宁省,沈阳市,铁西区,兴顺街5-1号1门,,123.372396,41.80862
fe3d361c60f0219b9d82ea95,江苏沪港装饰有限公司沈阳分公司,辽宁省,沈阳市,铁西区,铁西区兴华北街18号千缘财富商汇13层,,123.388187,41.815468
e12f02cd61d789d6c91b957f,景峰装饰,辽宁省,沈阳市,铁西区,辽宁省沈阳市铁西区光明南苑(小北一中路南),,123.378068,41.81978
6ee78e839eee0a8c33f71d4d,沈阳一锦建筑装饰工程有限公司,辽宁省,沈阳市,铁西区,沈阳市铁西区保工北街42-2号4门,,123.366436,41.813088
0b5577502f3ed3a34207c12b,辽宁龙邦装饰工程公司,辽宁省,沈阳市,铁西区,兴华北街30号千缘・新财富大厦11层1105～1106,,123.384974,41.810933
7182ba846cb70eccfd0eb01f,爱群白钢铁艺塑钢断桥门窗装饰部,辽宁省,沈阳市,皇姑区,辽宁省沈阳市皇姑区岐山西路29-1号楼,,123.388764,41.835345
f8be5a145a3b22070a5cb3e4,辽宁集美装饰,辽宁省,沈阳市,铁西区,铁西区兴华北街18号千缘财富商汇19层,,123.388187,41.815468
d7ef18fb8e1d5b10bd484257,厦门金腾装饰集团辽宁分公司,辽宁省,沈阳市,铁西区,铁西区兴华北街18号千缘财富商汇22层,,123.388187,41.815468
a6586ba40d08d81d95f08ccf,居雅装饰皇姑店,辽宁省,沈阳市,皇姑区,昆山西路106,(024)62459288,123.386001,41.833985
b4bd5347e65d44776cc02c2e,新泰装饰工程有限公司,,,,辽宁省沈阳市铁西区齐贤北街30号-1号-7门,,123.369193,41.809631
2e0454f9dd987f03b64f54a6,乐山乐水装饰材料,辽宁省,沈阳市,铁西区,辽宁省沈阳市铁西区北一东路79号,,123.390304,41.816086
1bf2c2e23394d87bd813180d,鑫野汽车贴膜装饰,辽宁省,沈阳市,皇姑区,辽宁省沈阳市皇姑区苍山路9号,,123.377849,41.834482
fd74a75411eadc23581093f7,美每家装饰(云峰店),辽宁省,沈阳市,铁西区,北三东路24-6号4门,(024)62642477,123.389102,41.808283
13d8b70f4b8d6fd0cf06a472,佳美林进口汽车装饰美容服务中心,,,,辽宁省沈阳市铁西区北三中路5号-5门,,123.378603,41.810652
c59bb21375a7478e6fc02c63,大艺天启装饰设计有限公司,,,,沈阳市铁西区北一中路1-5-3,,123.386231,41.818925
6fc1e8f0dd926cb5b6f42f9b,车视界汽车美容装饰,辽宁省,沈阳市,铁西区,辽宁省沈阳市铁西区北启工街19,,123.35472,41.824103
786b619819b19582c7f50d84,鼎胜汽车美容部落,辽宁省,沈阳市,皇姑区,塔湾街中海寰宇天下售楼处南侧200米,,123.380766,41.830132
188696ace9802b02b64f54c1,金德装饰有限公司,,,,辽宁省沈阳市铁西区北三中路25-3号,,123.363329,41.815091
1818bf820356caac471a32d7,鑫百杰汽车美容中心,,,,辽宁省沈阳市铁西区北二东路24-2号15门,,123.38822,41.812158
be47fc9dde9cb7af33169b4e,宏升装饰,,,,齐贤北街9号门附近,,123.374244,41.814632
463ee27648233c01b1077d9a,宾至名车装饰漆面保养中心,,,,辽宁省沈阳市铁西区景星北街7号6门,,123.383097,41.818158
3beb505967459ab040ab9aaa,益兴装饰,,,,南六西路518号附近,,123.344735,41.809103
4f210812af0324a4b23c814f,恒键装饰,,,,北二西路32甲网点10门,,123.346756,41.825715
722e7b81b9aea5ffb42655e4,立信东升装饰材料市场-5门,,,,辽宁省沈阳市于洪区于洪街道洪湖北街金星玻璃附近,,123.315859,41.809693
01a24e1786014b8fb23c81e6,佳友同飞门窗装饰,,,,辽宁省沈阳市铁西区北一西路9-乙4号,,123.344551,41.831073
1aa2bfa810f2a8b140e1926a,宏顺旺装饰材料经销处,辽宁省,沈阳市,于洪区,辽宁省沈阳市于洪区洪湖北街18号,,123.316169,41.810914
95dbc483b0ccd9323517dccb,五福金牛安全环保车饰,,,,北二西路26-3号附近,,123.352454,41.825866
adb6d2cc55be4b92a8175a42,正兴装饰材料批发(于洪街道办事处北),辽宁省,沈阳市,于洪区,辽宁省沈阳市于洪区洪湖北街8号附近,,123.316167,41.809175
1be44bba7b134d56b03c813f,希必地汽车装饰,,,,沈阳市铁西区,,123.349627,41.823429
2cc4fa34d50d10779122e07d,沈阳玻莱兴装饰工程有限公司,,,,熊家岗路28甲13号附近,,123.331197,41.824814
d1379cd28ce432266140a96d,立信东升装饰材料交易中心-3号门,,,,辽宁省沈阳市于洪区洪湖北街28号附近,,123.316081,41.81099
cc40058afd951add88b98889,瑞昌装饰洽谈处,,,,辽宁省沈阳市铁西区富工一街1号,,123.340396,41.810312
ea9ec2ab9dbe7876276e9802,沈阳西部石材装饰材料交易中心-西门,辽宁省,沈阳市,于洪区,辽宁省沈阳市于洪区沈大路115附近,,123.315564,41.809373
0159b0eb0feb07d223026294,沈阳玉林装饰材料有限公司-东南门,,,,辽宁省沈阳市于洪区洪湖北街90附近,,123.316735,41.818333
ee12942a378c0fead618b714,源发装饰材料,辽宁省,沈阳市,于洪区,辽宁省沈阳市于洪区于洪街道洪湖北街迎宾花园附近,,123.317305,41.809446
0b9b37ce789d931de215f98c,兴发汽车用品,,,,北二西路26-甲21号楼附近,,123.349504,41.826045
7b1d06be60dc4e9a85420eaa,泓源装饰,,,,沈阳市于洪区迎宾路高架18-2号附近,,123.315334,41.808615
8372e96e411d7e68cb213d5a,鑫明汇汽车贴膜装饰,,,,辽宁省沈阳市铁西区北二西路29网点56门,,123.349627,41.823429
fced17c4928cd63a17b54b11,沈阳商墨装饰工程有限公司,,,,辽宁省沈阳市皇姑区塔湾街79-31号3门(近西江街),,123.395144,41.850414
61ffdd5929b045346e20b9d1,弘融装饰有限公司,,,,昆山西路信江街6号,,123.378695,41.837234
b8a878f8b5a050f098005083,鑫鹏汽车装饰,辽宁省,沈阳市,于洪区,辽宁省沈阳市于洪区昆山西路安居园小春芽双语艺术幼儿园,13840177576,123.356896,41.837257
8d47c8a75d96f2884054d762,源美装饰,辽宁省,沈阳市,于洪区,辽宁省沈阳市于洪区白山路172-2号-7门,,123.376118,41.862559
d07052db5ea093bf32870a65,万亿丰建筑装饰设计工程有限公司,辽宁省,沈阳市,于洪区,松山西路92号玉祥明居售楼处里,,123.394988,41.874416
7f700489486f829dc27da2ef,榕御汽车美容装饰,辽宁省,沈阳市,于洪区,青山路62号2门,,123.393317,41.869349
68886d75e8562ce4a8175a1c,欧佳装饰于洪店,,,,辽宁省沈阳市于洪区赤山路124-2门,,123.380854,41.879253
1cdcc0b49607318138221cc1,轩睿装饰,辽宁省,沈阳市,于洪区,松山西路150号3门,,123.368149,41.867434
ed0c52b73092ee1c5cd4feae,九阳装饰,,,,北陵街道白山路华润橡树湾南门,,123.369221,41.863867
b282709e2dd92d232e4733fe,天地和汽车装饰,辽宁省,沈阳市,于洪区,昆山西路236号附近,,123.358614,41.842592
e2618b7befd11b8f17c8f636,擎天装饰,辽宁省,沈阳市,于洪区,广业西路36号(意大利风情小镇售楼处旁),,123.329984,41.84626
359f1787f42ecf2dc51b75c8,卓希装饰工程有限公司,,,,北一西路52甲3号金谷大厦A座921,,123.332339,41.837247
c9f1af52f0ad7fa296ca0757,鑫源达家装公司,,,,广业西路丁香湖畔新城32网点8门,,123.332196,41.845078
083107b23826bdb070210b18,铭晨装饰,,,,广业西路14号5门,,123.338635,41.843715
8a42746e8942457d2fe67bca,沈阳龙腾跃装饰工程有限公司,辽宁省,沈阳市,于洪区,辽宁省沈阳市于洪区文大西路,,123.343491,41.879367
069a2d6f843e297214948ef5,沈阳柏高建筑装饰工程有限公司,辽宁省,沈阳市,铁西区,铁西兴华北街千缘财富商汇a座505室,,123.387948,41.815429
7910bf8c8a36ba6584330496,辽宁名迦装修有限公司,辽宁省,沈阳市,铁西区,辽宁省沈阳市铁西区保工北街16号6门,,123.374299,41.823049
ad658c20a8e922d77369d3c0,沈阳凯雅装饰工程有限公司,辽宁省,沈阳市,铁西区,沈阳市铁西区兴华南街新财富大厦620,,123.384974,41.810922
fcb74c79ac849d0a276e9832,元中空间装饰设计,,,,辽宁省沈阳市铁西区兴华北街30号千缘新财富大厦0611室,,123.384986,41.81097
cae2b7cbbe7fc1934107c12f,沈阳欧亚达金属装饰材料有限公司,辽宁省,沈阳市,铁西区,沈阳市铁西区兴华北街18号千缘财富商汇B座14楼,,123.388187,41.815466
ce210112c28b69e1b9df8fa3,志云装饰,辽宁省,沈阳市,铁西区,兴顺街3号附近,,123.367637,41.808117
70fd2ef2f3ac70f72a11d163,沈阳天玺装饰设计顾问有限公司,辽宁省,沈阳市,铁西区,铁西区兴华北街18号千缘财富商汇17层,,123.388187,41.815469
a94d14ca451512a043ab9acc,煜城装饰有限公司,,,,塔湾街道11号中海广场座1706,,123.381874,41.833132
59e8c594d42de2159f9d685a,沈阳圣瑞家装饰工程公司,辽宁省,沈阳市,铁西区,兴华北街30号千缘・新财富大厦19层1917,,123.384974,41.810932
9b0daf63fc5feb0b734b8709,麒装饰材料市场,,,,沈阳市皇姑区,,123.371032,41.833983
5b96b15afecde50395ca0786,东青装饰,,,,贵和街道景星街19-1号纺织城国际商务楼212,,123.382177,41.819411
9574dd7a82130d30a8175a56,正天装饰,辽宁省,沈阳市,铁西区,齐贤北街30-1号6门网点,,123.369462,41.810069
df41d32319b544621df74dff,安庆装饰,辽宁省,沈阳市,皇姑区,辽宁省沈阳市皇姑区淮河南街4号7门,,123.392956,41.827216
77031d3e6808e819c909f0b4,苏中装饰(铁西旗舰店),辽宁省,沈阳市,铁西区,辽宁省沈阳市铁西区卫工第一城(东区),,123.356557,41.813455
0ca8b5932055539f1e1d11af,车美易汽车装饰,辽宁省,沈阳市,皇姑区,辽宁省沈阳市皇姑区明廉路44-6号-10门,,123.366345,41.831614
2216de6baed3e0df4307c1f3,新北方装饰建材城地下停车场-出口,,,,齐贤北街30甲附近,,123.366721,41.809801
0d677498f0582cb24e776e87,红树林装饰,,,,辽宁省沈阳市铁西区北三中路3号-3号-1门,,123.378266,41.80897
50a1239a5564202c3c9a5edb,大豪尔装饰,,,,辽宁省沈阳市铁西区北一东路83号3门,,123.392889,41.81911
ffe98c14d4c6953d03ec01d8,宏达旺五金建材家庭装修设计,,,,沈阳市铁西区南六西路28号,,123.346879,41.80865
95d68d52b4b5afb54002451e,福道机油精品装饰,,,,辽宁省沈阳市铁西区启工山建研究所东北(肇工北街东),,123.349779,41.82677
bc001e756d321af0c356ac3e,宏达装饰五金建材总部,辽宁省,沈阳市,铁西区,重工北街66-3号,13998294700;15998230967,123.333624,41.820422
37505821345659139fec2b54,华兴装饰,辽宁省,沈阳市,于洪区,辽宁省沈阳市于洪区洪湖北街32号木材市场3号门,,123.316461,41.812522
f6b6865c89a02ec40b69d93f,欧若汽车装饰用品有限公司,,,,辽宁省沈阳市铁西区北二西路29号瑞京汽配城D1-051,,123.350272,41.824
8886614d444332eeda2f2854,车美乐汽车美容装饰,辽宁省,沈阳市,铁西区,重工北街50甲39号13门,,123.335705,41.828163
80b74d119f00aff6ea1e974a,艺加装饰,,,,辽宁省沈阳市铁西区北四西路5号22门,,123.338655,41.817624
deb949da93387ba81fe99916,日鑫装饰材料,辽宁省,沈阳市,于洪区,辽宁省沈阳市于洪区洪湖北街16号,13082471117,123.316051,41.809895
e94f460066f72cc3d4851fcd,车世家名车汇所,,,,沈阳市铁西区北二西路29号16门,,123.350916,41.823439
4129c9a11975a434cb213d29,鑫春瑞装饰材料经销部,,,,辽宁省沈阳市于洪区洪湖北街24号,,123.315966,41.810999
7a04a5d3996fa26aa7c756b4,海峰装饰材料,,,,辽宁省沈阳市于洪区洪湖北街2号,,123.315768,41.809535
ef003349f7eac587b8bd63d5,沈阳爱丽舍装饰材料有限公司,,,,汇丰路东150米,,123.304055,41.816726
0ad1c94b33e23188d22dd6f5,白钢铁艺室内装修,,,,洪湖北街南50米,,123.297278,41.811891
4d4666eb709ca8f6b04c496f,烨环汽车美容装饰中心,辽宁省,沈阳市,于洪区,东平湖街135号,,123.296306,41.821451
33fbfa83a9c1d3bc0af5ebb8,金龙装璜材料城,辽宁省,沈阳市,皇姑区,辽宁省沈阳市皇姑区长江街商圈长江南街175号,(024)22983410,123.419264,41.822381
4219d0ed9923b2cc230262a8,荣耀汽车美容装饰名店,辽宁省,沈阳市,皇姑区,辽宁省沈阳市皇姑区昆山中路102号,,123.416828,41.825598
e849a4028ce7b53bae080f3a,瑞之峰装饰,辽宁省,沈阳市,皇姑区,辽宁省沈阳市皇姑区珠江街100号,,123.412021,41.823211
2c0bd6c5bb0295ab43ab9a0d,辽宁星绮装饰工程设计有限公司,辽宁省,沈阳市,沈河区,奉天街419甲9号(格林豪森),,123.449277,41.814485
e90580d89493695b931fc935,金山五金装饰家具城,辽宁省,沈阳市,于洪区,辽宁省沈阳市皇姑区崇山东路49号,,123.455667,41.839191
3354798e88ace758e5e96585,玛莎动力贴膜工作室,辽宁省,沈阳市,铁西区,沈阳市铁西区兴工北街46号8门,,123.400061,41.809398
5c9b17fd2dc395c92b201a7a,原创花艺装饰作坊,,,,八王寺街7-1号(4门)尚品天城南区,,123.469573,41.81771
23201350f06fb35f1df74dd0,辽宁聚装建筑装饰工程有限公司,,,,巴山路66号满山红家具旗舰店(居然之家南门前行10米),,123.425715,41.830151
fdd055ef2bccd0966b49f353,车顺达汽车装饰,辽宁省,沈阳市,大东区,沈阳市大东区人和家园10-4,,123.47989,41.842666
07f7c4ce6ebc3340f603b866,CG洗车美容装饰,,,,辽宁省沈阳市皇姑区黄河北大街79号,,123.423166,41.883873
7c1531eff77365d4a0acc452,洪技研汽车装饰用品有限公司,辽宁省,沈阳市,皇姑区,辽宁省沈阳市皇姑区崇山东路56号,,123.447248,41.839071
eb3f27f0044375da2fb96d23,沈阳豪都装饰工程有限公司,,,,辽宁省沈阳市大东区中学堂路19号-7门,,123.482803,41.818955
d5f93c0ee3382c21eddfcae3,绿港装饰(大东总店),辽宁省,沈阳市,大东区,辽宁省沈阳市大东区大北关街75号10门,,123.47353,41.81955
e9484bfa3dd35f58b21e3659,海天装饰装修体验馆,辽宁省,沈阳市,沈河区,朱剪炉街道市府大路290号,024-22720077,123.446729,41.811288
00fff03dcb9f34dd9122e057,车美冠汽车装饰,,,,辽宁省沈阳市铁西区爱工北街9号-2-3门,,123.397348,41.808501
c4b84fc48fa17feea1d23017,蚂蚁装饰,辽宁省,沈阳市,大东区,红星美凯龙三楼(龙之梦亚太城),,123.493712,41.812575
a544f2241db9d9df94031995,鑫友装饰,辽宁省,沈阳市,大东区,德增街38号2门(东方家园左侧),15998228279,123.470543,41.814936
6b0dd44d6163ade048cc4ac8,沈阳东霖建筑装饰工程有限公司,辽宁省,沈阳市,于洪区,龙首山路15号-311,,123.406228,41.861072
cac71697d5d350816c3e1b9a,港华装饰工程,,,,沈阳市和平区市府大路262号新华科技大厦24层,,123.434416,41.811645
22e9669983ff919c6e20b96b,辽宁懂装修科技有限公司,,,,黄河大街60号4门,,123.426666,41.835071
ce6b5571e09520e9a6da39ea,林凤装饰工程有限公司大东店,辽宁省,沈阳市,大东区,大东区德增街38号(花鸟鱼市场对面),(024)85855112,123.470403,41.814819
f03124e6cfbbe418e856fab9,昊鹏装饰,辽宁省,沈阳市,皇姑区,华山路105号(汇宝国际A区北门),,123.40293,41.827318
93ab9c1ead643f600f0a70c8,沈阳斯勒防水保温工程有限公司,辽宁省,沈阳市,皇姑区,辽宁省沈阳市皇姑区闽江街2号-1门,,123.41499,41.81811
2d6f33e5b3a2bb5e03ec018c,沈阳鸿诚包装装潢印刷有限公司,辽宁省,沈阳市,于洪区,长江北街66-2号,,123.412647,41.859796
d305db1fdd3fc63e932ca3f5,沈阳市鸿宝装饰材料厂,辽宁省,沈阳市,于洪区,鸭绿江北街58号,,123.459505,41.870545
1dcd539773845e324251c0b0,轩境名车美容装饰会馆,,,,惠工西二街四十一号门市,,123.445895,41.816513
83b16f8dadb9a18c96f08cfe,世雅装饰,辽宁省,沈阳市,和平区,辽宁省沈阳市和平区抚顺路56号,,123.421014,41.815882
0d2d1eecd6ed3e21c72ba109,沈阳永强装饰材料市场-板材批发大厅,,,,怒江北街56号甲,,123.4002,41.857216
6f91a17c3389df2afbf0cb91,沈阳筑巢装饰装修,,,,辽宁省沈阳市皇姑区崇山西路1-10号9门(市委党校对面),"15204008001,(024)66682111",123.403298,41.836503
91637a07bb88bad2c929155e,沈阳元铭装饰工程有限公司,,,,辽宁省沈阳市皇姑区闽江街75号,024-86201513,123.421641,41.820848
5a841e470a2d63fb1b94c611,沈阳市沈河区红棉图片美术装饰中心,辽宁省,沈阳市,沈河区,沈阳市沈河区团结路69号(3-132),,123.452929,41.818901
baf5c68e7f8fc7bb03ec017a,裕普汽车美饰中心,辽宁省,沈阳市,大东区,沈阳市大东区东边城街92号,,123.484182,41.814003
3b5256570ac001fe9c9d6821,大上立德装饰-东南门,,,,乐山路与黄河北大街交叉口西南200米,,123.423012,41.871204
879983fd9cd0f9d578f79677,福尔装修,辽宁省,沈阳市,大东区,沈阳市大东区津桥路2甲号金香山大厦3层,,123.47121,41.811593
705fe7b3c34be48276e5b634,富而特装饰(昆山中路店),辽宁省,沈阳市,皇姑区,皇姑区昆山中路2号,,123.435463,41.824878
72521d0d8d4bd28038e4a649,沈阳金银山五金装饰材料市场有限公司,,,,陵园街39号5层,,123.454741,41.852924
abc3fa2ef30ee0afdd1e524f,沈阳创维装饰工程公司,辽宁省,沈阳市,大东区,中学堂路5-7号1门,(024)82424001,123.475133,41.816542
bd0fd9278637c138d42ce283,沈阳东青装饰工程有限公司（皇姑店）,,,,辽宁省沈阳市皇姑区华山路440号,024-25255887,123.398452,41.829581
73f9e76bc683289ab817e7cf,辽宁省广告装潢公司,辽宁省,沈阳市,皇姑区,嫩江街44甲5层,,123.432303,41.826437
979965d366f544aeeddfcae1,沈阳永正装饰工程有限公司,辽宁省,沈阳市,皇姑区,"长江街昆山路交汇处,美联大厦A16-1",,123.419464,41.824435
c9252d91e54d4da43f9a5e00,新天地汽车音响装饰,辽宁省,沈阳市,于洪区,辽宁省沈阳市怒江北街225号17门18门,,123.404074,41.891531
cbe35bbf820d0e851b11d5aa,津腾远广告装饰,,,,辽宁省沈阳市于洪区北固山路36号-6号-15门,,123.404901,41.871959
734e014012e88f93ebe582c3,辽宁泰康不锈钢制品装饰安防电子公司,辽宁省,沈阳市,于洪区,北固山路12-7号10门,,123.410625,41.872529
02417bb756c6d69f8415414f,沈阳铭天阔装饰装修工程有限公司,辽宁省,沈阳市,大东区,津桥路2甲金香山大厦5层510,,123.471186,41.811544
3432047ed9d06cb9d92f2890,沈阳凯瑞得装饰工程涂料厂,辽宁省,沈阳市,于洪区,辽宁省沈阳市皇姑区观音路西段,,123.45619,41.883681
6ccada9ec9e1a09045e274fe,鲁艺装饰,辽宁省,沈阳市,皇姑区,沈阳市皇姑区淮河街49号3门,,123.397189,41.84396
238772def3fbc6bdb23c81f2,陈升福元昌(装修中),,,,边墙路92-9-7,,123.463021,41.823612
c9e3287fdcf763e5e8f853e9,逸品居装饰,辽宁省,沈阳市,于洪区,辽宁省沈阳市于洪区千山西路2号-甲1号,(024)86512099,123.421507,41.881342
8320730c792c0e2ae7e96566,铭轩装饰,,,,辽宁省沈阳市皇姑区嘉陵江街68-1-2门,,123.423218,41.83005
3e689522e17873096ca3cc38,易新洗车美容精品装饰维修保养,辽宁省,沈阳市,于洪区,黑山路6-8号,18609882444,123.418265,41.871867
f7e09794de28bf4499005032,爱车一族汽车美容会馆(二部),辽宁省,沈阳市,于洪区,辽宁省沈阳市于洪区恒盛阳光商城3期西行90米,,123.400455,41.8719
781ac48a88a0f891db13186b,辽宁金麒麟装饰工程股份有限公司,辽宁省,沈阳市,大东区,沈阳市沈河区广宜街21号明城国际大厦A座25层,,123.455786,41.811374
11538ce301d6682888b9885f,昌鑫汽车美容装饰,,,,虹桥路8号3门富云花都南门,,123.403886,41.810621
f4a5273454e4efc9a4c7561c,众玉鑫汽车美容装饰中心,,,,泰山路9号北陵东门,,123.444765,41.849718
c9b91260d3a8adcb28b97c4f,鑫水美车,,,,辽宁省沈阳市铁西区小北一东路51甲7号2门(新湖北国之春一期南门),,123.398373,41.814376
e3b6f33486b711f76f3e1b47,梵客家装（沈阳分公司）,,,,滂江街24号红星美凯龙二楼,,123.494567,41.812235
a4487b348f7bda639de3212b,实创装饰不锈钢铁艺门窗,,,,老瓜堡西路44号附近,,123.479564,41.838821
a0bd33943b00405b343a71c0,公牛装饰开关(沈阳授权店NO.辽沈W1503-G016),,,,辽宁省沈阳市大东区东方欧博城(望花中街东300米),,123.489082,41.870362
5a61b9b0847b7347bbbd63b2,北辰汽车装饰,,,,黄河北大街101-1门,,123.422897,41.888799
e738de6952d5760d1ce9998f,沈阳永强装饰材料城停车场-出入口,,,,香炉山路南50米,,123.402526,41.857576
acb5f0abfaf25475077ce8ff,瑞昌装饰,辽宁省,沈阳市,皇姑区,宁山西路20,(024)86873033,123.399743,41.834585
1c8c06097d7c7b87f7eafcee,上铭装饰,辽宁省,沈阳市,大东区,辽宁省沈阳市大东区白塔路32号,,123.458612,41.814129
ddd2dacf15429352ae31e5b6,欧坊装饰,辽宁省,沈阳市,于洪区,辽宁省沈阳市于洪区黄河北大街98-12号,024-66676809,123.416777,41.881359
58079395e7eb0a1e8605bfe9,沈阳爱球艺气球装饰,,,,辽宁省沈阳市皇姑区皇姑区天山路与怒江街路口,,123.396958,41.822754
913770c7bee6bc194e2fdf30,蓝天铝塑铁艺装饰,辽宁省,沈阳市,于洪区,崇山东路36-4附近,,123.458597,41.841594
db249b937ade379354bfff35,沈阳家居大世界装饰材料市场-南门,,,,长江北街58-6号附近,,123.413567,41.856414
e68012088a107cf04107c10d,宏宇铁艺白钢门业,辽宁省,沈阳市,大东区,天后宫路69号,,123.46138,41.816334
3e58d2925afee9b945e27477,天猫家装体验馆,辽宁省,沈阳市,沈河区,辽宁省沈阳市沈河区北站路财富中心B座7楼,,123.441441,41.820376
8a3a3aebdba598b584154164,白云穗港装饰工程公司,辽宁省,沈阳市,沈河区,市府大路262甲新华科技大厦12层1200,,123.440587,41.812177
1e508403142a0c2987330418,佛山日丰管业金德管业集团永强隆鑫装饰材料商店,,,,辽宁省沈阳市于洪区松山西路98-8,,123.396486,41.876412
2db0ff13d0f09b1b6ca3ccfe,恒山汽车美容装饰,,,,辽宁省沈阳市皇姑区恒山路2-1号,,123.425371,41.835655
81dbbc0004861bd2b23c8182,恒大家装(于洪店),,,,长江北街95号4门,89577888,123.413775,41.869871
e4bea1083d00107f81a12e96,林凤装饰皇姑分公司,辽宁省,沈阳市,皇姑区,皇姑区崇山西路1-9号4门(延河街口),,123.402905,41.836491
55a5bc818e9cbc2dc03644ad,辽宁京东装饰,,,,沈阳市皇姑区黄河北大街115号1门,,123.422887,41.890486
1db44fbc29b2e6d986420e11,辽宁丰田之星,辽宁省,沈阳市,沈河区,辽宁省沈阳市沈河区友好街21-1号,,123.44909,41.816901
40210fc5d2135cd282288ae1,辽宁老泥巴装饰工程有限公司,辽宁省,沈阳市,皇姑区,皇姑区黄河南大街60号4门,,123.426915,41.835277
3bc7d4a441a36d45c0364420,金山装饰材料市场-西门,,,,陵园街39号,,123.45479,41.852794
77103820c4398c53a0acc451,公牛装饰开关(沈阳授权店),辽宁省,沈阳市,大东区,沈阳市大东区广宜街与白塔路交叉口东北50米,,123.457544,41.814447
c77e0cdf4efbba9d0c0a7085,装饰工程有限公司,辽宁省,沈阳市,皇姑区,沈阳市皇姑区金沙江街18号2门,,123.41521,41.831455
95d7106ce0864cffd8d891fc,装修公司-实创装饰,辽宁省,沈阳市,沈河区,北站路53号财富中心B座6-7层,,123.440889,41.820165
6127baded7cce395932ca349,广有装饰装修五金建材经销部,辽宁省,沈阳市,皇姑区,宁山东路12辽河街道晨报社区(南门)附近,(024)62265731,123.448453,41.834624
b246cfad37c7397690114cc3,美车坊汽车美容装饰店,,,,辽宁省沈阳市皇姑区鸭绿江东街66号-15门,,123.472191,41.853843
92c31a1153d75381abf7291d,沈阳市皇姑区车地带汽车服务中心,,,,辽宁省沈阳市皇姑区华山路416号,,123.398835,41.829439
5da2521ee44376b75d17c325,装饰画十字绣,,,,辽宁省沈阳市大东区沈铁路70号,,123.491119,41.839506
1f842369fa3fc7a20f0e6b14,沈阳大拇指装饰工程有限公司,辽宁省,沈阳市,大东区,沈河区团结路88号沈河区房地产超市内,,123.457728,41.819217
fb78552947432ba4ab0dd815,瑞家地产装饰,,,,沈阳市皇姑区淮河街24号,,123.402135,41.836441
bbcd435cace4d21c12882476,世鑫铝塑断桥铁艺装饰,,,,辽宁省沈阳市于洪区陵西街24号,,123.415002,41.84858
a581351575d3a3808936eea8,家装水电维修水电,,,,孔雀河西街8-号甲附近,,123.418949,41.853311
7f4e7401b16d4753a6da398e,辽河3号美天下装饰装修,,,,辽宁省沈阳市皇姑区辽河街3号,,123.446136,41.828469
8346bb88d33a6c0f29201afe,沈阳瑞宏N窗业有限公司,辽宁省,沈阳市,于洪区,文储路薪鹏保温材料东南40米,,123.459059,41.897487
4ebf49c8ee34f43d15c905b8,厚丰店面装饰断桥门窗,,,,辽宁省沈阳市皇姑区岐山西路8号-9门,,123.403012,41.831454
328fd13cf24eb7e8770269e1,沈阳瑞逸装饰工程有限公司,辽宁省,沈阳市,皇姑区,沈阳市皇姑区长江街59号甲2-1310(北行国美电器13楼10号),,123.419994,41.827857
02564fda596108ad3517dc8e,美嘉瑞装饰(皇姑总店),,,,长江街黑山路花好月圆门市95号,,123.413759,41.870257
97104435f08484f0fea77854,金沣港汽车装饰中心,,,,辽宁省沈阳市皇姑区陵北街2号-7-2门,,123.438519,41.871075
b5fab31a858fbaa29e82ea3f,华泰汽车,,,,辽宁省沈阳市大东区沈铁路38号-3门,,123.485367,41.833828
243cf63fce862c8f631809a9,不锈钢装饰白钢铁艺断桥,,,,东西快速干道与小北街交叉口西南50米,,123.460052,41.816381
80bb42de8ca64a83f72310c3,沈阳兴北装饰工程设计有限公司,辽宁省,沈阳市,大东区,小什字街173号-5门附近,,123.478102,41.820446
1da1463868321014970319df,铭尊装饰,,,,小东街道小东路天阔华城(市群众艺术馆对面)6楼,,123.483505,41.811296
324637779f64beb176e5b668,东旺装饰,,,,步云山路47-3号4门,,123.409058,41.821264
4c1fdfc3c1e9df00abf0cde9,天宇汽车装饰,辽宁省,沈阳市,于洪区,辽宁省沈阳市皇姑区鸭绿江东街80号-10门,,123.473324,41.856128
11c802c68f8ccd37c26c14f5,盛亿隆装饰,辽宁省,沈阳市,于洪区,怒江北街与赤山路交汇处西行20米(万科魅力之城北门),,123.402213,41.877439
af7dce9de570c2e6df1e5219,美娇舞图文喷绘装饰商社,辽宁省,沈阳市,大东区,辽宁省沈阳市大东区北海街42号5门,,123.482929,41.833862
88f958d589ac5bb94f3a59dc,鼎瑞装饰体验馆,,,,辽宁省沈阳市于洪区黄河大街万山路公交站(天意缘西),,123.422121,41.898576
2ae7e59df3501f51d42ce23a,富诚装饰,,,,沈阳市黄河北大街258号5门,,123.418335,41.907651
5c3ab81e6e64b916a1a93472,万隆丰装饰材料经销处,,,,辽宁省沈阳市大东区如家快捷酒店(沈阳中街步行街小东门店),,123.469666,41.81102
3af5ba706011ea89ab0dd868,装饰材料市场,,,,沈阳市皇姑区,,123.454741,41.852924
87a2f3b98c5b2abbd8ecedd0,沈阳德创广告装饰公司,,,,黄河北大街237-68号附近,,123.41986,41.905907
f67a1ca830df024f4f6d46a8,绿诚装饰材料大全,,,,辽宁省沈阳市大东区生产路5-13号-8门,,123.489082,41.875562
2bf4b1dd7d016587ae045709,沈阳雷雷装饰工程有限公司,,,,白山路65号10门,,123.399135,41.864628
90f1f586df88e48d45572689,金视野装饰工程有限公司,辽宁省,沈阳市,大东区,辽宁省沈阳市北海街208-3号2门,,123.488513,41.823252
6ca84f007901d5eb220220a1,天坤装饰家装旗舰店,辽宁省,沈阳市,于洪区,辽宁省沈阳市于洪区怒江北街191号-5门,,123.404945,41.877461
cb94fde9c525743428201a07,联塑家装管,辽宁省,沈阳市,大东区,辽宁省沈阳市大东区北海街203-100号附近,,123.492852,41.82044
009fc6e91ce08a47c2f1cf31,中国建筑装饰集团公司辽宁分公司,辽宁省,沈阳市,沈河区,北站路77号光达大厦B座7层,,123.44445,41.821516
291b95385c78e3f44051c0c8,丽水装饰,辽宁省,沈阳市,皇姑区,黄河南大街56号6门中建峰汇广场a座7层,(024)62882525,123.426809,41.834176
dbbaa2613a3e7cf2c61e51cd,华湛广告装饰,,,,嘉陵江街与昆山中路交叉口东北100米,,123.424771,41.82434
2fd60ee05bacc086e0110302,公牛装饰开关,,,,牡丹江街41号附近,,123.430844,41.878162
728595ef959607587c29bd5e,兴旺装饰材料,,,,辽宁省沈阳市大东区生产路5-13号-8门,,123.48969,41.875561
2df9e07f1d467c5488b98849,沈阳俊然暖通工程有限公司,辽宁省,沈阳市,大东区,辽宁省沈阳市大东区小津桥路96号楼,,123.482015,41.812653
2da8c611b8b88cc22dfaa7bb,沈阳佳东装饰工程有限公司,辽宁省,沈阳市,东陵区,文储路66号12号门,(024)66774958,123.462393,41.900966
21533fc1cf63ef518505bf30,乐天装饰大东设计中心,辽宁省,沈阳市,大东区,辽宁省沈阳市大东区大北关街75号,(024)88715587,123.473528,41.819449
dcbab6d27a154a9081a12ed8,沈阳宝兴建筑装饰工程有限公司,辽宁省,沈阳市,皇姑区,黄河北大街97号1门,,123.423031,41.887988
0bc92abc2974950590114c76,驰风装饰,,,,香炉山路怒江北街鑫永强装饰材料二楼,,123.402824,41.857616
d593b25ae8229bab8605bf93,美居装饰工程公司,辽宁省,沈阳市,于洪区,怒江北街56号甲,(024)86316660,123.40418,41.85766
98be7bb03523cf08990050da,佳诚灯箱牌匾铁艺装饰,辽宁省,沈阳市,大东区,辽宁省沈阳市大东区白塔路29号,13889346211,123.462055,41.813852
812e7b5e83372d129868b4d5,沈阳杰绅世纪装饰工程有限公司,,,,辽宁省沈阳市大东区北海街1-3号博士苑小区物业楼3楼,,123.472525,41.838313
a0c5021411c92c25f4b91660,峰创国际峰上大宅,,,,辽宁省沈阳市皇姑区北陵大街21号平安财富中心B座13楼1309室,,123.437676,41.831636
ef7d15476a6d074fc27da2eb,辽宁奇信装饰设计工程有限公司,辽宁省,沈阳市,大东区,津桥路3-2号丰瑞・威士顿广场B座17层,,123.472241,41.811047
358edb49c12a8d4e626858fa,淘汽云修（启龙汽车装饰美容店）,辽宁省,沈阳市,大东区,东边城街94号,,123.484137,41.814528
fb8f29cf82fc630a1c3894de,佳兴装饰建材,辽宁省,沈阳市,皇姑区,宁山西路22号,,123.399369,41.83439
72741eb5d8fa93dc4151c0fa,天宇装饰牌匾铁艺门窗,辽宁省,沈阳市,皇姑区,辽宁省沈阳市皇姑区巴山路17号,,123.446423,41.830915
69135b65858afec00c0a7022,瑞之峰装饰公司（大东店）,辽宁省,沈阳市,大东区,"大东区津桥路二号甲,金香山大厦203室",,123.471187,41.811541
588408f662bd1d08744ff1cd,忆馨装饰工程有限公司,,,,沈阳市浑南区观泉路266号,,123.494901,41.854817
67404ee7d0a25bdd4207c1c1,沈阳于氏铝业幕墙装饰工程有限公司,辽宁省,沈阳市,于洪区,沈阳市梅江街53-4,,123.437535,41.893989
2cc45bc2badf9bf632f71d25,铭车之旅汽车美容装饰,,,,辽宁省沈阳市于洪区北固山路6号-3-2门,,123.411968,41.869195
ce88554ac2b63d30c1f1cfe5,大同装饰,,,,辽宁省沈阳市皇姑区昆山中路35-1号-1门,,123.426809,41.823582
774826c5efc731a2b4265516,翔宇美术装饰服务部,辽宁省,沈阳市,铁西区,辽宁省沈阳市铁西区颂工街15号-7门,13998353358,123.401392,41.813534
4692c65eb87e47d793114cc0,沈阳瑞德装饰工程有限公司,辽宁省,沈阳市,皇姑区,长江街14号皇姑商务大厦15层,,123.419835,41.827812
3703620c58e42e399022e06b,佰亿装饰,辽宁省,沈阳市,皇姑区,辽宁省沈阳市皇姑区宁山中路42-10,,123.429337,41.833561
ab40d3eae979a9b808ccdd5f,尚峰装饰,,,,沈阳市于洪区辉山西路11,,123.404196,41.88887
9f2cb7297c3740319de3216d,鸿燕装饰(于洪总店),辽宁省,沈阳市,于洪区,北固山路36-11,,123.404846,41.873814
6ac58d818ef0107e7c29bd44,德红装饰,,,,沈阳市大东区金香山大厦302,,123.471031,41.811602
0387bee9752d258143e192ec,东机装饰,辽宁省,沈阳市,大东区,沈阳市大东区如意一路15-4号11门,,123.481632,41.822737
c9c5cbef7dceeb1bbb17e740,美林尚府装饰怒江北街店,辽宁省,沈阳市,于洪区,北固山路20-13-8门,(024)86481315,123.405224,41.874384
403670df7e938929631c67d2,沈阳志成天易建筑装饰工程有限公司,辽宁省,沈阳市,皇姑区,宁山西路5-5门,13840254018,123.40441,41.833013
b762a7466d1efab3725e8063,辽宁芷君建筑装饰工程有限公司,辽宁省,沈阳市,和平区,市府大路200号新世纪商务大厦9层,,123.430952,41.811158
7e766aa404f977b5adb22ae0,叠彩汽车美容装饰,,,,辽宁省沈阳市于洪区北固山路6号-3-10门,,123.410626,41.869331
c0002a4670d27e7703ec016e,装饰材料配送中心,,,,辽宁省沈阳市皇姑区长江街商圈三江街9号,,123.412448,41.821826
4bf883e2f15767758505bf48,沈阳卓尔轩装饰设计工程有限公司,辽宁省,沈阳市,沈河区,北站路77号光达大厦C座1单元13层1303,,123.443392,41.821243
de00250fdf023ecf1e1d111d,天晟伊家装饰工程公司,辽宁省,沈阳市,沈河区,奉天街342格林自由成B座31层B31-14-16,,123.448582,41.814132
39739d9f2c0f21be14b54bd1,沈阳市大东区麦点美术装饰部,辽宁省,沈阳市,大东区,辽宁省沈阳市大东区联合路7-6号,,123.462678,41.821935
59b4182cd9256e90901fc94f,沈阳市圣之源灯饰装饰工程有限公司,辽宁省,沈阳市,大东区,津桥路2甲金香山大厦304室,,123.471164,41.811575
1d8eb085f5800549ebe582f1,沈阳盈艺美美术装饰有限公司,辽宁省,沈阳市,于洪区,沈阳市皇姑区黄河北大街186号,,123.419131,41.905947
bf68d655f55fab127bf796db,龙之梦装饰,辽宁省,沈阳市,于洪区,鸭绿江街56-1附近,(024)31203318,123.461558,41.852851
70eb77bdecd3cc73a1a934f1,亿时代装饰,,,,辽宁省沈阳市于洪区怒江北街264号3门,,123.403152,41.892711
8cb107a9699817e740e192da,沈阳冠羽装饰工程有限公司,,,,辽宁省沈阳市皇姑区鸭绿江东街30号,,123.469741,41.847806
8ab67d9dc70b8a69167643c0,久丽驿站汽车美容装饰中心,,,,辽宁省沈阳市皇姑区陵北街2号-9-5门,,123.43793,41.872262
6e837ac2a6b4c67715a190e0,鑫家居装饰(皇姑店),辽宁省,沈阳市,皇姑区,崇山路延河街73-2门,,123.402806,41.836005
abf49bcaac1033a4e8e58216,唯美广告装饰,辽宁省,沈阳市,沈河区,沈阳市沈河区团结路65号,4000085535,123.452085,41.818835
fe36f173c9ba2216a7c756df,五彩换新装饰,,,,铁山路与鸭绿江西街交叉口东100米,,123.460148,41.846688
13657524970550ecc16c1434,百顺汽车配件汽车装饰,,,,辽宁省沈阳市皇姑区巴山路公寓(沈阳市皇姑区政府东南),,123.450425,41.829511
a65237a6ff4d0a4881a12ecc,兴隆德祥建材装饰材料,,,,辽宁省沈阳市皇姑区万山路10号-10门,,123.429323,41.897447
583b4f54c84ed553cae33c6c,华庭装饰,辽宁省,沈阳市,皇姑区,辽宁省沈阳市皇姑区华山路39-3门,,123.41528,41.822837
9c1bd520af515972f80cad16,城瑞装饰(黄河大街旗舰店),辽宁省,沈阳市,皇姑区,黄河北大街115,(024)86517677,123.422887,41.890486
877a0b3c072455440d3ddafb,沈阳永强装饰材料市场板材批发大厅-西1门,,,,香炉山路29-1号附近,,123.399976,41.857045
076d94590d30ff316849f39d,沈阳永强装饰材料市场板材批发大厅-南2门,,,,香炉山路29-1号附近,,123.400102,41.856957
8767038d42459f022bd7ab98,沈阳鑫溢装饰工程有限公司,,,,辽宁省沈阳市大东区北大营西路6号-甲-5号-12门,,123.482796,41.852784
5a2a98a8cc4053009ff779e1,沈阳市鑫友装饰工程有限责任公司,辽宁省,沈阳市,大东区,滂江街24号红星美凯龙1层,,123.494591,41.812109
2bb0e2f314ce311a095cb36b,皇鑫装饰材料,,,,辽宁省沈阳市皇姑区华山路104-2号,,123.418968,41.822827
94f3f278a720c404d3ff23cc,房修驿站,辽宁省,沈阳市,于洪区,辽宁省沈阳市于洪区怒江北街15-9号-3门,,123.408193,41.854272
c66f6987671bd906e812e49e,辽宁省万丰装饰装修公司,辽宁省,沈阳市,和平区,辽宁省沈阳市和平区-北市市府大路123号,(024)22890958,123.426109,41.810074
0136b5838b88717e21f017c2,百姓家装,,,,辽宁省沈阳市大东区小什字街147号,,123.476908,41.815513
ce7b53b43da9213fe60738cd,沈阳富德富建材有限公司,辽宁省,沈阳市,皇姑区,辽宁省沈阳市皇姑区陵东街10号-南7门,(024)86891598,123.448417,41.843891
5c0ddba497e92a4594ec8442,沈阳星宇装饰设计工程有限公司,,,,沈阳市沈河区北站路57号沈阳・财富中心D座14层,15840181735,123.44181,41.820464
842339a4fffec200fbdc8560,沈阳市建筑装饰协会培训基地,,,,辽宁省沈阳市大东区北海街205号,,123.493426,41.819551
f8ce3f576b86db41f1193794,沈阳美嘉瑞装修工程有限公司谦禾易理风水,,,,辽宁省沈阳市于洪区长江北街95号-2门,,123.413775,41.869871
c73242e3bdee939db35c6a9b,车都市清洗美容保养装饰,,,,千山西路与川江街交叉口北200米,,123.416721,41.883464
278fdca7b8654e0bb020a872,天展装饰工程有限公司,,,,辽宁省沈阳市于洪区黄河北大街88-12号,,123.418976,41.874807
7020f585994ed62a364aaed9,星宇汽车装饰,,,,辽宁省沈阳市于洪区陵西长江北街阳光宾馆南100米,,123.416232,41.853325
f7b2654e22befb10f32d8323,沈阳市大东区风火美术装饰设计部,,,,沈阳市大东区草仓路15号8门,,123.474269,41.815617
e93aafd170a335d240e19208,百恒装饰,辽宁省,沈阳市,大东区,沈阳市大东区工农路58号4门,"(024)88151492,(024)88152492",123.489158,41.825167
49a02a7a79f793402a201a85,沈阳松陵安装工程公司,辽宁省,沈阳市,皇姑区,黄河北大街43-2号,,123.424898,41.877131
5f046c153f375032c8c3db13,博创装饰,,,,陵西街道千山西路黄河北大街丽晶公馆东门,,123.421486,41.883239
77d28470938433c3e856fa3f,老尹装饰,,,,万山路10号10门加华小城附近,,123.430355,41.901851
01ec990900297444cf06a46c,宇佳麒汽车装饰座套,,,,辽宁省沈阳市大东区上园路第二小学北100米(梧桐园西南),,123.479469,41.842433
a17111ec63fd970cd5b74ece,缘家电装饰店,,,,辽宁省沈阳市大东区建新街9号-1-6门,,123.493227,41.883777
76d44bef9edd22d440e1923c,富志装饰有限公司,,,,三家子路与自强街交叉口东50米,,123.488847,41.896376
c1c1a798072a5b13bca8223c,鱼跃装饰材料,,,,沈阳市大东区沈铁路33号,,123.492088,41.83946
5ce5e057f7b5d0dc29d7ab96,鑫雨汽车美容,辽宁省,沈阳市,大东区,劳动路21-5号10门,,123.494226,41.875241
d17bc66e455cb6ad8bb988fa,博雅装饰纸,辽宁省,沈阳市,于洪区,鸭绿江北街198-28号,,123.462938,41.882052
04fe24fa5b249c4cc17da2e4,沈阳凯瑞得装饰工程涂料厂-西北门,,,,观音路西段附近,,123.4561,41.88374
93995c093a2e4ac9e8e58272,众益诚装饰,,,,辽宁省沈阳市于洪区黄河北大街120号,,123.421749,41.886081
af6a7ee6a020e2591894c6b6,银亿汽车美容,辽宁省,沈阳市,于洪区,辽宁省沈阳市于洪区怒江北街223号5门,,123.404093,41.891249
9c53bb3b772a2bf792114c1e,老兵洗车装饰,,,,辽宁省沈阳市于洪区怒江北街227-2号1门,,123.405945,41.892334
3ba028e840991ac94351c05e,泽发装饰,,,,沈阳市于洪区辉山西路13号4号,,123.405693,41.889284
d4fb05095244dcecfd0eb0ed,海涛装饰,,,,辽宁省沈阳市于洪区黄河北大街122号优创空间B座4楼,,123.421749,41.886081
9a84ffc4d4a87ed80869d955,普鑫装饰工程有限公司,,,,辽宁省沈阳市于洪区万山路利生丽园(东区)(万方小区东),,123.44002,41.896678
c15b3f701328ca4b14b54b48,点精装饰,辽宁省,沈阳市,皇姑区,芙蓉山路20号22门,,123.429332,41.882071
396d36effa9b54e816c905d1,昊天装饰,,,,沈阳市于洪区辉山西路11-1号1门,,123.404118,41.887992
ab5e212f8877c56c734b8750,鑫和装潢木器厂,辽宁省,沈阳市,于洪区,闾山路附近,,123.415787,41.890989
42baf601d04a05ff2dfaa79c,沈阳市鸿宝装饰材料厂西北门,,,,辽宁省沈阳市皇姑区鸭绿江北街58号附近,,123.459278,41.87138
9279cb681f9fd657eee4a59b,任木工专业家装设计,辽宁省,沈阳市,东陵区,辽宁省沈阳市大东区望花怡园小区(望花南街南110米),,123.484398,41.858091
3204a16160fd2a4be812e490,荣泰装饰,,,,辽宁省沈阳市于洪区怒江北街41号,,123.405691,41.863657
b8675d00374372896e20b9b4,电焊铁艺工装家装,辽宁省,沈阳市,皇姑区,辽宁省沈阳市皇姑区牡丹江街38号,,123.426495,41.878285
ec1a6c74a9c03fbe373a719d,鑫兴牌匾店面装饰,辽宁省,沈阳市,于洪区,长江北街与白山路路口南80米,(024)88879885,123.414404,41.864068
20451a21fc065a62f50e778f,佳缘装修装饰,辽宁省,沈阳市,于洪区,白山路65-38,,123.400095,41.860815
5307c5e17896230dd92f28b5,盛源嘉美装饰工程有限公司总部,,,,川江街6号附近,,123.418278,41.870942
7719b8f76fe40d23a8059dcf,永明金属装饰,,,,辽宁省沈阳市于洪区陵西二小区(白山路南),,123.411093,41.865028
98df1184ad4d5bdb40afe6ba,弛风装饰,辽宁省,沈阳市,于洪区,怒江北街56甲附近,,123.402824,41.857616
87792b6f573e807ac03644c8,沈阳家居大世界装饰材料市场-北门,,,,香炉山17号,,123.413414,41.857973
147eed5c723c189f4afc8da2,天基装饰设计工程公司,辽宁省,沈阳市,皇姑区,泰山路46,,123.42361,41.844815
75933ee93f82412b631c6775,车之家汽车美容养护装饰（长江北街店）,辽宁省,沈阳市,于洪区,长江北街2-46号,,123.413607,41.845713
7b14cbaa1196065fc27da28e,神创装饰装修工程公司,辽宁省,沈阳市,于洪区,怒江北街189号,(024)86482338,123.404855,41.877042
fb78b6b1544886de0b69d9b1,凌海艺家装饰,,,,辽宁省沈阳市于洪区怒江北街7号楼,024-67765338,123.40552,41.851368
a7539afa5390e1f130621237,龙昌电焊铁艺工装家装,,,,三台子街道莲花山路9号龙昌电焊铁艺,13066607060;15004064459,123.429228,41.878461
4bc740278caf348fe115f976,经纶装饰,辽宁省,沈阳市,于洪区,辽宁省沈阳市于洪区长江北街89号楼,(024)86548849,123.413858,41.869012
5a31876f7cbe09b91576436c,东北建安设计装饰工程公司,辽宁省,沈阳市,于洪区,沈阳市于洪区长江北街53号,(024)86162895,123.414523,41.861406
278af5ee3fae95f649fd3ff9,万联恒信装饰,辽宁省,沈阳市,皇姑区,辽宁省沈阳市皇姑区淮河街29号,,123.397407,41.838833
76f26897e62632c71676433d,华彩装饰,辽宁省,沈阳市,于洪区,白山路56-14-5门(近怒江北街),(024)86559766,123.397502,41.869035
74b0318ea887bcad33169b42,君领装饰装修公司,,,,辽宁省沈阳市大东区辽沈二街78号-5门,,123.486604,41.821871
0a6095a30f4e833ac9fa5ff6,沈阳蚂蚁伟业装饰工程有限公司,辽宁省,沈阳市,大东区,辽宁省沈阳市大东区滂江街红星美凯龙3楼,,123.494707,41.812396
3af8dc4b3079346db75f1e5b,大为装修医生,辽宁省,沈阳市,大东区,辽宁省沈阳市大东区联合路9号-9门,(024)31065555,123.462986,41.82434
8e91acc544e10d7117c8f64a,瑞家装饰地产,,,,辽宁省沈阳市大东区中学堂路11号2门,,123.479398,41.818512
f5bf0c3af2f8195a40ab9a37,沈阳恒星装饰设计有限公司,辽宁省,沈阳市,大东区,小东路241号天阔华城7层708,(024)24333332,123.483699,41.811391
4e33ea27d5d2ff46f423102d,鑫天行广告装饰,,,,辽宁省沈阳市沈河区团结路香来旅社名家地板文化广场西门,,123.456943,41.819156
7daeb9ec087f0f81e81e97ca,阳道尔原创装饰艺术工程有限公司,辽宁省,沈阳市,大东区,小东路241号天阔华城9层950,,123.483456,41.811362
53a1bd8e40c74f2507026f2b,辽宁西格马装饰设计工程有限公司,辽宁省,沈阳市,沈河区,奉天街346号格林自由成B座6层0604,,123.448582,41.814132
39537c06713231a6fda77883,北京精美飞龙装饰中心沈阳分部,辽宁省,沈阳市,大东区,小东路241号天阔华城9层921,,123.48346,41.811366
106759534e4c3319eee4a5e3,华美装饰,,,,辽宁省沈阳市大东区如意五路20号附近,,123.484052,41.822584
894b4b92d8916edab6f42feb,房帅装饰,辽宁省,沈阳市,大东区,辽宁省沈阳市大东区东边城街45号-2门,,123.484338,41.8168
0bde1c46e1074119336212e4,艾尚装饰工程,辽宁省,沈阳市,沈河区,沈阳市沈河区奉天街346号格林自由城B座18层,,123.448582,41.814133
49a8e099e1e28620bb17e7e9,南方艺特装饰工程公司,辽宁省,沈阳市,沈河区,北站路77号光达大厦C座1单元8层,,123.443393,41.821247
1afcaea172a34ff89f82ea97,平安行汽车美容贴膜装饰,,,,津桥街道珠林路28-1(老龙口酒厂对面),,123.48542,41.813188
23a00b551f4fc7329b68b4cc,大连海天博雅装饰工程有限公司,辽宁省,沈阳市,沈河区,友好大街19号奉天银座A座11层1105/07,,123.448349,41.818797
63dc53544bd93f3836b06cda,沈河区易轩华溢装饰设计工作室,辽宁省,沈阳市,沈河区,奉天街346号格林自由成B座9层0912,(024)22744885,123.448582,41.814132
721de3c374d5dc9b33169be0,建行装修袋办事处,辽宁省,沈阳市,大东区,天后宫路119号东祥大厦5层,,123.46766,41.816138
9a9198de8bda7bf08a36ee4c,旭阳装饰工程有限公司,辽宁省,沈阳市,大东区,小东路241号天阔华城3层336/337,,123.483699,41.811391
999267e54c61799a631c67fa,爱建高级装饰,辽宁省,沈阳市,大东区,辽宁省沈阳市大东区中学堂路5-5号1门,,123.475344,41.817394
8a7e5109cab2b7acdf1e5289,新龙发装饰,,,,北顺城路196号,,123.468136,41.811866
37426d6a6552ce51246e98a8,方一喷绘装饰,辽宁省,沈阳市,大东区,辽宁省沈阳市大东区小津桥路98号14门,,123.483079,41.812836
bf297eb2dffb60ed9d9d6882,沈阳腾阳装饰工程有限公司,辽宁省,沈阳市,大东区,大北关街2号广乐大厦11层1103,,123.470405,41.816781
4fbba5ffd86d8ec84107c177,意林装饰有限公司,辽宁省,沈阳市,大东区,小东路241号天阔华城7层720,,123.483699,41.811391
36f9b97b5eeb2f159e9d681c,吉星锦不锈钢装饰玻璃经销处,,,,辽宁省沈阳市大东区白塔路38号,,123.459012,41.813833
9a2c31b0775bfdcfe115f9e1,沈阳市旭日金属装饰有限公司,辽宁省,沈阳市,大东区,辽宁省沈阳市大东区吉祥四路153号,,123.485324,41.827564
0fdb2ef9a1c4fcfe9d95de66,辽宁德信装饰工程有限公司,辽宁省,沈阳市,大东区,沈阳市大东区小北街70号,(024)88555123,123.460379,41.81574
d3d3a321e1735755203bf27a,沈成达房屋工程维修队,,,,辽宁省沈阳市大东区沈铁路42号-2-1门,,123.483495,41.835906
630c17505d72262c4151c0ce,三越装饰,,,,市府大路290号摩根・凯利A座15层,,123.446755,41.811312
6a3314163f81e0aca2a93426,北京兴华伟业建筑装饰工程有限公司沈阳分公司,辽宁省,沈阳市,大东区,天后宫路119号东祥大厦4层,,123.46766,41.816138
aca469c9a3929e91c9e33cf9,1+1装饰工程有限公司,辽宁省,沈阳市,大东区,小东路241号天阔华城4层,,123.483457,41.811363
141b2c5cc962446c7dc87605,阿波罗名车美容装饰,,,,辽宁省沈阳市皇姑区崇山东路21号-19-7门,,123.461306,41.834366
defaea93a71d695e80a12e96,夷羿装饰,,,,辽宁省沈阳市皇姑区长江街122号,,123.417444,41.835113
dd72b644e370609cd2f49e64,金圣亿装饰,,,,黄河南大街58号1门中建峰汇广场b座7层,,123.426867,41.834447
637138903523af43631c67c4,沈阳弘融建筑装饰工程有限公司,,,,长江南街6号财富大厦6层,,123.41891,41.820881
29184d3317f3d3d24307c1b5,疑难防水保温承揽家装一条龙,辽宁省,沈阳市,皇姑区,辽宁省沈阳市皇姑区华山路214号,,123.413329,41.823914
efc0702b023f73ea077ce8f7,万丰装饰,,,,沈阳市和平区,,123.426279,41.810074
9088ff4d5126fdcd85420eba,精英装饰装修,,,,辽宁省沈阳市长江街135号海丽德国际商厦B座8层,,123.419619,41.834772
552c01f01c9bfad704fef505,沈阳中宇成方装饰工程有限公司,,,,北陵大街19号中汇广场A座2703室,,123.437384,41.830827
9355d915da0fa16aa31de95c,沈阳万丰装饰装修有限公司,辽宁省,沈阳市,沈河区,友好街16号奉天银座A座1001-03,,123.441281,41.820307
7f671cebae3cbd98167643d6,沈阳e家建筑装饰工程有限公司,辽宁省,沈阳市,沈河区,市府大路262甲新华科技大厦28层2802,,123.440587,41.812177
7e22a69598ee5d2b9122e0f1,荣香美术装饰,辽宁省,沈阳市,皇姑区,宁山中路61号211附近,,123.416003,41.832624
679d900090fb3c9a5e0d02e7,沈阳景泰防水装修工程有限公司,辽宁省,沈阳市,皇姑区,辽宁省沈阳市皇姑区塔湾街道怒江街泾河小区旁,,123.406129,41.831085
a1504f12edd571e69e95de3a,品车廊装饰维修服务站,辽宁省,沈阳市,铁西区,北一东路51-2号2门,,123.398481,41.817006
87661c50abd0ec54ee74f862,盛金祥装饰材料商行,,,,辽宁省沈阳市皇姑区华山路106-1号,,123.418607,41.822177
de600be1f2cc9399b45f1ee6,金色时代建筑装饰装修工程有限公司,辽宁省,沈阳市,和平区,市府大路55号年华国际大厦0916,,123.421699,41.809707
161c6573b3d8fec08bdb731a,华硕美术装饰,辽宁省,沈阳市,皇姑区,辽宁省沈阳市皇姑区昆山中路72号,(024)86214379,123.420801,41.824547
6f8060ad40e44c160f0a70ff,鼎伦装饰工程有限公司,,,,北站路55号沈阳・财富中心C座2单元14层1401,,123.441342,41.820428
ff64ad77ac103e1c09b93ab9,兰德-彭软装壁纸家居装饰馆,辽宁省,沈阳市,皇姑区,辽宁省沈阳市皇姑区金廊商圈黄河南大街38号,,123.426986,41.829962
610a444ae6c2a29d9d82ea68,沈阳美斯特装饰材料有限公司,,,,辽宁省沈阳市皇姑区闽江街79号-9门,,123.422295,41.821179
128bee651f222979441a323f,深圳九度空间建筑装饰工程有限公司沈阳办事处,,,,团结路7-1号华府天地1号楼22-3,,123.438925,41.818885
2c45b97e00a703cd94ec84b6,富汇装饰,辽宁省,沈阳市,和平区,市府大路45,,123.420283,41.809785
93ceba1b8ad3ed39ca2915e9,强国装饰,,,,辽宁省沈阳市铁西区爱工北街9-12门附近,15140033388,123.395911,41.809138
df87df0e1663e5f3eb1e97e4,嘉文装饰,辽宁省,沈阳市,大东区,辽宁省沈阳市大东区劳动路23号-5-5门,,123.495251,41.874728
4481cb343be1f5ec0bf5eb9b,新宇汽车修理美容装饰中心,,,,文官街道望花中街113-8号8门,,123.491595,41.871668
b922b11026af319eb7265579,沈阳建陆ㄖ装饰工程有限公司,,,,辽宁省沈阳市大东区南卡门路52-甲1号楼(和惠家园东门对面),,123.490214,41.842629
039b6f61a7355a7ac4f50dd9,沈阳鸿腾天创装饰装修工程有限公司,辽宁省,沈阳市,大东区,辽宁省沈阳市上园路99号5楼,,123.49205,41.837669
fa25122afc3279983010afa5,祥雨装饰,,,,辽宁省沈阳市皇姑区陵北街38号,,123.429299,41.8841
5b3d4309ad97ee2c6140a9ab,派绅装饰,,,,百花山路与黄河北大街交叉口西150米,,123.421437,41.883259
163d5b4701e887ee22026266,丽水装饰,辽宁省,沈阳市,皇姑区,辽宁省沈阳市陵北街36号,,123.429299,41.8841
6c390e32c993f8f617c8f6ce,诚信建材装饰,,,,辽宁省沈阳市皇姑区陵北街32号,,123.429944,41.883189
a6ca3798f0b29702f603b8cd,海涛装饰,,,,辉山西路13-3号附近,,123.405142,41.889314
b94e78b8aec3d24502294f24,海鑫装饰,,,,辽宁省沈阳市皇姑区陵北街36号,,123.429299,41.8841
35b73fa3566ad0dc17948e67,婆婆美车汽车美容装饰,,,,百花山路与黄河北大街交叉口东北50米,,123.423166,41.883873
9463b0d38bc394ad28d7ab29,地热清洗水电维修家装维修,,,,万山路82号附近,,123.429723,41.898331
d517482f577c19550482c294,家园装饰,辽宁省,沈阳市,于洪区,辽宁省沈阳市皇姑区陵东崇东综合市场西(鸭绿江西街东),,123.459983,41.845423
67ee356b6ae2dcaf7adbd209,长新洗车装饰中心,,,,辽宁省沈阳市大东区南卡门路31号,15840102122,123.481637,41.844969
e66abcaa64a55214b1077d32,兴旺塑钢装饰,,,,辽宁省沈阳市皇姑区鸭绿江西街17号楼,,123.459706,41.845531
5b5137047a3034a9471a3239,博远五金装饰建材商行,,,,辽宁省沈阳市皇姑区永安街117号,,123.475951,41.872041
8690f557351a4ed7373a71be,宏鑫铁艺装饰,,,,辽宁省沈阳市皇姑区永安街,,123.474217,41.870342
44cd0ed74e79a71e40024533,大贺装饰工程公司沈阳分公司,,,,永安街沈阳坤泰包装印刷有限公司附近,,123.474293,41.875912
68aba0be7fc8efba344aae83,沈阳元音装饰工程有限公司,辽宁省,沈阳市,皇姑区,陵东街25号陵东大厦2层202-207,(024)26900777,123.449968,41.842639
0d5c26ec903bd5953ce23173,沈阳永强装饰材料市场板材批发大厅停车场-出入口,,,,香炉山路56甲附近,,123.400605,41.857542
f8fa5e7ca419f37ea31de923,沈阳家居大世界装饰材料市场北停车场-出入口,,,,辽宁省沈阳市于洪区大班168连锁酒店(沈阳北陵店),,123.414834,41.857663
0f7be6c74c0197bfe9f853a5,辽宁康泰不锈钢制品装饰有限公司,,,,辽宁省沈阳市于洪区北固山路12-7号,,123.410584,41.872587
a6a3a6e3a3c29c74336212da,每之睿汽车美容装饰,辽宁省,沈阳市,于洪区,辽宁省沈阳市于洪区长江北街75号楼,,123.41417,41.86493
87251ddad405e43881a12ec8,沈阳市金嘉家装饰工程有限公司,,,,辽宁省沈阳市于洪区长江北街91号-11门,,123.413933,41.868847
79012114a0807fd91df74dc9,鑫浩瑞装饰,,,,长江北街64号与香炉山路交接的家居大世界,,123.414455,41.857675
0711f13387c4d97d16764379,沈阳永强装饰材料市场板材批发大厅-南1门,,,,香炉山路29-1号附近,,123.40037,41.856964
863c0e4bc6b791a1774ff10e,沈阳富鸿建筑装饰有限公司,辽宁省,沈阳市,皇姑区,黄河南大街96-6号启运商务大厦1311,,123.424734,41.844899
7b9ccfb5179c71289d95de0b,辽宁杨刚照明装饰工程有限公司,,,,辽宁省沈阳市皇姑区长江街134-3门,,123.418261,41.840526
58e92e710f961e6b1c389478,沈阳永强装饰材料市场板材批发大厅-东1门,,,,香炉山路29-1号附近,,123.400478,41.857299
6b87518bfb2ef3a460180922,沈阳永强装饰材料市场板材批发大厅-西2门,,,,太岳山路8号附近,,123.399967,41.85726
9f4040c73ac9822cd13ce3aa,沈阳永强装饰材料市场板材批发大厅-北1门,,,,太岳山路8号附近,,123.40012,41.857361
06056f7bb5cf1164f03cba21,沈阳市皇姑区宏鑫鑫装修有限公司,辽宁省,沈阳市,皇姑区,泰山路8巷附近,,123.417817,41.845224
22235d26e825d7598bb98844,沈阳家居大世界装饰材料市场-东门,,,,长江北街58-6n号附近,,123.414842,41.857663
27df4544831b38ccf33cbad2,大丁鑫家居装饰工程公司,辽宁省,沈阳市,皇姑区,延河街73,(024)64683659,123.402791,41.836107
ea9acccce3d0f80038221c9d,银派装饰设计工程公司,辽宁省,沈阳市,于洪区,怒江北街58-1门,(024)31789988,123.404281,41.859028
392680f9f4879eaa94031990,佳隆中保定损理赔装饰美容,,,,赤山路42号附近,,123.396186,41.879285
889e3444c3f3a9a175e5b6c0,沈阳梵客装饰家居体验馆,,,,辽宁省沈阳市大东区滂江街大东红星美凯龙二层,,123.493556,41.812244
89f35b788721d21e715e801b,天阔装饰广告有限公司,辽宁省,沈阳市,大东区,小东路241号天阔华城9层916,,123.483465,41.811365
1fcc650776e541bcb05c6a55,丽卡尼汽车美容装饰,,,,辽宁省沈阳市皇姑区昆山东路7号,,123.450285,41.828916
3e7aa2410a139e998bf15dd4,其峰装饰工程公司,辽宁省,沈阳市,大东区,天后宫路146号富莱国际大厦12层1205,,123.467669,41.816959
c747bb1b72dc8923d23ce3d5,沈阳市国兴建筑装饰工程有限公司,辽宁省,沈阳市,沈河区,友好街16号奉天银座A座707,,123.448231,41.818715
31a605f5309e9acaf8dc8593,沈阳市新华家装施工有限公司,,,,小津桥路德增巷20号楼附近,,123.473213,41.813421
9deb14384beea2f38505bf4c,深圳华宫装饰工程有限公司沈阳公司,辽宁省,沈阳市,大东区,小东路241号天阔华城6层621/622,,123.483699,41.811392
091640958efe01c694ec849c,沈阴赢美天下装修装饰有限公司,,,,辽宁省沈阳市皇姑区辽河街3号,,123.445755,41.828507
55aab63a17b7cecaede4a5ec,沈阳长阳建筑装饰工程有限公司,辽宁省,沈阳市,沈河区,奉天街346号格林自由成B座19层1901,,123.448582,41.814132
e74983a9d0bab4a19f09f726,呈艺装饰工程有限公司,辽宁省,沈阳市,大东区,小东路241号天阔华城10层1018,,123.483456,41.811361
c9d8944ef6aa3605eb56fa4f,辽宁博文装饰工程公司,辽宁省,沈阳市,大东区,辽沈二街2,,123.480069,41.830385
394bfa3dd27e104eeb56fa2a,轩逸装饰,辽宁省,沈阳市,大东区,津桥路2甲金香山大厦5层505-1,,123.471186,41.811544
597969d192e46f792afc4890,点石装饰(奉天街),,,,辽宁省沈阳市沈河区奉天街346号格林自由成B座27层2712,,123.448363,41.814069
a95db3e8949a7671bd484229,安居家装改造维修部,,,,辽宁省沈阳市皇姑区武夷山路11号2门,13066505496,123.446042,41.832634
b336a7ed1a5dde60d518b7c0,巨弘妨不锈钢装饰工程,,,,辽宁省沈阳市大东区小北街70号,,123.460379,41.81574
39f16ecf84325df0b6147f6f,龙之峰装饰,辽宁省,沈阳市,沈河区,奉天街335恒运商务大厦10层1007,(024)31060796,123.44759,41.811654
eab3d3f9075531610482c2da,利德来装饰材料经销部,辽宁省,沈阳市,大东区,大北街174号附近,,123.466162,41.812174
ec00e7ecebfacfb21fe99919,惠鑫利装饰工程公司,辽宁省,沈阳市,沈河区,奉天街342格林自由成B座7层718,,123.448582,41.814132
dbf75a240465701b57bfff4c,不锈钢装饰工程,,,,辽宁省沈阳市大东区天后宫路101号2门,,123.464823,41.816356
2f93e00332f0e6116f3e1bee,大连三意装饰工程有限公司,辽宁省,沈阳市,大东区,沈阳市大东区合作街26号b座1203室,,123.480438,41.834047
29a3bc984e8c6cd07dc876a7,华子装饰,辽宁省,沈阳市,沈河区,辽宁省沈阳市大东区北顺城路145号,13609833063,123.468987,41.811012
98aac346141c26ad54bfff1e,沈阳大豪尔装饰装修工程有限公司,辽宁省,沈阳市,沈河区,奉天街346号格林自由成B座7层0709,,123.448582,41.814132
9ecda717dd23b388a3acc4d6,沈阳长城建筑装饰工程有限公司,辽宁省,沈阳市,沈河区,沈阳市沈河区奉天街346号格林自由城B座19层,,123.448582,41.814131
02b8b1fac8f265a724d2bb87,沈阳申科装饰工程有限公司,辽宁省,沈阳市,沈河区,惠工街124号中韩大厦主楼14层1402,,123.451465,41.823126
f8f58b19b0a6e5a9354aae30,沈阳昊业装饰工程有限公司,辽宁省,沈阳市,大东区,小东路241号天阔华城8层845,,123.483699,41.811392
f1e2b3d507ced0ee744ff14b,京阳装饰工程有限公司,辽宁省,沈阳市,沈河区,市府大路290号摩根凯利大厦a座12层1203-1204,,123.446755,41.811311
a7ee9ed6b058187a14c8f6f6,辽宁博雅装修工程有限公司,辽宁省,沈阳市,大东区,小东路241号天阔华城7层711,,123.483699,41.811392
81b86033212845d98afc06df,沈阳郅方建筑装饰工程有限公司,,,,北站路55号财富中心C座2-10-1室,,123.442548,41.81996
a956c5c8e1f219d6f503b80a,沈阳弘旭装饰工程有限公司,辽宁省,沈阳市,大东区,小东路241号天阔华城3层353,,123.483699,41.811392
24da09d42407280881288a89,艾特装饰沈阳分公司,,,,沈阳市沈河区友好街19号奉天银座A座16层,,123.448349,41.818797
65237e93ffd386e39d9d68e1,沈阳艺杭装饰工程有限公司,辽宁省,沈阳市,沈河区,友好街16号奉天银座A座503,,123.448239,41.818715
3fa8dfee35d479206d20b92d,鸿亮装饰,,,,辽宁省沈阳市沈河区令闻街160号,,123.456165,41.819425
b811bf84f9d069380b1cc749,轩传装饰,辽宁省,沈阳市,大东区,辽宁省沈阳市大东区小东路241号天阔华城8层839,,123.483444,41.81135
740b8ac5c5381a5e9ff77905,沈阳金翠羽装饰工程有限公司,辽宁省,沈阳市,沈河区,北站路银河国际B座1523室,,123.437682,41.820756
dc418773fee50cca22026226,沈阳旭N装饰工程有限公司,辽宁省,沈阳市,皇姑区,长江南街6号财富大厦8层,,123.418909,41.820882
8d57031bb70f65903617dcfc,沈阳文创空调装饰工程有限公司,辽宁省,沈阳市,和平区,市府大路200号新世纪商务大厦19层(4-6),,123.430979,41.811173
c925ec1947b4edaa30621277,沈阳市自然装饰有限公司,辽宁省,沈阳市,沈河区,市府大路262甲新华科技大厦8层0808,,123.440454,41.812693
9d112ebfcb17cf96f942b2eb,沈阳高盛源装饰设计工程有限公司,,,,戴云山路与珠江街交叉口西50米,,123.411393,41.822891
03b4922a601a46ea940319f3,韩美装饰,,,,辽宁省沈阳市皇姑区长江南街173号,,123.420089,41.822051
71a94abfdfa3a05fd8ecedfd,顶卓艺装饰,,,,沈河区哈尔滨路168号华府新天地C4座16楼1611号,,123.441144,41.817324
206000a17367078300ec012d,坤林装饰,,,,沈阳市沈河区北站路55号沈阳・财富中心C座11层,,123.441342,41.820428
060fc0dbf650bb0fd7851f40,沈阳苍盛装饰装修工程有限公司,,,,长江南街6号财富大厦5层,,123.41891,41.820881
670ad9ecb55ae0413586f490,油龙装饰,,,,辽宁省沈阳市皇姑区木兰河街44号,,123.414997,41.825179
0a0087d26d9877ee81288a1a,沈阳市皇姑区亮彩美术装饰部,辽宁省,沈阳市,皇姑区,沈阳市皇姑区岐山中路66号,,123.416547,41.828296
e091d6077eef76d4d618b707,大宝汽车美容装饰,辽宁省,沈阳市,皇姑区,辽宁省沈阳市皇姑区闽江街100号,15040035559,123.423464,41.822107
a4c844614bbe1776bca822aa,星源广告装饰,,,,辽宁省沈阳市皇姑区华山路212号,,123.413467,41.823841
31e1632bc74b1bb9b6147f75,天诚易德喷绘广告装饰,,,,辽宁省沈阳市皇姑区华山路124号,,123.416755,41.822337
61304dcf210d0df33904b1fc,涛源城发装饰设计,辽宁省,沈阳市,大东区,上园路99号4楼,,123.49225,41.83764
24f987c567afbb17336212af,五金建材装修土建,,,,建新街与生产路交叉口南100米,,123.486454,41.875307
4060763d6b9f6d7b03ec0146,车潮汽车美容装饰,辽宁省,沈阳市,大东区,辽宁省沈阳市大东区生产路5-13号-11门,,123.488515,41.875634
fbdc8822b1c5f570da2f2840,腾旺装饰,,,,辽宁省沈阳市浑南区北大营街,,123.495013,41.87048
ad0656d40b4be99f8c1a8954,新东顺装饰工程处,,,,沈阳市皇姑区阳山路9-2号,,123.432589,41.887871
c63406ab8528a46f631c67ed,天艺装饰,,,,辽宁省沈阳市于洪区黄河北大街122,,123.421749,41.886081
37e6f5f0e2cfcd1eadb22ab7,新美家装饰,,,,沈阳市皇姑区万山路145号,4000868681,123.422366,41.898212
3236988b939791112cb17eb8,金汇装饰公司,,,,辽宁省沈阳市皇姑区黄河北大街149号,,123.423984,41.899658
891ea742c8833acf4e6d46ee,鑫祥宇装饰,,,,长江北街与辉山西路交叉口包道社区对面,,123.412346,41.88846
b0131a0ff2b895799703197e,林盛合装饰装修设计公司,,,,辽宁省沈阳市皇姑区梅江北街,024-66774935,123.433914,41.900627
8c44bb296d45a872b8bd6302,伟星管烽烨装饰,,,,辽宁省沈阳市皇姑区陵北街65号,13002409883,123.430756,41.882824
edc5cae8254d342194ec8406,贵华装饰,,,,百花山路与黄河北大街交叉口西150米,,123.421459,41.883259
555f43a3d5a90072d8d89181,海阔装饰,,,,文大公路南50米,,123.403169,41.907455
b2073474f404daeff8f0cb32,铭廊家居装饰(于洪办事处),辽宁省,沈阳市,于洪区,千山西路5号,15840231935,123.419438,41.881499
a0e9c17297da5a23d4b74e82,艺桐装饰,辽宁省,沈阳市,于洪区,辽宁省沈阳市黄河北大街147号10门,,123.422121,41.898576
712c5a25db77ca18fbdc8570,富鸿装饰建材,,,,辽宁省沈阳市皇姑区陵北街65号,,123.430756,41.882824
27535c076f97f29cb8bd634a,同宇达装饰,辽宁省,沈阳市,于洪区,利生华园小区对面,(024)31516911,123.428146,41.897453
af2f8b39782b6d8fa1a934a4,沈阳金丽装饰,,,,辽宁省沈阳市皇姑区鸭绿江东街13-1号,,123.471966,41.847677
ef84332609f985364d55473b,国家建筑装修材料质量安全监督检验中心,辽宁省,沈阳市,于洪区,崇山东路61,,123.453051,41.838928
e643d5c416c31218aecb6601,欧雅装饰(大东店),辽宁省,沈阳市,大东区,辽宁省沈阳市大东区望花南街25号-5号-1门,(024)31836667,123.476142,41.841414
578cc1a4cf1b82cb9ff779bf,沈阳市仕龙建筑装饰工程有限公司大东分公司,,,,辽宁省沈阳市大东区合作街96号-4门,,123.481144,41.83974
fbe1f9aeefff3cb0c36c14af,沈阳市天威装饰板材.建材批发商行,,,,鸭绿江北街111号附近,,123.473443,41.878523
bbb2819698e2635378b55c22,鑫辉汽车美容装饰店,,,,辽宁省沈阳市皇姑区鸭绿江西街26号,,123.458898,41.846631
3203b69aeacdfe185abbbc87,沈阳亚晨装饰工程有限公司,,,,辽宁省沈阳市皇姑区金山路91号,,123.448587,41.855673
f035a785fe5095de3617dc5f,金山装饰材料市场地下停车场-出入口,,,,辽宁省沈阳市于洪区陵东陵园街星汉体育运动广场东,,123.454789,41.853022
600d28f6bdd3e9e1be4842ca,沈阳金利华管业建材公司,辽宁省,沈阳市,于洪区,辽宁省沈阳市皇姑区银山路10号-3门,(024)86907918,123.450982,41.852249
10852bcd1ee0c7ca82a12edd,辽宁省装修质量监督检验站,辽宁省,沈阳市,于洪区,崇山东路61号,,123.452945,41.838899
b95f8364d8a437bf32870aec,辽宁建筑装修质量司法鉴定所,辽宁省,沈阳市,于洪区,崇山东路61号,(024)86614794,123.453051,41.838928
be15618b0f7c5f5c5e17c39f,沈阳家居大世界装饰材料市场南停车场-出入口,,,,长江北街58-1wn号附近,,123.414168,41.856401
30d7b83094df9d727c29bd0c,辽宁新明建筑装饰有限公司-东门,,,,辽宁省沈阳市皇姑区清河街2-4号,,123.422413,41.845043
db582abfb7bf2b92a1d23016,沈阳鸿诚包装装潢印刷有限公司-南门,,,,长江北街66-2号,,123.412592,41.859695
d0e2b77f1958254cc9fa5f0b,辽宁新明建筑装饰有限公司,,,,清河街2-4号,,123.422357,41.84498
28b8bd21514e68d19f09f76b,沈阳永强装饰材料市场板材批发大厅-北2门,,,,太岳山路8号附近,,123.400334,41.857354
852922f125a9ffc33010afef,瑞创装饰风尚家居定制馆,辽宁省,沈阳市,皇姑区,辽宁省沈阳市皇姑区崇山西路1-10号-10门,"4000888024,15712473888",123.403956,41.836503
a03b33708310413eab059df4,沈阳永强装饰材料市场板材批发大厅-东2门,,,,香炉山路29-1号附近,,123.400496,41.857038
f4f6d9732d6f699b0869d95a,沈阳家居大世界装饰材料市场北停车场-出入口,,,,香炉山17号,,123.413945,41.857991
c56713dd6c15bd40ae080f07,晋级装饰(皇姑店),辽宁省,沈阳市,皇姑区,淮河街18-1号,,123.396534,41.836937
561b6bf1a9ad7292b8bd636f,朗天装饰工程有限公司,,,,舍利塔街道崇山西路12-4,,123.397824,41.83707
74fefb03bda406029d95de31,沈阳旗鱼装饰工程有限公司,,,,滂江街18号龙之梦大厦3504室,,123.493153,41.814114
e922d44b212b6b8e48cc4a33,玻璃镜片装饰,,,,如意五路31号附近,,123.486424,41.821718
f7d6523f30f1d058f33cba65,江南装饰,,,,辽宁省沈阳市大东区双拥路与边东街交叉口东北50米,,123.487591,41.816582
38fc95df48190f0c71210b45,友爱房产家装,,,,辽宁省沈阳市大东区边东街21号,,123.48774,41.815436
fb5844bdab88dd28132935d5,沈阳显辉装饰工程有限公司,,,,沈阳市沈河区广宜街21号明城国际A座,,123.455945,41.811411
a26a429b35734f51283a9f63,沈阳大诚景观装饰工程有限公司,辽宁省,沈阳市,沈河区,北站路77号光达大厦C座1单元18层,,123.4434,41.821249
3205582321decb81ee74f8cb,嘉洋装饰工程公司,辽宁省,沈阳市,大东区,小东路241号天阔华城3层315,,123.483699,41.811391
05c7ac4c6165a6c78a36eefc,佰圣宏翔建筑装饰工程有限公司,辽宁省,沈阳市,沈河区,北站路77号光达大厦C座1单元16层,,123.443393,41.821243
4bf9b07805e85bb02cb908e8,日创广告装饰,,,,沈阳市沈河区,,123.455818,41.812696
ec40321952759b077ab55ccf,加油加气站(装修中),辽宁省,沈阳市,东陵区,辽宁省沈阳市沈河区东陵路120号(沈阳农业大学体育馆东50米),,123.573335,41.826805
17a34752a548105ec16c1469,沈阳盛文装饰工程有限公司,辽宁省,沈阳市,大东区,联合路211号5门,,123.508269,41.841
0d56e3c2bd19dbee3813fd68,沈阳八家子装饰材料市场-西南门,,,,东西快速干道288号附近,,123.524778,41.819036
2c7d49f87c9e22bd8c1a8996,观泉路五金装饰材料市场,,,,辽宁省沈阳市大东区东二台街11号,,123.515165,41.848145
5c0c1b6669fc0700b020a82e,恒拓装饰制品,辽宁省,沈阳市,东陵区,前进乡榆林大街83号鑫泉湖垂钓乐园附近,13998332237,123.529741,41.876282
6835e3a7be5f594ee3110354,沈阳亚东装饰工程有限公司,辽宁省,沈阳市,大东区,文官街19号,(024)88261590,123.49674,41.887184
528a0feae9d27194aeb22a09,日升汽车装饰贴膜,,,,东北大马路368号国瑞汽配城34栋14门,,123.519265,41.840702
68bb1f20e6e00be19ee3219f,沙沙装饰材料商行,,,,观泉路与高官台街交叉口西北200米,,123.515165,41.848145
e658e077f670266f1288249f,博奥汽车美容装饰,辽宁省,沈阳市,东陵区,东陵路18甲-22号1门,15542245688,123.532227,41.821862
bed71e32e684eff6adee7a13,海江装饰,,,,辽宁省沈阳市大东区沈铁路222号-2门,,123.502197,41.846144
69ceb024b6d20344bca822c6,鑫明辉装饰,,,,东陵路67-4号4门,,123.543227,41.820089
2461f14aa5a9aa6e1188240b,汽车装饰新伟五金电动工具,辽宁省,沈阳市,东陵区,辽宁省沈阳市沈河区东陵西路73号,,123.525774,41.818312
486989acbc99ac3a0b1cc767,洁缘汽车美容装饰,,,,东北大马路273-1号,,123.508845,41.83453
ce8b12e10dcba8d42fb90807,观泉路五金装饰材料市场-南二门,,,,辽宁省沈阳市大东区二台子街道观泉路五金装饰建材市场,,123.514636,41.847124
0f8db9cba307cb75ce04ef33,沈阳轩传装饰工程有限公司,,,,辽宁省沈阳市大东区金家街5-28号（农业科技开发院内）,,123.566129,41.845008
bc4ac38f4d92d09e8505bf37,车之家汽车美容生活馆,,,,辽宁省沈阳市大东区东建街59号,,123.510486,41.840964
959b04280df87d57d9d8919f,民嘉装饰,辽宁省,沈阳市,大东区,联合路213号10门,,123.508725,41.841158
18b44ac4bd171581283a9f80,新世界汽车装饰,,,,辽宁省沈阳市大东区联合路203号,,123.505105,41.839924
ebb961a066f85f2ec26c1494,晟轩汽车美容装饰快修店,,,,东陵路19-4号14门,13478866455,123.533925,41.815284
251374c9d6ae383ea11de94e,东机建筑安装工程公司装饰工程分公司,辽宁省,沈阳市,大东区,文贸路4号附近,,123.498372,41.879777
