UID,NAME,PROV,CITY,DIST,ADDRESS,TEL,LONG,LAT
d24e48ebedaf28adafee7ac0,水岸花城商务酒店,河北省,保定市,涿州市,涿州市城西北街252号,"(0312)5528888,(0312)6671555",115.975647,39.522755
1b2ef597fb6a3dd826d2bb4d,汇元酒店,河北省,保定市,涿州市,河北省保定市涿州市范阳中路496号,(0312)3973228,116.028655,39.49056
17f365e61cec81d49222e062,长城酒店,河北省,保定市,涿州市,河北省保定市涿州市城西南街242号,13903327612,115.969792,39.472708
5487bba3c8201fffa4c75662,阳光大酒店,河北省,保定市,涿州市,保定市涿州市范阳东路1号,(0312)6673330,116.049942,39.491618
21267cba29da96b942d63e81,阿尔卡迪亚国际酒店,河北省,廊坊市,广阳区,河北省廊坊市祥云道83号(会展中心旁),(0316)2509898,116.7733,39.571187
6e4e0847c8803eb8cd04efb6,和平饭店（酒店部）,河北省,廊坊市,广阳区,河北省廊坊市广阳区和平路99号,,116.733626,39.543816
a5ef680f3f2fa8ceb8df8f8c,燕青・仕博酒店,河北省,廊坊市,广阳区,银河北路街道广阳道228号,(0316)2315111,116.692269,39.543613
5ce2637d94285448af31e59a,碧海宾馆,河北省,廊坊市,广阳区,河北省廊坊市广阳区广阳道156号,(0316)2335888,116.711091,39.544902
1458d1b4fe5ade6382288a36,艾力枫社高尔夫酒店,河北省,廊坊市,广阳区,金源道 清华科技园对面,,116.745095,39.574697
5e0ec055269911f36b49f3a0,廊坊阿卡酒店(盛江南会所分店),,,,河北省廊坊市广阳区广阳道盛江南会所(劳动局东),,116.727792,39.544906
eaa2490d35c26ae38a36ee27,廊坊星期六主题宾馆,河北省,廊坊市,广阳区,祥云道116号,(0316)6086789,116.772514,39.572389
d08a834ee67f1e9843024560,廊坊新绎七修酒店,,,,广阳区经济技术开发区金源道(清华科技园对面),,116.744381,39.574942
f523e847985b5bed077ce8da,博奥酒店（廊坊高铁站店）,河北省,廊坊市,安次区,"常甫路47号(距高铁站南200米,紧邻长途汽车站,靠近北京南苑机场)",(0316)2126789,116.714427,39.510104
196ffbcc12c0410aa11de91b,廊坊一择主题客栈,河北省,廊坊市,广阳区,新世纪步行街五大街北外街京客隆西后门金手指足道旁,(0316)2763121,116.711861,39.539725
2b2581b486a741ed871541e1,悦豪宾馆,河北省,廊坊市,广阳区,永兴北路明珠超市对面华夏幸福城欣园北门，幸福城朗园南门,(0316)2032666,116.687858,39.547874
e9592606603bc59e9d9d6833,廊坊泽源宾馆,河北省,廊坊市,广阳区,广阳道45-2号,18931658149,116.71766,39.54439
bf29b70255c573e708b93aa2,廊坊宾馆-贵宾楼,河北省,廊坊市,广阳区,解放道118号廊坊宾馆贵宾楼,(0316)2311668,116.721233,39.522521
089bf946136d5b5330169be4,祥雨商务宾馆(No.2),河北省,廊坊市,广阳区,廊坊廊坊市广阳区第五大街北外街30号甲,0316-2339000,116.706856,39.539755
7f2b47691e37c7ba32870a5e,欣悦快捷宾馆,河北省,廊坊市,广阳区,廊坊广阳区新华路179号(党校北200米),(0316)2275988,116.713547,39.542015
ac6a0c22aeb221b1e507389c,佳和旅馆,,,,廊坊廊坊开发区桐柏村云鹏道173号（廊坊大学城南门）,(0316)7916222,116.751143,39.591701
5ffb18161bc6465f6f4760f2,天坤宾馆,河北省,廊坊市,广阳区,廊坊廊坊广阳区新华路179号,5120048,116.713425,39.542156
c41f7d9cfb2b921126e0a0ef,博林宾馆,河北省,廊坊市,广阳区,光明东道85号李庄村西(旧货市场对面),"13313266688,(0316)2613300",116.75227,39.520103
8b7396832c33a4a76b49f3bf,廊坊新绎七修酒店-绎如堂,,,,廊坊新绎七修酒店绎如堂,,116.76347,39.576091
0ce65c2de131f3402c47338c,廊坊北京外企联谊中心,河北省,廊坊市,广阳区,廊坊河北廊坊市经济开发区华祥路28号,,116.771279,39.591366
6d00cfb6a9c7f9a49e95de52,家馨宾馆,河北省,廊坊市,广阳区,银河北路碾子营（通天龙足道北行300米路西）,"1,331,561,460,915,090,000,000",116.703245,39.546806
6b2c3d60ea568cb61e1d11b9,廊坊宾馆-接待中心,,,,解放道118号,,116.720671,39.522137
c5bcbaa508a16a7ff5c59cbe,天津今日阳光商务会馆,天津市,天津市,宝坻区,天津市宝坻区京津新城和园商业街001E3（此地址为接待处地址）,(022)29696666,117.378444,39.546784
4edf9fbff12f1094cc06a4c4,天龙狩猎山庄,北京市,北京市,房山区,蒲洼乡黄土岭,(010)61371400,115.563738,39.771556
eef2d528092cbada3be4a6cb,汇通农家院,北京市,北京市,房山区,北京市房山区十渡镇七渡村十渡景区七渡孤山寨景区,"1,371,673,698,313,520,000,000",115.624941,39.651809
bf29b702d72af1e409b93ac9,鑫淼森农家乐,北京市,北京市,房山区,十渡镇七渡村和喜农家院对面,"13264266836,(010)61344060,13717821244",115.62375,39.651871
264f7375c5e1c765c8213d1e,奇峡假日酒店,北京市,北京市,房山区,北京市房山区十渡风景区涞宝路七渡公交站,(010)61340003,115.625812,39.650858
4981e89a27cae719c51b75b0,北京白草畔鑫悦农家院27号,北京市,北京市,房山区,北京北京房山区霞云岭乡司马台村1区27号,(010)60369629,115.641051,39.789006
783a71fedce027ca25d2bb57,北京霞云岭向阳坡山庄,北京市,北京市,房山区,北京北京霞云岭乡石板台村后港24号,13701009426,115.701142,39.734975
5a9fa9e060c20234a11de9fa,诚通颐年山庄,北京市,北京市,房山区,北京市房山区河北镇黄土坡村(石花洞风景区内),"(010)60313120,(010)57895414",115.974646,39.816307
a9eb1e8d3daf11fe9cf7799f,北京北市商务宾馆.,北京市,北京市,房山区,城关街道农林路企业街2号(京洲路距离房山职业学校200米),(010)80330889,115.990619,39.689504
dfc79cf544f0b5b0bfa240c9,星淇100主题酒店(福胜家园店),,,,北京市房山区城关街道东大街北侧福胜家园1号楼19号,010-89331003,115.994805,39.708383
1bf85b25dc5545bda0a934e5,北京燕山时代宾馆,,,,北京市房山区燕东路2号,(010)69338888,115.976004,39.729961
933c99994af693c5f32d8389,美房美居宾馆,北京市,北京市,房山区,房山西大街7号,(010)89323826,115.989043,39.70859
231a5a841fa6e2042f47331f,北京石花洞景区向日葵农家院,北京市,北京市,房山区,北京市房山区河北镇黄土坡村一区2号近石花洞风景区,"1,371,667,074,613,140,000,000",115.979852,39.811211
43b7e88960f3b27358f6be01,北京房山宾馆,北京市,北京市,房山区,北京市房山区城关南大街15号,89325555,115.990654,39.706323
8c1a0ace6f39092f223bf289,北京星淇主题宾馆,北京市,北京市,房山区,城关北大街38号万宁桥往南100米（万宁桥车站附近）,010-89336268,115.989777,39.714845
925c550f80570fab5a3ac80e,昊天假日酒店,北京市,北京市,房山区,北京市房山区良乡拱辰大街1号(拱辰北大街与月华大街交汇处),"(010)89350800,13520235510",116.147621,39.749805
49d959388c3d575ac61e5131,北京凯悦莱温泉会议中心,北京市,北京市,房山区,北京市房山区长阳镇阳城环路16号,"(010)80356887,(010)80355758,(010)80355358,010-80352500",116.18104,39.754386
bba87388f44850b9bca82207,德宝温泉会议中心,北京市,北京市,房山区,房山区良乡镇多宝路一号(近电业中学),"(010)69375500,(010)69375418",116.156105,39.743448
99ac2f1245ba7d3ac2f1cf5c,金桥国际酒店公寓,北京市,北京市,房山区,北京市房山区昊天北大街48号,"(010)80328866,(010)80328888",116.177434,39.776363
2848ffd695e58b0f48cc4afe,北京汇豪国际酒店,北京市,北京市,房山区,房山区窦店镇窦大路甲8号(窦店镇政府斜对面),(010)69399999,116.07605,39.658496
d083a7e5b616f444d23ce37a,尚品假日酒店,北京市,北京市,房山区,良乡拱辰南大街91号1号楼,(010)60350828,116.148296,39.732477
49897ac35d76172af21937cf,权金城温泉休闲酒店(长阳店),,,,北京市房山区长阳镇昊天北大街15号,(010)80391555,116.166964,39.767412
33fbfa8307f929d80af5eb9d,北京淮扬村商务酒店,北京市,北京市,丰台区,北京云岗路商业街建C座170号,"(010)83397588,(010)83397566",116.181427,39.81151
3a0fbba8609b93589fe321e5,龙城瑞豪宾馆,北京市,北京市,房山区,长虹东路甲2号龙城瑞豪宾馆,"(010)69367777,(010)69371116",116.144704,39.729796
db1f39d4286aab6ff5c59cf9,中国原子能科学研究院招待所,北京市,北京市,房山区,北京北京市房山区新镇一号楼,(010)69357360,116.068609,39.743861
8e64e68d7fe5dbcf130daa80,太平龙逸宾馆,北京市,北京市,房山区,北京良乡太平庄村1幢,"(010)89350111,(010)89350101",116.12852,39.738625
b7021bf890e55e87f4e73bdf,金和缘宾馆,北京市,北京市,丰台区,北京市丰台区杜家坎南路30号,(010)83881399,116.21584,39.84015
e3e2cd9d1d674efac7f50d02,五龙豪苑大酒店,北京市,北京市,房山区,良乡镇长虹东路昊天嘉园旁,(010)69366666,116.155066,39.73005
ef5cfe14be67a2441e5800d4,北京秀景假日酒店,北京市,北京市,房山区,北京市房山区窦店镇瓦窑头东街34号,(010)80320899,116.077111,39.670777
87198cf84fa32f860089728f,北京小白楼宾馆,北京市,北京市,丰台区,北京长辛店大街65号,18210985620,116.214365,39.832562
8bd9a8db936cd3856240a92b,利君来宾馆,北京市,北京市,房山区,北京良乡凯旋大街10号,13701074482,116.143383,39.726477
cfcd2c3d812f8cc996ec8468,海龙e时代宾馆,北京市,北京市,房山区,良乡北关西路朝晖大厦1层(良乡医院对面),(010)69381899,116.147048,39.741936
64ff3be1fb5b27a290114c3d,京西南宫宾馆,北京市,北京市,丰台区,王佐镇福宫路1号（恒源商厦旁）,"(010)83317594,(010)83317595,(010)83310009",116.161088,39.81559
f73aab27a0e638f44307c191,觅恋主题酒店,北京市,北京市,房山区,北京市房山区拱辰南大街瑞城广场8层（上楼走3号电梯）,(010)89371314,116.14825,39.736246
8dd7b8353ac2e06932870a1c,金兴鸿源酒店,北京市,北京市,房山区,"良官公路58号,瑞雪春堂路口往南3个红绿灯即到（南六环良乡官道出口斜对面）",(010)60344393,116.155057,39.707354
6610600b37ffd03f0289727a,长红酒店,北京市,北京市,房山区,良乡长虹西路55号,(010)69352146,116.13189,39.728697
db1f39d4963b5d76f5c59c03,星光梅地亚酒店,北京市,北京市,大兴区,北京市大兴区北兴路东段2号,(010)60299777,116.370371,39.778465
373cf757b8541c774354d702,斯博瑞饭店,北京市,北京市,大兴区,北京市大兴区旧宫镇南小街吉畅路2号,"(010)67926969,010-67991919",116.426918,39.792748
98a1937bd7077411eedfcadc,花神假日酒店,北京市,北京市,丰台区,北京市西城区草桥东路世界花卉大观园北门,(010)56131999,116.356673,39.843426
113881a27b5ca4795d0d0264,和颐酒店(北京就总部基地店),北京市,北京市,丰台区,北京市丰台区丰葆路106号,"(010)86404888,(010)59306777",116.297378,39.821648
79cceb367b555a901f5800a6,北京华苑酒店,北京市,北京市,丰台区,南苑路111号(近南苑机场),(010)67991188,116.408075,39.813138
7d5f3a0a6d0863522cb90807,吴裕隆酒店（北京大红门店）,北京市,北京市,丰台区,北京市丰台区大红门西路4号,(010)87298996,116.401282,39.845307
f2f15ffbf6df6091631c6732,南苑宏昌宾馆,北京市,北京市,丰台区,丰台区南苑五爱屯东街29号（红房子小区斜对面）,(010)67983338,116.385653,39.805744
27ffb4ffd6c8d3823a13fd89,北京小米酒店,北京市,北京市,大兴区,黄村东大街市场路2-1号,4006507983,116.350869,39.737188
89fd4ea321f90f5ee4e965f3,北京国汉鸿伟宾馆,北京市,北京市,丰台区,北京市丰台区槐房西路南口1号(与西红门路交汇处),(010)67957288,116.375056,39.800919
43b7e88916efc87358f6be0d,希美酒店,北京市,北京市,丰台区,百强大道10号天龙华鹤2层,(010)63798366,116.29861,39.838989
fee1baf0562fef7df33cba35,大红门宾馆,,,,北京市丰台区大红门东前街41号（近大红门医院）,(010)87281115,116.412974,39.842176
231169137d76e8e4724b87a7,北京国缘假日宾馆(康庄路),北京市,北京市,大兴区,大兴区康庄路2段9号(近华堂),"(010)60299909,(010)60249979",116.338145,39.763792
d62ba444fb2fc9d99cec2b2c,北京尚都凯瑞国际酒店,北京市,北京市,大兴区,"北京市大兴区黄村镇兴丰大街(三段)60号(兴丰南大街与富强路交叉口往南,)",(010)69259999,116.346638,39.7417
57e0e3eac94b0afa4151c080,北京承泰苑商务酒店,北京市,北京市,大兴区,北京大兴区黄村镇枣园路4-25号(地铁四号线枣园站东北口向东20米),(010)69260070,116.3402,39.759512
fc7675243cfae2e34e776e06,兴核宾馆,北京市,北京市,大兴区,北京市大兴区清源路甲1号,(010)69241313,116.348179,39.749701
1eeed546c357788fb5147f2c,京瑞宾馆,北京市,北京市,丰台区,新发地桥西侧100米路北(加油站对面),(010)83723528,116.348965,39.828962
15ed53ced0e8754d9222e000,锦福森商务酒店,,,,丰台区南苑西红门路甲3号,(010)67977735,116.37834,39.801831
ffd6d4030f41718f17b54bf2,环美宾馆,北京市,北京市,大兴区,北京黄村西大街2号,(010)69243282,116.34558,39.737238
3920446e36e2749b0f0a7055,丰苑旅店,北京市,北京市,丰台区,北京北京市丰台区南苑东路52号,"(010)67995087,(010)67975149",116.412273,39.811219
4f1df1cd30d25f8e7ec87647,北京京顺峰大酒店,北京市,北京市,大兴区,黄鹅路邮政所西100米路北(北京建筑大学北门),(010)61239661,116.295567,39.759541
06d2dffd108f41f688f15dd7,易安宾馆,北京市,北京市,丰台区,大红门路康泽园14号楼,(010)67262048,116.414462,39.848115
b262883e015c42e25cd4fee1,北京东晋福缘宾馆,北京市,北京市,丰台区,北京市丰台区西营房墙外5号,(010)67959899,116.380089,39.807871
f5e3bcaef53ec9d85e17c336,南苑宾馆,北京市,北京市,丰台区,丰台区南苑镇东二道街3号,(010)67991453,116.40247,39.811421
973c72a0cda620ed3e9a5e2e,北京大兴龙凤轩大酒店（大兴-西红门）,北京市,北京市,大兴区,北京市大兴区西红门同华路(供销学校斜对面),,116.365312,39.795271
6cec2a3f845801edaeb22a09,星光梅地亚酒店-会议厅,北京市,北京市,大兴区,北京市大兴区西红门振北兴路东段2号,(010)59427366,116.370576,39.778386
5c56edd6e72cc95aa1d230d7,众鑫商务宾馆,北京市,北京市,丰台区,北京大红门西里1-17号(大红门西里红门鞋城北50米),(010)67233225,116.407755,39.847397
1bdacabf87eff9462cb96de3,北京中驰商务宾馆,,,,北京北京市丰台区巴庄子139号(花乡桥东公交站牌右转200米)凭当日大打车凭证最多可优惠20元,(010)63731618,116.334802,39.839651
408fb3be148b43ed9e95de41,北京蓝琴酒店,北京市,北京市,丰台区,南顶路甲23号(地铁10号线石榴庄C口出往南300米红绿灯路口往西300米),(010)67269388,116.417353,39.849185
9c26c50480f7e43821026269,北京归客家园宾馆,北京市,北京市,丰台区,北京北京丰台区南苑团河路中国民俗旅游商业街西28号,(010)67065840,116.38417,39.799434
f5e3bcaee9cfddbf5f17c3a4,鑫缘商务宾馆,北京市,北京市,大兴区,旧宫镇南小街路口(北京南苑机场东侧),(010)51062822,116.42681,39.794335
9f4248e91ffa5db707026f57,梨花小镇商务酒店,北京市,北京市,大兴区,大兴区黄村镇双河南路6号（观音寺附近大鸭梨旁）,(010)69226977,116.355755,39.733872
d0b8923fcbc24ffbb5f42f3a,京新宏福宾馆,北京市,北京市,丰台区,北京市丰台区南苑西路新发地桥向西100米路北,(010)83722315,116.347862,39.829059
75036835e812ceb65e0d0207,彩虹宾馆,北京市,北京市,丰台区,北京市丰台区永外大街大红门南顶路4号,(010)87818790,116.420189,39.848458
edd64ce113c80c883ee2318e,丰大国际大酒店,北京市,北京市,大兴区,北京市大兴区经济技术开发区荣华中路20号,(010)67518888,116.515067,39.801946
c7e0a3801fa4026e86420e67,北京京晟会议酒店,,,,兴光五街19号京晟大酒店1层,(010)59398999,116.564744,39.825693
f60a15ed3d748ef5bb17e702,中冀斯巴鲁宾馆,北京市,北京市,大兴区,北京市大兴区经济技术开发区荣华南路16号(紧邻亦庄线),(010)59767766,116.524135,39.790911
93df0dc3a8d5e556882fb5e4,迪富大酒店,北京市,北京市,大兴区,北京市大兴区旧宫工业园区北东甲10号,"(010)87960270,(010)87966985",116.45606,39.805821
3f826ed3997a1c5fd0f49eb8,北京源馨德润饭店,北京市,北京市,大兴区,北京市大兴区旧宫镇迎宾路2号,(010)87963611,116.446288,39.809732
a6f02b27f69031d916948e6d,富驿时尚酒店(北京亦庄创意生活广场店),北京市,北京市,大兴区,北京市经济技术开发区文化园东路6号3楼,(010)67868383,116.511348,39.81487
beabdbf41eec42987169d3e2,星空假日酒店,北京市,北京市,大兴区,经济技术开发区西环北路18号(近文化园西路),(010)67897788,116.48717,39.807449
01225b8cfdc7b304b6f42f2d,北京美达快捷宾馆,北京市,北京市,通州区,北京市通州区马驹桥北门口,(010)60509337,116.555728,39.771069
db1f39d48aa54911f4c59cb4,通马之星宾馆,北京市,北京市,朝阳区,"朝阳区-黑庄户乡大鲁店村南街甲1号-,近通马路","(010)85387992,(010)85387792",116.598681,39.840756
dff6e7f03c2bf2cdbbbd63da,莲鑫源快捷宾馆,北京市,北京市,通州区,马驹桥镇北门口村(马驹桥老桥红绿灯网东200米),(010)60509007,116.561864,39.772559
beabdbf48c2bb4817069d337,忘归宾馆吕家营分公司,北京市,北京市,朝阳区,北京市朝阳区十八里店乡吕家营村88号(东四环南路辅路南桥东500米),010-87695896,116.481652,39.847155
fa835ce212b4c5afe812e433,温馨宾馆,北京市,北京市,大兴区,北京市大兴区旧宫镇商业街70号（旧宫中学对面）,010-87965308,116.454359,39.811212
5b25f44649a36ff31029353d,安祥宾馆,北京市,北京市,朝阳区,北京朝阳区朝阳区十八里店乡横街子村215号,"(010)87305188,(010)87303788",116.515802,39.831986
5ffb1816be81ad466f476006,狮城商务酒店,北京市,北京市,大兴区,亦庄经济开发区天宝园二里二区33号楼,(010)67872223,116.498662,39.79821
210a1260371c755fa2d23097,沙龙宾馆(天宝园分店),北京市,北京市,大兴区,亦庄北京经济技术开发区上海沙龙新天地天宝商业中心3层,"(010)67829838,(010)67820352",116.50521,39.796825
1a69acd7234285dbbda24051,莲都宾馆,北京市,北京市,朝阳区,北京市朝阳区老君堂村2,(010)68163888,116.513694,39.847351
0ac49b27d9c94ac7b64f5488,国汉溢洋宾馆,北京市,北京市,朝阳区,黑庄户乡大鲁店二村南八区9号(近通马路),(010)85303692,116.596254,39.83674
393c858f2da0aa9a940319e8,福缘宾馆,北京市,北京市,大兴区,北京市大兴区德贤路(清龙宫娱乐会所旁),(010)67990279,116.434786,39.814277
bd5046e83bbe9d58d72ce255,心悦宾馆(旧忠路),北京市,北京市,大兴区,北京北京市大兴区旧宫镇旧忠路七条1号,"(010)87913341,13611339058",116.457452,39.809785
53349ee35c7f567722026230,北京新华联会议中心,北京市,北京市,通州区,通州区台湖镇台湖大街创业园路8-9号(台湖镇政府旁),010-52100998,116.632751,39.840439
bf3420047d06120c9cec2b3e,北京中信国安第一城福安宫大酒店,河北省,廊坊市,香河县,廊坊市香河县安平技术开发区第一城内东侧,"(0316)8588888,15933066998",116.918679,39.722015
5e53af1ad3e6bf464151c06f,香安宾馆,河北省,廊坊市,香河县,河北省廊坊市香河县安平镇安平香安宾馆,(0316)8219999,116.894301,39.716679
68c6ce27b26c138233169b57,绿岛宾馆,河北省,廊坊市,香河县,廊坊市香河县新开街22,(0316)8316508,117.019129,39.763264
852f2eabc591345babf72917,安定门酒店,河北省,廊坊市,香河县,廊坊市香河县香河经济技术开发区,(0316)8588888,116.917397,39.727915
502a4eb6390199fcae045769,廊坊香河锌钰源旅馆,,,,新华大街79-4号,(0316)8582129,117.009688,39.770379
a8839c5993ebc18b2b02e1ec,新圆酒店,河北省,廊坊市,香河县,廊坊市香河县香河经济技术开发区,,116.919998,39.722246
39d43f82f0a8359fa8059d7d,宝坻宾馆,,,,近郊宝坻区城关镇广川路23号,"(022)29260101,(022)29260100",117.316063,39.725938
0eeb45d002b1ad083517dccc,瑞皇台大酒店,天津市,天津市,宝坻区,天津宝坻区津围公路钰华街191号（行政许可大厅对面）,(022)29259991,117.316374,39.715768
8d96925c2ff5da44c1f1cfea,大军宾馆,天津市,天津市,宝坻区,南城路1号（京东第一集西侧，大军宾馆唐通改线与东城路交汇口西北侧）,(022)59218558,117.318593,39.729459
5c5f08bce147149eadb22abb,诚信农家院,北京市,北京市,门头沟区,北京市门头沟灵水村100号,13522991569,115.744286,40.009513
6ce4c8fa9a78febc42d63e2e,王家小院,北京市,北京市,门头沟区,北京斋堂镇火村西54号,15611721586,115.728338,39.976262
bab07b9456866a8ef32d834e,古宅套院,北京市,北京市,门头沟区,斋堂镇爨底下村21号院(临近007县道),13269422858,115.650232,40.004373
75036835993039af5e0d0209,琨樱谷山庄,北京市,北京市,门头沟区,北京市门头沟区王平镇C141水景园附近,(010)61858898,115.987185,39.957286
631c415706caf67831f71d32,燕岭宾馆,北京市,北京市,丰台区,长辛店槐树岭4号院,"(010)83803355,(010)83809100",116.178861,39.865728
296609894f15239cd6b74ef8,北京世纪金源香山商旅酒店,北京市,北京市,海淀区,北京市海淀区北正黄旗59号,(010)59898888,116.209324,39.997247
35debf29f3b9285da6da393d,景明园宾馆,北京市,北京市,海淀区,香山正白旗52号北京景明园宾馆9号楼,(010)62871117,116.221012,40.00669
4fc3161a866b39b03a13fd03,香山会议中心,北京市,北京市,海淀区,北京市海淀区香山北辛村28号,"(010)62598788,(010)82593646",116.206879,40.002131
d0bdbec126c9263c616858f0,北京金河昌缘宾馆,北京市,北京市,石景山区,八大处路甲28号1至5层101,(010)88776067,116.205877,39.951911
f1c39fafc16fcde18505bf8b,北京温泉金辉酒店,,,,海淀区温泉镇温泉村双坡路（近海淀区樱桃协会）,(010)82493496,116.165983,40.044285
3a0fbba8e9cb1a419ee3215d,北京香山蒙养园宾馆,北京市,北京市,海淀区,买卖街40号(香山公园内),(010)82596762,116.200662,39.999105
04afd58536fbcd2a97f08c62,便宜居连锁酒店(石景山古城店),北京市,北京市,石景山区,北京古城北路6号(原菜蔬公司综合楼),(010)68864568,116.197596,39.923612
ed57da132a7dadf0f4231098,弯月亮宾馆,北京市,北京市,石景山区,古城南街53号3层,(010)68860656,116.194799,39.907612
96c38949756496c40bccddf1,北京苹果园家庭旅馆,北京市,北京市,石景山区,北京市石景山区苹果园一区28号楼,"13121139139,18510725780,4006061230-67064",116.193185,39.935258
db34f13f7916eaba58f6bea5,北京源恒益生态酒店,,,,北京丰台区长辛店太子峪环岛西300米(长兴路9号),(010)83805221,116.174728,39.852738
5741821585091dc59a005073,北京安然驿站公寓（黄南苑店）,北京市,北京市,石景山区,石景山黄南苑小区三栋八单元402室,15810562448,116.206463,39.935592
f495d8fd1b944322abf72997,北京香山公寓,,,,香山路正蓝旗站牌路口往里西小府21号,"(010)68326930,13021002828",116.210038,40.000105
3da907f37d04fe4ab320a80b,京恒宾馆,北京市,北京市,石景山区,古城大街电话局西侧(石景山区老古城小学旁),(010)68829992,116.191731,39.915489
7c3bcdbeac8a1bdc9fe32132,京西晨光饭店餐厅(双峪店),北京市,北京市,门头沟区,双峪路1号,"(010)69858383-5101,(010)69843134",116.113762,39.940746
350487e00550bb20f503b8f7,润鸿运酒店,北京市,北京市,海淀区,北京市海淀区田村路廖公庄西388号,(010)88707288,116.222445,39.939541
61f634f662d91a786b49f37b,北京燕飞培训中心,北京市,北京市,海淀区,北京市海淀区温泉镇环山村航材大道燕飞园小区南,010-62497013,116.218634,40.03872
d6c5d99143a58df130169b05,弯月亮宾馆(七星东街),北京市,北京市,石景山区,石景山区鲁谷南路20号(近上鱼舫鲁谷店),"(010)68644118,13552627718",116.223158,39.905037
d0b8923f42a6d69fb5f42f35,凯笛宾馆,北京市,北京市,石景山区,北京古城南路43号,(010)68862633,116.198813,39.914257
c61bd3056c291e16c37da2a5,北京京西水岸山庄酒店,北京市,北京市,门头沟区,妙峰山镇陇驾庄村小东港10号,(010)61880986,116.065819,39.98373
41746fdc21a4a836f7b916bc,安然驿站公寓（西井店）,北京市,北京市,石景山区,北京石景山西井四区十四楼五单元402室,13691345872,116.199975,39.937426
3fab1495297edf790c0a70a7,北京交致家家庭公寓(南黄苑店),北京市,北京市,石景山区,北京市石景山区黄南苑小区三栋八单元,15810562448,116.206257,39.935636
1816533449feda1dfa2d619e,北京世纪金源大饭店,,,,北京市北京海淀板井路69号,(010)88598888,116.286842,39.959496
7524cb4f26da812d04026f1f,新世纪日航饭店,北京市,北京市,海淀区,北京市海淀区首都体育馆南路6号,(010)68492001,116.334406,39.943187
eb3675036510d10201ec0197,西苑饭店,北京市,北京市,海淀区,北京市海淀区三里河路1号,(010)68313388,116.338905,39.943182
bfa28a2704c0d67ec72ba141,北京西国贸大酒店,北京市,北京市,丰台区,北京市丰台区丰台路丰管路16号院8号楼,"(010)83832222,(010)83832345",116.315384,39.86169
6deee308fdfbcc7329fc4804,北京香格里拉饭店,北京市,北京市,海淀区,北京市海淀区紫竹院路29号,(010)68412211,116.314732,39.950224
5508504d51a7dcd2c7f02504,万寿宾馆,北京市,北京市,海淀区,北京市海淀区万寿路甲12号(万寿路与复兴路交叉口向北300米),(010)68132266,116.300236,39.918579
7bcd8b1ad28f3c21626858f6,北京友谊宾馆,,,,海淀区中关村南大街1号(四通桥西南角),(010)68498888,116.325891,39.971717
8cba4bb0976d6a9dad045707,万方苑国际酒店,北京市,北京市,丰台区,"北京丰台区南三环西路4号院1号楼(南三环洋桥西侧,三环主路南侧25号出口)",(010)67526666,116.383799,39.862536
99c49f0bf6bc84a82b3a9f6e,北京金隅喜来登酒店,,,,北京市东城区北三环东路36号,,116.415246,39.973732
3da907f3ec150953b320a801,北京金融街威斯汀大酒店,北京市,北京市,西城区,北京市西城区金融大街乙9号,(010)66068866,116.36547,39.923528
925c550f83cd0eab5b3ac884,北京中国职工之家酒店,北京市,北京市,西城区,真武庙路1号,(010)68576699,116.351986,39.911778
669775d035a11b42fd0eb03d,东方君悦大酒店,北京市,北京市,东城区,北京市东城区东长安街1号,(010)85181234,116.420892,39.916128
b9e5d0b8a5ffcea581a12e38,北京饭店,北京市,北京市,东城区,东长安街33号(近王府井大街),(010)65137766,116.41577,39.91496
637df60a40e81e6b41afe6f7,北京金融街国际酒店,北京市,北京市,西城区,北京市西城区金融街11号,"010-58525888,010-58525775,010-58525130",116.364196,39.924966
96b672aa53a1476cce04ef0a,北京丽晶酒店,北京市,北京市,东城区,东城区金宝街99号,(010)85221888,116.425247,39.922482
b3aa435db055701215764338,华侨大厦,北京市,北京市,东城区,王府井大街2号,"(010)65136666,(010)58169999",116.417971,39.929848
5cf8b35c1ea39842705e801e,民族饭店,,,,北京市西城区复兴门内大街51号,(010)66014466,116.373527,39.913883
c879fa0194805253c909f001,北京北辰洲际酒店,北京市,北京市,朝阳区,北京市朝阳区北辰西路8号院4号楼,(010)84371188,116.394579,40.004863
46e86fddbd4b1976d13ce306,西藏大厦,北京市,北京市,朝阳区,北京朝阳区北四环东路118号（北四环安慧桥东）,(010)64981133,116.420325,39.994154
dc0f0adcf956fe38f8221304,北京西郊宾馆,北京市,北京市,海淀区,海淀区王庄路18号,(010)62322288,116.350062,40.002736
d52831f9bed0f5be2efaa72d,北京市中国科技会堂宾馆,北京市,北京市,海淀区,北京市海淀区复兴路3号(木樨地桥西北角),"(010)68788854,(010)68518822",116.339571,39.914085
f633606ad54f64570b69d919,北京亚奥国际酒店,北京市,北京市,朝阳区,北京市朝阳区北沙滩大屯路甲一号,(010)64874433,116.378147,40.007039
09185c56d36d7f44f119373d,北京铁道大厦,北京市,北京市,海淀区,北京市海淀区北蜂窝路102号,(010)51879199,116.331304,39.906275
550fd5f969e89560931fc9d6,北京贵州大厦,北京市,北京市,朝阳区,朝阳区和平西桥樱花西街18号(和平西桥东北角),(010)58109988,116.424935,39.976129
bd5046e80460e458d72ce23f,首都大酒店,北京市,北京市,东城区,北京市东城区前门东大街3号,(010)58159988,116.415843,39.908313
d9ee3138fcc60f171c389463,北京五洲大酒店,北京市,北京市,朝阳区,北辰东路8号,(010)84985588,116.411973,39.996234
f4a33da9a6f580103110aff6,中关村皇冠假日酒店,北京市,北京市,海淀区,海淀区知春路106号(海淀黄庄地铁站向东350米),(010)59938888,116.329681,39.98129
c8e8f63305db8375ab0dd80b,深圳大厦,,,,北京市宣武区广安门外大街1号,(010)63271188,116.353658,39.896121
24d05508628653b61288242d,北京圆山大酒店,北京市,北京市,西城区,北京市西城区裕民路2号,(010)62010033,116.396782,39.979
4ea3f2f1b04a2bb3aecb660a,世纪华天大酒店,北京市,北京市,海淀区,北京市海淀区西四环蓝靛厂西路11号,(010)88856888,116.284706,39.969754
7bfa08fc511b3e6625d2bb34,北京国宾酒店,北京市,北京市,西城区,阜成门外大街甲9号,(010)58585588,116.356341,39.930068
b292b3aaf630334fbe48424e,中土大厦,北京市,北京市,海淀区,北京市海淀区北蜂窝6号,"(010)51818888-80,010-51818888",116.340367,39.903697
181653347251a11dfb2d6105,国谊宾馆,北京市,北京市,西城区,北京市西城区文兴东街一号,(010)68316611,116.344667,39.940353
04bdf4a38a1d3456354aae04,湖北大厦,北京市,北京市,海淀区,北京市海淀区中关村南大街36号,(010)62172288,116.331917,39.953497
3c0ea7c53c512385fbf0cb0b,北京前门建国饭店（京剧文化主题饭店）,北京市,北京市,西城区,西城区永安路175号,,116.392154,39.893009
17c35f53398694db2cb96d3e,北大博雅国际酒店,北京市,北京市,海淀区,北京市海淀区中关村北大街127号,(010)82689999,116.321289,40.004506
8ab0dfc4ee04410fd8eced0a,励骏酒店,北京市,北京市,东城区,金宝街90-92号励骏酒店1楼2楼(灯市东口),(010)85113388,116.42545,39.921087
4aa7fc35cf968398d518b7a8,北京新世界酒店,北京市,北京市,东城区,东城区祈年大街8号,(010)59608888,116.418899,39.904553
14076dee35bb1bed02294f04,金龙潭大饭店,,,,北京市海淀区西三环北路71号,(010)88811188,116.315999,39.944776
3dc9befd7f26800fbea24007,大方饭店,北京市,北京市,丰台区,北京市宣武区西客站南广场9号,,116.330768,39.898636
654c78182e2dfee7e856fa29,北京粤财JW万豪酒店,,,,宣武门外大街18号北京粤财JW万豪4楼,(010)63916666,116.38209,39.901716
606289fd91b8b754a304649c,北京丽亭华苑酒店,北京市,北京市,海淀区,北京市海淀区知春路25号,(010)82356699,116.351675,39.982946
2848ffd607b87d1648cc4a3c,江苏大厦,北京市,北京市,东城区,东城区安定门外大街丁88号(近地坛体育馆),(010)64271188,116.416535,39.963706
a1418eb403447d66ebe582d7,新侨诺富特饭店,北京市,北京市,东城区,北京市东城区崇文门西大街1号,,116.423205,39.907961
befdb2927f1f70f887154106,北京好苑建国酒店,北京市,北京市,东城区,北京市东城区建国门内大街17号,(010)65286666,116.429817,39.915665
083a55fa8945e560256e98ae,王府半岛酒店,北京市,北京市,东城区,王府井金鱼胡同8号,(010)85162888,116.422861,39.92108
25ec69fcf76ea264c26c140b,北京中奥马哥孛罗大酒店,北京市,北京市,朝阳区,北京市朝阳区安立路78号,(010)59636688,116.414824,40.01136
f696f3c257f9c4f21b11d537,北京国际艺苑皇冠假日酒店,北京市,北京市,东城区,"北京市东城区王府井大街48号(王府井大街与灯市口大街交汇处,近天主教堂)",(010)59119999,116.417968,39.925369
cc94792aa7e097f3c27da2b8,北京北辰五洲皇冠国际酒店,,,,北京市朝阳区,010-84982288,116.410041,39.995855
88e7bea6d5f7e2b10782c229,花园饭店,北京市,北京市,海淀区,北京市海淀区花园东路30号(地铁十号线牡丹园站B口向东50米),(010)62011188,116.377849,39.983302
8fde79cce58246a695ca0704,北京长峰假日酒店,北京市,北京市,海淀区,北京市海淀区永定路66号,"(010)68132299,(010)68387721,(010)68388391",116.271731,39.915487
fa01e9371d450753774ff105,德宝饭店,,,,西城区德宝新园22楼（西直门地铁站A出口往西）,(010)68318866,116.354894,39.945742
5c2dc21d8052e31d6fc02c01,福建大厦,北京市,北京市,朝阳区,安贞西里三区11号,(010)64428833,116.404941,39.975464
beabdbf48c5cb4817069d30a,北京诺富特和平宾馆,北京市,北京市,东城区,金鱼胡同3-3号附近,(010)65128833,116.421864,39.922055
1eeed5464a4ae1ebb5147f0a,元辰鑫国际酒店(四星级),北京市,北京市,朝阳区,北京市朝阳区裕民路12号中国国际科技会展中心C座1层,(010)82024488,116.388439,39.979414
af1ae56bb9598f0b4207c102,北京中成天坛假日酒店,北京市,北京市,丰台区,北京南三环定安东里1号(赵公口桥向北300米),(010)67626688,116.420922,39.867735
be1ea5efffbf84a614948e08,北京名人国际大酒店,北京市,北京市,朝阳区,北京市朝阳区安立路99号,,116.413365,40.002335
2e00c5ddeb257b05d6851f8f,胜利饭店,北京市,北京市,朝阳区,北京市德胜门外北沙滩3号,(010)64871155,116.37587,40.011472
09185c56d3657f44f1193705,国宏宾馆,北京市,北京市,西城区,北京市西城区木樨地北里甲11号（近军事博物馆、木樨地立交桥）,(010)63908866,116.34279,39.911591
b3aa435db05e701215764307,全季酒店(北京西站南广场店),北京市,北京市,西城区,西城区广莲路甲5号,(010)63996606,116.332714,39.899677
48eb005863b361b42fe67b3d,天佑大厦,北京市,北京市,海淀区,北京市海淀区北蜂窝路甲15号,(010)51829000,116.335203,39.907012
881a28e7bb4af45ef942b23d,东方饭店,北京市,北京市,西城区,西城区万明路11号（万明路与香厂路交汇处）,(010)63014466,116.395942,39.894455
87248d96548c91b32806ced0,北京宁夏大厦酒店,,,,东城区安定门内大街分司厅胡同13号（东城区教师研修中心北侧）,(010)64009999,116.41316,39.950661
e93761f64f45b915223bf205,北京展览馆宾馆,北京市,北京市,西城区,西城区西直门外大街135号（近北京动物园）,(010)68316633,116.35289,39.947323
e3a7fd13a99c2c4b28b97c4e,辽宁饭店,北京市,北京市,西城区,德胜门外大街1号,(010)62015588,116.386107,39.97177
d7fd2ad3447dfb4d0bccdd3e,陶然大厦,,,,北京市东城区南二环马家堡路1号(近陶然亭公园东门东南角),"(010)87286688,(010)67218088",116.394906,39.876009
9ee7cc789f694a6916c90501,塔里木石油酒店,北京市,北京市,朝阳区,北京朝阳区北沙滩5号（临近地铁15号、8号线，京藏高速G6),(010)64870033,116.37615,40.012236
504d6113f2ce7faa46572603,北京锡华商务酒店,北京市,北京市,海淀区,北京市海淀区颐和园路12号(海淀体育中心院内),(010)62646688,116.308987,39.995582
eb36750381e2b51800ec01ca,凤凰苏源大厦,,,,北京市西城区广外大街3号（广安门桥西北角）,010-63267788,116.352601,39.895862
06d2dffd106c41f689f15db6,中裕世纪大酒店,北京市,北京市,海淀区,北京市海淀区莲花池东路31号(西客站北广场北侧-出站可见),(010)63989999,116.32935,39.903623
34059f977ea1104d71455b57,金台饭店,北京市,北京市,西城区,北京市西城区地安门西大街38号,(010)66529988,116.385525,39.93848
4ce10ce66096f0b8441a323d,北京贵宾楼饭店,北京市,北京市,东城区,北京市东城区东长安街35号,(010)65137788,116.413545,39.915369
6ed3083af35c1fae2b3a9f16,安贞大厦,北京市,北京市,东城区,北京市东城区安定门外大街2号(近安贞桥东南角),(010)64482200,116.415477,39.974444
3a0fbba85f3bec589ee32105,北京府右街宾馆,北京市,北京市,西城区,北京市西城区太仆寺街21号(近西单商场后面),(010)66052277,116.38699,39.918703
0058610853aae1bc46e2743d,皇苑大酒店,北京市,北京市,海淀区,海淀区西三环北路厂洼街19号(皇苑大酒店3楼),(010)68413388,116.310658,39.963619
6ee0102056b56df652e5c502,丽亭酒店,北京市,北京市,东城区,北京市东城区金宝街97号,(010)85221999,116.425895,39.922995
f2f15ffbf6a76091631c670a,燕山大酒店,北京市,北京市,海淀区,北京市海淀区中关村大街甲38号(当代商城旁边),(010)62563388,116.328976,39.975894
c879fa0194865253c909f00b,银龙苑宾馆,北京市,北京市,西城区,北京市西城区展览馆路甲5号,(010)68351166,116.349812,39.935164
be1ea5efffbb84a614948e04,嘉苑饭店,北京市,北京市,海淀区,大柳树路6号,(010)62272288,116.342798,39.959215
0fd766971774c5317c29bd8d,艾丽华酒店,,,,北京市海淀区海淀南路36号,(010)82669999,116.308987,39.980218
69ffcb4bdd20ea3040e19265,北京清华紫光国际交流中心,北京市,北京市,海淀区,北京市海淀区中关村东路1号院10号楼(近清华大学东门),(010)62791888,116.338398,40.001009
fa835ce212c9c5afe812e404,广东大厦,北京市,北京市,海淀区,北京市海淀区岭南路36号（近首都师范大学）,(010)68412288,116.308613,39.933892
4749fd2a181845c21894c6ee,北京广州大厦,北京市,北京市,西城区,"北京市西城区西单横二条甲三号(西单地铁站B口,西单图书大厦北边)",(010)58559988,116.382502,39.917296
a74481d660b3485ff503b802,金泰绿洲大酒店,北京市,北京市,东城区,北京市东城区永外彭庄甲58号（陶然桥西南角）,(010)83106666,116.39314,39.876573
64ff3be1fbe827a291114cf2,国玉大酒店,,,,北京市朝阳区亚运村慧忠里19号,(010)64969988,116.408818,40.001664
6835e3a7f7a89057e311033d,北京师范大学(海淀校区)-京师大厦,,,,北京市海淀区北京市新街口外大街19号,010-58801111,116.376509,39.964713
34f68ab0a676a5138f55ec0a,北方佳苑饭店(王府井大街店),北京市,北京市,东城区,北京市东城区王府井大街218-1号,"(010)65238888,(010)65249888",116.419272,39.916524
881a28e7a0cb895ef842b282,上园饭店,北京市,北京市,海淀区,北京市海淀区西直门外高粱桥斜街40号（嘉茂商场北侧，步行5分钟）,"(010)51555599,(010)62222950",116.350443,39.95337
251374c946dec826a01de997,北京百纳烟台山商务酒店,北京市,北京市,西城区,北京市西城区赵登禹路281号(近白塔寺),(010)66116677,116.373658,39.935748
35debf29f3b3285da6da390b,翔达国际商务酒店,北京市,北京市,西城区,广内大街169号东华金座西塔楼东南侧60米,(010)83172288,116.374877,39.89567
d305db1f93610c27932ca307,康铭大厦,北京市,北京市,东城区,美术馆后街18号（北京中医医院对面，近南锣鼓巷）,(010)64023388,116.416127,39.937919
e889a744462697ac8605bfc8,气象宾馆,,,,北京市西城区马连道南街12号,"(010)63266688,(010)68406699",116.330577,39.890427
d52831f9beaff5be2efaa704,牡丹宾馆,北京市,北京市,海淀区,花园东路31号（近地铁10号线牡丹园站）,"(010)62025544,15611983317",116.375636,39.983537
db1f39d496305d76f5c59c0a,北京商都酒店(北京南站高铁站店),北京市,北京市,丰台区,北京市丰台区右安门东滨河路8号（近迦南大厦）,(010)63576666,116.37455,39.87527
f696f3c27eabbdf21b11d561,北京宁波宾馆,北京市,北京市,西城区,北京市西城区新壁街8号,(010)66080608,116.386778,39.907726
631c415706b4f67831f71d04,中协宾馆,北京市,北京市,海淀区,北京市海淀区法华寺街22号（民族大学西门）,(010)68413355,116.321131,39.956938
8ee7d1c286db0cff2fb96dda,IU酒店北京西客站六里桥东地铁站店,北京市,北京市,丰台区,北京市丰台区六里桥南银都酒店三层,(010)63482211,116.318588,39.8886
3dc9befd7f20800fbea24005,北京易尚诺林大酒店,北京市,北京市,西城区,北京市西城区枣林前街145号,(010)63551188,116.358341,39.889479
61085211d2aa88b8c51b7505,金帝雅宾馆,北京市,北京市,西城区,北京市西城区三里河北街甲5号,(010)58550868,116.344678,39.920914
b0d056f2b84db467cac3dbdd,潇湘大厦,北京市,北京市,西城区,北京市西城区北纬路42号,(010)83161188,116.399148,39.889542
750ec165d0b0ac324c3a5906,汉华国际饭店,北京市,北京市,东城区,东城区安外西滨河路26号(近神华大厦),(010)58139988,116.404311,39.956648
db1f39d496455d76f5c59c31,护国寺宾馆,北京市,北京市,西城区,北京市西城区护国寺大街125号(近护国寺小吃店),(010)59331588,116.380205,39.941234
251374c946dac826a01de99b,德胜饭店,北京市,北京市,西城区,北京市西城区北三环中路14号（北三环主路上，国核大厦对面，福利特家具城西边）,(010)62368866,116.391123,39.974157
50fb64ffe0c41044e8f85396,张家口饭店(酒店),北京市,北京市,东城区,北京市东城区安德路甲10号1号楼,"(010)57019193,(010)64511515",116.407118,39.957365
335318096e2f315e5cbe8608,北京时光漫步怀旧主题酒店(北京雍和宫店),北京市,北京市,东城区,"北京市东城区安定门内大街方家胡同46号创意文化园(雍和宫地铁站南800米,近雍和宫西门)",(010)64032288,116.418372,39.949808
5b25f44649aa6ff31029350a,东风宾馆,北京市,北京市,丰台区,北京市丰台区西局南街甲1号,"(010)63834466,(010)63896860",116.315221,39.876486
669775d0a323ed5bfc0eb0a8,金码大酒店,北京市,北京市,海淀区,北京市海淀区学清路甲38号金码大厦A座,"(010)62328899,(010)82839518",116.360183,40.007339
bba87388cce428b9bda822e3,万寿商务酒店,,,,北京市西城区（原宣武区）白纸坊东街甲29号,(010)63556688,116.374076,39.884827
34059f97537f654d71455b3d,隆格酒店,北京市,北京市,海淀区,北京市海淀区牡丹北里11号楼,(010)62081177,116.383334,39.98632
764672e5ed7311b494ec8414,永定门饭店,,,,北京市东城区安乐林路77号（近永定门外大街）,,116.410872,39.871846
5211d21944ae0b417dc87604,赢家商务酒店北医店,,,,北京市海淀区中国北京海淀区学院路38号(靠近北医三院),(010)82320101,116.362364,39.988335
2a7a25ec4a5be47a6c3e1b11,玉都饭店,北京市,北京市,海淀区,海淀区北洼路85号(北洼路与阜成路交叉口),(010)68428882,116.307214,39.93123
c81bef2a6e009b6c76e5b66e,北京理工大学国际交流中心,北京市,北京市,海淀区,北京市海淀区北三环西路66号(近北京理工大学),(010)68945611,116.317241,39.968477
72e57fd7b3a25ab6f8dc8505,竹园宾馆,北京市,北京市,西城区,北京西城区旧鼓楼大街小石桥胡同24号,(010)58520088,116.397452,39.952187
ef773a0fafbb3f2d230220e5,天龙饭店,北京市,北京市,东城区,北京市东城区黄寺大街甲6号(紧邻柳萌公园),(010)84138866,116.404502,39.968182
341c35de8b6df3a7e70738b4,北京哈特商务酒店,北京市,北京市,丰台区,北京市丰台区广安门外南滨河路菜户营东街60号,(010)63356000,116.354502,39.877084
d1469ee7ddbabc7b8433043a,万年青宾馆,北京市,北京市,海淀区,海淀区西三环北路25号中国青年政治学院内(近西三环万寿寺),"(010)68421144,(010)68425154",116.31472,39.955296
925c550f83d20eab5b3ac88d,北京泽湘苑大酒店,北京市,北京市,西城区,北京西城区月坛南街31号,(010)63306999,116.354985,39.920128
5dad5dd36551255136b06c51,维斯特酒店,北京市,北京市,西城区,大栅栏西街41号国平装饰材料行东南侧100米,(010)63030952,116.399193,39.901477
d6ee8724d529a1f9a8f0cd39,大唐科苑宾馆,北京市,北京市,海淀区,北京市海淀区学院路40号（大唐电信集团院西门东向约100米，北门南向约100米）,(010)62301018,116.363434,39.984871
bf29b702583a688009b93a3a,金三环宾馆,北京市,北京市,丰台区,北京市丰台区南木樨园18号,"(010)69003111,(010)69003777",116.412688,39.862565
4eb3b5333afe0e6c43024507,京铁大酒店,北京市,北京市,丰台区,北京市丰台区莲花池东路118号北京西站F1,(010)63955511,116.32892,39.89949
8d96925c03b4e65cc1f1cf3d,国润商务酒店(小井西路),,,,北京市丰台区丰台路188号,(010)63816666,116.290569,39.877789
1bf85b25b5f53abda1a93405,黑龙江宾馆,北京市,北京市,西城区,北京市西城区复兴门北大街5-2号,(010)68025511,116.362704,39.919089
05dd7d5f2cb14b18ad080f3d,樱花宾馆,北京市,北京市,朝阳区,北京市朝阳区和平里惠新东街17号,(010)64934455,116.430536,39.985196
91c13f93296439e321f0170a,京华饭店,北京市,北京市,丰台区,西罗园南里68号,(010)87812400,116.396761,39.86304
cde9e2c7aa54b6ade81e9708,金海湾酒店,北京市,北京市,朝阳区,北京市朝阳区亚运村大屯路甲58号,(010)64899888,116.422635,40.009883
d991e1161feffe4c1f38943d,前门观旗宾馆,,,,北京市东城区前门东大街18号(邻近天安门广场),"(010)67027988,(010)67058230",116.408688,39.906467
e3e2cd9d1d684efac7f50d07,龙源宾馆,北京市,北京市,丰台区,北京市丰台区菜户营东街甲34号,"(010)51760529,(010)63365435",116.354656,39.878108
4ce10ce66797f1b8441a3202,物科宾馆,北京市,北京市,海淀区,海淀区中关村南三街8号(近保福寺),(010)82649140,116.336492,39.988978
dc0f0adc64e60b21f922139c,贯通现代酒店前门店,,,,北京市东城区珠市口西半壁街1号(珠市口十字路口东南角),(010)67072299,116.405347,39.896988
d7fd2ad34405fb4d0bccdd36,恋都商旅酒店百万庄店,北京市,北京市,西城区,西城区百万庄北街甲6号（百万庄大街与展览馆路交叉口）,(010)68351808,116.348032,39.935094
4eb3b5333af90e6c43024504,北方朗悦酒店(紫竹桥店),北京市,北京市,海淀区,车道沟10号院（近北京展览馆，北京外国语大学，中央民族大学，北京理工大学，动物园，紫竹院公园),"(010)68962077,(010)68962402",116.308213,39.955238
bd5046e80467e458d72ce202,博泰酒店,北京市,北京市,东城区,北京市东城区交道口南大街140号(北京中医医院斜对面地铁张自忠路A出口向西500米),64058097,116.415641,39.940719
aa40108b6db2510cc4effba0,盛元香江酒店,北京市,北京市,东城区,北京市安定门外大街青年湖北里5号（近中国黄金旗舰店）,(010)84114818,116.411584,39.964375
31f9101b6baae0a026e0a00b,珠穆朗玛宾馆,北京市,北京市,西城区,鼓楼西大街149号,(010)64018822,116.392548,39.951877
38e48037f445c250373a7107,邦泰宾馆,北京市,北京市,丰台区,北京市丰台区西局西街300号,(010)63822223,116.300053,39.875349
c5ddcc086c1319dfd8131805,青海大厦,北京市,北京市,西城区,北京市西城区背阴胡同6号,(010)66010101,116.383303,39.919017
22e11407b57dd1add5b74e64,西华京兆饭店,,,,北京市西城区煤市街81号（近大栅栏商业街）,010-52171900,116.400722,39.901103
f9fd60627b447d060f0e6b02,云冈酒店,北京市,北京市,朝阳区,华严北里68号(近鸟巢和水立方),(010)82846968,116.389689,39.992284
4d5d1ebb58395f5b71210bf7,汉庭酒店(北京清河小营西路店),北京市,北京市,海淀区,北京市海淀区小营西路阳光北里6幢（清河小营桥西毛纺城十字路口东北角）,(010)62925155,116.342772,40.042973
e78ec96a16526cc8f82d6147,北京通联大酒店,,,,北京市海淀区羊坊店东路19-2号,,116.330337,39.905567
925c550f80420fab5a3ac83d,中邮苑宾馆,,,,北京市西城区右安门内大街17号(北京市回民医院南侧),"(010)63522211,(010)63521978",116.36975,39.886682
c21db9e5f0b2d99a01ff2df2,蒙元宾馆,北京市,北京市,西城区,西城区月坛南街二七剧场路甲1号(近长安街),(010)68046699,116.352554,39.918656
64ff3be1f87226a290114c64,北京西华智德宾馆,北京市,北京市,东城区,北河沿大街智德北巷5号,(010)65259966,116.410775,39.924865
a1418eb4fb0a0566ebe5820d,建银饭店,北京市,北京市,丰台区,北京丰台区西站南路2号,(010)63266633,116.328493,39.894523
04bdf4a38a173456354aae3e,京蒙大厦,北京市,北京市,丰台区,北京市丰台区骆驼湾188号,(010)63487755,116.332344,39.875261
69a836ba1bf8ff849e82ead9,北京鸿炜亿家大酒店(北苑店),北京市,北京市,朝阳区,北京市朝阳区北苑路28号院1号楼（地铁立水桥南地铁站D口）,4000789517,116.423165,40.046882
3cac56b765ce0ea95fd4fe61,巴比伦时尚酒店,,,,海淀中街南口通惠寺3号,400-880-1775,116.31833,39.982341
d4034eb30b32acefc13644fa,唐府酒店南锣鼓巷店,北京市,北京市,东城区,安定门内大街291号(交道口东大街与安定门内大街交汇地带),(010)84010296,116.414316,39.947858
72aa251302e0015e067ce893,北京福州宾馆,北京市,北京市,西城区,西直门内前半壁街甲30号,(010)66181117,116.36886,39.944048
373cf757b9581d774354d706,白鹿春酒店(莲花池店),北京市,北京市,丰台区,丰台区莲花池西路6号院1号楼,(010)51955761,116.313809,39.899148
181653347250a11dfb2d6104,厦门商务会馆,北京市,北京市,海淀区,北京市海淀区知春路46号(距离知春路站B出口约202米),010-82118899,116.345641,39.981555
35debf29f3c2285da6da3938,万程新润酒店,北京市,北京市,西城区,北京市西城区大栅栏街32号,010-63023633,116.402149,39.902052
13406fd607202a372806ce07,亚运村15自如寓,北京市,北京市,朝阳区,朝阳区北苑路安苑东里三区5号楼,,116.420188,39.991705
cb4fd146463aca589d9d6805,华利佳合银岛饭店,北京市,北京市,西城区,北京市西城区三里河月坛南街32-2,"(010)68511927,(010)68521199",116.347136,39.919435
504d6113c0c509aa4657260a,弘利苑酒店,北京市,北京市,丰台区,北京市丰台区六里桥甲1号(六里桥客运站相邻)(西客站地区),010-63367711,116.312355,39.889232
d2e970276f5d17f175e5b67d,北京青云阁宾馆,,,,北京市西城区大栅栏西街33号,(010)63021125,116.399788,39.901742
35debf29f3c5285da6da3931,悦都大酒店,北京市,北京市,丰台区,六里桥甲1号,(010)63497722,116.312425,39.889483
5508504d51a0dcd2c7f02505,京海饭店,北京市,北京市,西城区,北京市西城区太仆寺街71号(西单商场东门后20米),(010)66018822,116.383126,39.918607
1c3d97448305da390b5cb34f,北京波菲特酒店,,,,北京市东城区鼓楼东大街281号,(010)84084595,116.404353,39.947363
4fc3161a65325ab03a13fdd8,合德缘宾馆,北京市,北京市,西城区,北京市西城区施家胡同11号,(010)63186228,116.40304,39.900505
637df60a7a5b606b40afe606,北京国电宾馆,,,,小营东路15号国电宾馆内(近北京信息大学),(010)82812012,116.351512,40.046112
1eeed5464b0ce0ebb5147fc4,升旗宾馆,北京市,北京市,东城区,东城区前门东大街甲2号,(010)51015026,116.406504,39.905796
d1469ee7dd61bc7b853304e3,远东饭店,北京市,北京市,西城区,北京市西城区铁树斜街90号,"(010)51958811,(010)51958561",116.393651,39.898191
1eeed546b8c097ebb4147f83,北京时尚华庭酒店苏州街店,北京市,北京市,海淀区,海淀南路15号楼1-6层,(010)62610566,116.312442,39.982217
768db0c25fbedcb2e81e9723,北京友谊宾馆-贵宾楼,北京市,北京市,海淀区,北京市海淀区中关村南大街1号（四通桥西南角）,(010)68498888,116.327711,39.969796
1cea15a9b8aafbdc07fef502,金石商务酒店,北京市,北京市,丰台区,北京市丰台区西客站南丽泽路三路居孟家桥32号,(010)63346880,116.341802,39.879013
5c56edd671563f43a1d23001,交通宾馆,北京市,北京市,朝阳区,北京市朝阳区安定门外大街外馆斜街3号,010-64259118,116.405254,39.971459
be1ea5efffb384a614948e3c,北京欣燕都连锁酒店(原新街口饭店),北京市,北京市,西城区,北京市海淀区北京市南大街44号,"(010)83221691,(010)83286661",116.37961,39.944866
e686f053e72244e4eb1e97eb,市长之家宾馆,北京市,北京市,朝阳区,北京惠新南里2号院市长之家宾馆,(010)64922233,116.429033,39.985478
0058610853a5e1bc46e27404,鸿基世业商务酒店,北京市,北京市,海淀区,北京市海淀区志新东路5号(北四环志新桥往北200米),(010)82376685,116.375215,39.997312
bba87388f44950b9bca82204,北京青年假日酒店（民大店）,北京市,北京市,海淀区,北京市海淀区民族大学西路58号（毗邻中央民族大学）,(010)68935888,116.323794,39.95634
dffd464263ff46ab3c9a5e06,凤展大酒店,北京市,北京市,东城区,北京东城区安定门外大街乙57号（近安定门地铁站）,(010)84139999,116.413694,39.964345
53cebd50086e3e782a02e176,北国江城宾馆,北京市,北京市,海淀区,北京市海淀区玉渊潭南路晾果厂6号都邦大厦内(近水科院),,116.338756,39.917498
07f3c8b5792d7d7a6240a93a,看丹红宾馆,北京市,北京市,丰台区,北京市丰台区丰台东路造甲村113号,"(010)63751236,(010)63717998",116.306799,39.849854
7c5e480b176366adadb22a05,国信苑宾馆,北京市,北京市,西城区,北京市西城区西单兴隆街5号,"(010)66083356,010-66017771",116.383736,39.916831
453198a8eb886e416d20b9e5,北京斯芙驿精品酒店,,,,北京市西城区护国寺街85号,(010)83289818,116.382073,39.94131
d6df91c120290473f7b91602,华利佳合快捷酒店,北京市,北京市,西城区,北京市西城区西单北大街30号,(010)66076898,116.380529,39.923757
00f1c7fbbd0cc706c056ac0b,国广公寓,北京市,北京市,石景山区,北京市石景山区石景山路甲16号,(010)68894500,116.239637,39.910736
b388f9fd93aaba58b35c6a33,海兴大酒店,北京市,北京市,丰台区,北京市丰台区永定门外海户屯166号,"(010)57199787,13522170192",116.405637,39.857835
5e53af1aa92ec1464051c0b7,圣德堡酒店,北京市,北京市,东城区,东城区天坛东路72号（南二环玉蜓桥向北200米）,(010)67169988,116.427998,39.883879
4774620d1616b58cbda24004,北京国汉主题酒店(志新店),北京市,北京市,海淀区,志新东路6号,(010)82373816,116.376863,39.998153
e3a7fd13aa402d4b28b97c0a,金田商务酒店,北京市,北京市,海淀区,北京市海淀区中关村南大街30号（中央民族大学东门对面）,(010)62156608,116.33148,39.956086
f3c2373ca893d54bd22dd634,永正商务酒店苏州街店,北京市,北京市,海淀区,北京市海淀区苏州街18号长远天地D座,(010)82611166,116.313042,39.983672
e1b00ffb88a08f530869d97b,北京丽家情风尚酒店,北京市,北京市,丰台区,北京市丰台区小井街甲288号,"(010)63895600,(010)63899448,(010)63897428",116.302517,39.883514
a12baa40933f2f4fe856fa04,北京华德商都物业管理有限公司华德瑞嘉宾馆,北京市,北京市,西城区,北京市西城区百万庄大街41号,010-68361166,116.341268,39.934005
edd64ce130216f883fe23131,北京金泰之家酒店盛达园店,北京市,北京市,西城区,北京市西城区百万庄北里14号（百万庄大街和三里河路交叉口附近，旁边是中国建筑书店）,"(010)68337708,(010)68337719",116.341599,39.934687
9ee7cc7878cc356917c905e5,嘉年华宾馆清河店,北京市,北京市,海淀区,北京市海淀区清河中街69号,(010)62913009,116.345847,40.037121
8d96925c03c4e65cc1f1cf2d,北京泰龙宾馆(云龙之星),北京市,北京市,东城区,东城区东安门大街51号(东皇城根南街与东安门大街交叉口),"(010)65222139,(010)65270228,(010)65518847",116.414808,39.92187
a3f21eeed2ff7f5d2fb17e03,荣丰宾馆,北京市,北京市,海淀区,北京市海淀区太平路乙23号,010-51767584,116.29628,39.906348
beabdbf493f3cf817169d39f,北京佑安大酒店,北京市,北京市,西城区,北京市西城区广安南街70号,(010)83550055,116.359044,39.877015
7630fd4e5b255d2e2bd7abb5,北京第五季商旅酒店(交大分店),北京市,北京市,海淀区,北京市海淀区交大东路54号,(010)62262288,116.355567,39.955252
39d43f82c6663b9fa8059d07,紫龙宾馆,,,,北京市北京市东城区西扬威胡同甲1号(宽街中医医院对面),(010)64045734,116.418005,39.937905
803708f10a47f96001897205,北京西华饭店(月坛分店),北京市,北京市,西城区,北京市西城区月坛南街69号,(010)68527519,116.34787,39.919909
3e0c973d14eb20869a0050af,七天酒店(北京南站永定门外地铁站店),北京市,北京市,东城区,"东城区永外管村32号院8号楼(近西罗园北路,中国评剧院相邻)",(010)88600600,116.400274,39.870054
fc7675243cfde2e34e776e05,月新假日宾馆,北京市,北京市,西城区,北京市西城区月坛南街14号月新大厦11层,(010)68511838,116.351332,39.919297
d1469ee7ddbebc7b84330436,华利佳合西直门快捷酒店,北京市,北京市,西城区,西直门内大街168号,(010)66180227,116.370371,39.946182
d0b8923fcbb74ffbb5f42f01,安怡之家宾馆(小黄庄店),北京市,北京市,朝阳区,北京朝阳区和平西街小黄庄路1号（近地铁5号线和平西桥站）,(010)84278889,116.424008,39.971516
bb1d38e47d863b540c0a700a,和悦天成商务酒店,,,,莲花池西里6号院17,(010)63961116,116.316208,39.899147
1cea15a9b8a8fbdc07fef500,京城九方酒店,北京市,北京市,海淀区,北京市海淀区羊坊店路9号京门大厦1层,(010)51862402,116.327221,39.908077
c8e8f633032f8575aa0dd8b7,北京飞鹰商务酒店,北京市,北京市,西城区,后河沿6,(010)63171116,116.373296,39.904579
8fa14fc39fad3d77f7eafc01,北京伯鑫宾馆（护国寺店）,北京市,北京市,西城区,北京市西城区护国寺街１３７号（地铁四号线平安里站举步可达）,(010)52607523,116.379746,39.941178
40107c7db4c71510c91b956b,北京金贸大厦-高档公寓,北京市,北京市,西城区,北京西直门外大街18号A座628室,(010)88332104,116.355607,39.944504
5e53af1aa8a8c6464151c035,华利佳合天锋宾馆,北京市,北京市,西城区,北京市西城区新壁街16号,"(010)66056919,010-66060022",116.386195,39.907642
25ec69fcf76da264c26c140a,丹水宾馆,北京市,北京市,丰台区,太平桥路45号B1,(010)63404687,116.324479,39.889435
c5ddcc0840f265dfd91318aa,北京大华路宾馆,北京市,北京市,东城区,北京大华路4号,"(010)65268753,(010)65264853",116.423514,39.909627
00f1c7fbbe36c606c056ac6d,天池名门宾馆,,,,北京市西城区(原宣武区)南滨河路87号,(010)63272255,116.354944,39.880006
21922e35af50d01b9e95de4a,北京什刹海紫檀文化酒店,北京市,北京市,西城区,西城区兴华胡同42号(靠近恭王府花园),(010)83226686,116.387214,39.940699
09185c56d3647f44f119370a,中条山宾馆,北京市,北京市,丰台区,天平桥东局甲8号(西站南路),(010)63408791,116.3265,39.880831
f2f15ffbf6ac6091631c673d,北京金兆酒店(邮电大学南门店),北京市,北京市,海淀区,学院南路明光村3号平房2、3号院,"(010)62278156,(010)62279686",116.364998,39.96226
6cb39659572021b8f8dc859c,山西大厦金辇酒店,,,,北京市丰台区洋桥西里甲1号,(010)87899999,116.389037,39.863959
46717a7d9a94740a09b93a29,海友酒店(永定门外大街店),,,,北京市东城区永定门外大街38号,(010)51333581,116.407014,39.876719
2ad32cc3af2cc5969d95de34,怡尔国际商务会馆,北京市,北京市,东城区,灯笼库胡同1号,"(010)65239213,(010)65238501",116.409931,39.91832
dd3eeb57258521a109b93a33,北京航空城宾馆,北京市,北京市,朝阳区,北京市朝阳区安外北苑2号院甲2号楼底商,(010)84932655,116.429543,40.033395
4871198374543a0f1fe9991e,中联鑫华酒店(西客站店),北京市,北京市,丰台区,太平桥小区20号楼（电力医院东门）,"(010)63266161,(010)63260203",116.324717,39.89195
a3e8341c736b8c8c4afd3f07,兴林宾馆,北京市,北京市,东城区,东板桥街32号,(010)64045868,116.408181,39.937101
bb5d14a9c656d41a2fb96d1d,阿哈青年酒店(北海公园店),,,,北京市西城区西四东大街29号,010-66155645,116.383037,39.930466
1292d338bb489c5a2a02e1b0,金泰之家连锁酒店,,,,海淀区高梁桥斜街甲30号,"4001868866,(010)62241115",116.347267,39.954127
db1f39d496385d76f5c59c02,西泰隆酒店,北京市,北京市,海淀区,北京市海淀区闵航路2号,(010)51611900,116.261141,39.974497
56f2f696920504990aa8d431,鄂尔多斯宾馆(海淀大街),北京市,北京市,海淀区,海淀大街甲36号鄂尔多斯写字楼,(010)62522288,116.313925,39.988158
2a7a25ec4b47e57a6c3e1b3d,雪莲假日酒店,北京市,北京市,海淀区,北京北京市海淀区太平路甲8号,(010)88215566,116.287082,39.906258
750ec16567b35b2b4c3a592e,常安福宾馆(北京马甸桥),北京市,北京市,西城区,北京市西城区黄寺大街23-19号,(010)82230881,116.391696,39.972942
4bb049d98486635e99005039,思源亚祺酒店,北京市,北京市,丰台区,西三环丽泽路三路居209号,(010)63363348,116.339481,39.876155
fd007c5e54126f75a9f729e3,永合兴宾馆,北京市,北京市,朝阳区,朝阳区亚运村北苑4号楼（地铁5号线北苑路北B2口出）,(010)84934615,116.424992,40.035838
c7eca12bc1ef5c2ee115f909,北京汇通九方连锁宾馆（鸟巢店）,北京市,北京市,朝阳区,安贞西里2区19号楼(地铁10号线北土城站C2口南行约430米),(010)64451756,116.401273,39.979907
3810c87917a02d8b9c09f703,华利佳合鑫园客栈,北京市,北京市,西城区,北京市西城区烟袋斜街21号（靠近地铁2号线鼓楼大街站）,(010)64014753,116.40169,39.945632
affc8fcb1a8f1c9524d2bbb9,瑞祥宾馆,北京市,北京市,西城区,北京西城区阜外大街3号楼,(010)68019178,116.355741,39.928431
bb1d38e47d853b540c0a7005,北京中基宾馆,北京市,北京市,西城区,月坛南街14号月新大厦12层,(010)68586377,116.351383,39.919199
7bd3f28ca80776a90c0a709d,华利佳合快捷酒店鼓楼店,北京市,北京市,西城区,西城区鼓楼西大街62号(广化寺附近),"(010)64026866,(010)64079775",116.398423,39.947537
78bd50f7c2f0ad4231870a06,北京安怡之家宾馆前门店,,,,大栅栏西街55号,(010)63085956,116.39864,39.901242
0d46f29e1e7b1ebca20464f3,北京毕天成宾馆三分店,北京市,北京市,海淀区,北京市海淀区知春路知春嘉园17号院2号楼3A层(北京航空航天大学南门附近),(010)82311522,116.353918,39.982657
a6d2ddcb34e850c8f942b21c,北京辽宁大厦酒店,,,,北京市海淀区北四环西路甲二号,"010-57135748,010-57039422",116.343895,39.990558
4cf8d24e4c5d33fd9cf77906,爱华宾馆,,,,北京市东城区天坛东里乙48号（南二环）（天坛公园旁、近东侧路）,"(010)67112255,(010)67189899",116.429816,39.881971
49d959388c49575ac61e5105,欣燕都酒店(陶然亭二店),北京市,北京市,西城区,北京市西城区黑窑厂街18号,"(010)63532398,(010)63569020",116.388386,39.887521
0c7748e0aa333b94581093ae,优选酒店,,,,北京市长椿街感化胡同3号院5号楼,(010)63032395,116.371259,39.900323
75036835e818ceb65e0d0239,克拉玛依雪莲宾馆,北京市,北京市,丰台区,北京市丰台区西局南街17号,010-83297111,116.316597,39.876922
2c0bd6c57a23d2b343ab9a0a,北京七台河宾馆,北京市,北京市,丰台区,北京市丰台区右安门外开阳里二街3号（大鸭梨家常菜对面）,(010)63559977,116.376121,39.872939
da403456ce5722d7e311038c,北京富豪宾馆(B座),北京市,北京市,东城区,王府井大街45号,(010)65237788,116.417002,39.92806
74c933fb89336f479e82ea08,紫金宾馆(东交民巷),北京市,北京市,东城区,崇文门西大街9号,(010)65136655,116.41847,39.908699
e56bf5e3f71c8c5d0782c20a,王府井敏志宾馆,北京市,北京市,东城区,北京市东城区东安门大街16号,(010)65238310,116.415906,39.921215
e889a744471c96ac8605bf32,北京龙福宫宾馆洋桥店,北京市,北京市,丰台区,丰台区马家堡东路海户西里34号(南三环中路洋桥南侧),(010)87818368,116.395017,39.857089
2ad32cc3af2fc5969d95de31,吉尔达宾馆,北京市,北京市,西城区,北京市西城区大栅栏街18号大栅栏购物中心1层,(010)63033533,116.402939,39.902366
330bff3540ee0733f03cba8d,中国气象局-招待所,北京市,北京市,海淀区,中关村南大街46号,(010)58995021,116.337376,39.953511
181653347221a11dfb2d6135,翰林商务宾馆(东铁店),北京市,北京市,丰台区,五间楼1号1楼,"(010)67606173,(010)87673172",116.429543,39.856232
e6ee2fd2e216e8512b11d13f,正阳林园旅馆,北京市,北京市,丰台区,丰台区永善里小区2号3层,(010)63815681,116.292627,39.855249
6deee308fdf6cc7329fc4839,吉龙宾馆(天坛路店),,,,北京市东城区天坛路91号（天坛公园北门西边）,"(010)52171128,(010)67021339",116.410856,39.894574
550fd5f9ffde6379931fc9d0,北京工商宾馆,北京市,北京市,东城区,北京北京市东城区北河沿大街95号,(010)65277544,116.411953,39.929249
26b3919733e0f170b320a82e,溪水玲珑宾馆,北京市,北京市,丰台区,北京市丰台区海户西里14-4(洋桥大中电器南100米路东),"(010)81579588,(010)57450732",116.393716,39.861267
9ee7cc789f684a6916c90506,京明酒店开阳桥店,北京市,北京市,丰台区,北京市丰台区右外东滨河路2号,(010)83560173,116.378757,39.874479
244ea67b5c8c4ed5bd4842e3,北京崇文门开心短租公寓,北京市,北京市,东城区,"东城区都市馨园5号楼666室(临近崇文门和磁器口地铁站,新世界百货,同仁医院)",13426322340,116.421688,39.901381
d5464cf8d7fd7b4efda77805,天德隆宾馆,北京市,北京市,海淀区,北京市海淀区文慧园路10号院甲2,(010)62244645,116.365903,39.957341
bfdee2f22871defcb14c4965,广安宾馆,北京市,北京市,西城区,广安门内大街321号(近广安门桥东北侧),(010)83153388,116.358624,39.895636
4eb3b5333bd70f6c4302451e,鑫正酒店,北京市,北京市,海淀区,海淀区 紫竹院路45号(北洼路公交车站西北侧) ,(010)68431818,116.310652,39.951037
f446091863e5de73b11e3605,北京电力宾馆,北京市,北京市,西城区,地藏庵南巷1号,(010)88072298,116.354875,39.913699
50f7d1468c58ffdd72210b39,东都宾馆,北京市,北京市,东城区,东交民巷20号,,116.416701,39.908794
38d02c26e59a47ee9f09f7c9,时尚华庭酒店(西直门一店),北京市,北京市,海淀区,德胜门西大街15号远洋风景底商（从文慧园西路进入较近）,(010)82294838,116.367149,39.953054
69fcd6dfb1070c36ca291536,毕节商务酒店(东大街店),北京市,北京市,东城区,珠市口东大街4号(近地铁5号线瓷器口站),(010)67025566,116.421375,39.898767
fdcbb1d22a4de28c5abbbc93,北京长亭短亭Iris House民宿(方庄店),北京市,北京市,丰台区,北京市丰台区蒲黄榆路芳古园一区15号1楼,15901143159,116.430587,39.874619
96b672aa531d476ccf04efee,华辰饭店,北京市,北京市,丰台区,西局南街甲15号,(010)83298899,116.316284,39.876604
d6c5d99143dc8df130169b32,北京民族园智选假日酒店,北京市,北京市,朝阳区,北京市朝阳区民族园路1号(丰宝恒大厦1号楼),"(010)59269190,(010)59269090",116.3975,39.985635
341c35defa9b84a7e607380a,天马宾馆大红门连锁店,北京市,北京市,丰台区,北京市大红门临弘路6号(大红门服装城附近),"(010)83013999,(010)83013998",116.398733,39.850824
7bfa08fc51633e6625d2bb3c,北体宾馆,北京市,北京市,海淀区,北京市海淀区信息路48号北京体育大学内,"(010)62989563,010-84128686",116.328143,40.026847
4ea3f2f1b0482bb3aecb6604,北京紫金阳光酒店公寓,,,,北京市海淀区紫金数码园2号楼104室,(010)62662637,116.344747,39.985328
33fbfa832e5650d80bf5eb04,华融大厦,,,,海淀区阜成路18号(近航天桥),(010)68401188,116.317683,39.928617
f50e78db53192147b34c49f3,北京爱宅家庭旅馆,北京市,北京市,海淀区,北京阜成路八宝庄10号,18701542943,116.299352,39.928026
84f95ce7bc70a491ad0457b3,99优选酒店瑞丽祥宾馆(北京二分部),北京市,北京市,东城区,北京市东城区西花市大街108号,010-87193602,116.428213,39.903096
2e00c5ddeabe7a05d7851f06,北京天马宾馆,北京市,北京市,西城区,北京市西城区大栅栏街10号(大栅栏购物中心1层),(010)63083990,116.403319,39.902154
9d866be45e28fc28bca822f9,今典园招待所,北京市,北京市,海淀区,海淀区文慧西里小区文慧商业楼7号楼甲1号,(010)62212153,116.367428,39.957266
69fcd6dfb1090c36ca291530,北京航鑫园宾馆,北京市,北京市,西城区,北京市西城区德胜门内大街羊房胡同9号,,116.389766,39.947501
e263def533e09050d8d891c9,99优选酒店(六里桥店),北京市,北京市,丰台区,北京市六里桥北里5号院,(010)63250225,116.315799,39.894687
4df35e62afd3a20717948e01,北京鑫家公寓,北京市,北京市,海淀区,北京市海淀区水磨西街68号,15712828699,116.321398,40.011372
db1f39d496395d76f5c59c3d,连升商务酒店,北京市,北京市,西城区,"（原宣武区）前门大栅栏西街32号（地铁2号线前门站C口出，煤市街向南行200米，临近天安门，故宫,前门，国家大剧院，西单，王府井，东单等热点商圈）",(010)63036074,116.40003,39.901496
88abc512a5d3f5974f2fdf1d,五道口青年旅舍,北京市,北京市,海淀区,北京成府路35号华清嘉园20号楼,"1,366,105,136,818,600,000,000",116.343691,39.996342
6794da464133fd2e8c55ecb5,北医家庭旅馆,北京市,北京市,海淀区,北京海淀区北医三院对面塔院小区,"1,520,115,898,515,200,000,000",116.366522,39.986757
76f213d7c73c0c7d4d5547d5,丽枫酒店(北京南站洋桥店),,,,北京市丰台区马家堡东路88号,400-900-7779,116.394874,39.85602
455702d28885d04c88fc065d,北京天利酒店,,,,丰台区大成路7号(毗邻301医院),(010)68696070,116.276565,39.896099
9fd2ccb424c09f78b5f42f80,北京康园之家家庭旅馆,北京市,北京市,海淀区,永定路57号院228号楼,13552509734,116.268686,39.91858
6a18fe6dfa55a808b54f54f5,北京正合旅馆,北京市,北京市,西城区,广内核桃园东街1号,(010)83163523,116.361381,39.898228
3f9337d6143aeeaaf723107c,侨园饭店,北京市,北京市,丰台区,丰台区右安门外开阳东路6号侨园饭店内(近北京南站),(010)63038861,116.383124,39.87577
fa835ce23920bcafe812e45f,康泰福宾馆,,,,天坛南里西区19号楼,(010)67050108,116.407559,39.880495
4b7230ede40256974002451b,三和商务酒店小屯路店,北京市,北京市,丰台区,北京市丰台区小屯路9号,"(010)51811958,(010)51811959",116.258827,39.894943
7388dffd49a972f2d3ff2307,鹰翔宾馆,北京市,北京市,丰台区,北京市丰台区七里庄路22号,(010)66715529,116.297681,39.864632
998b264258bc730572210b06,北京香格里拉饭店-景阁,北京市,北京市,海淀区,北京市海淀区紫竹院路29号（西三环北路与紫竹院路交叉口西北角）,010-6841221,116.315297,39.950264
7e73f5556bb2390bf02d8363,红居馨缘宾馆,北京市,北京市,西城区,手帕桥红居街4-3号（希尔顿酒店天虹商厦旁）,(010)63396518,116.346131,39.891466
3aef2edfd24ea8d0d618b72e,粮禾木宾馆,北京市,北京市,西城区,北京西城区大栅栏粮食店街13号,(010)83160913,116.404006,39.901758
b3aa435db058701215764305,西翠之旅连锁宾馆(广安门店),北京市,北京市,西城区,北京市西城区广安门外车站东街9号（椿树馆小学对面）,(010)51923966,116.351667,39.892529
5ffb1816bd4aac466f476079,权金城金沙国际（牡丹园店）,北京市,北京市,海淀区,花园路2号,010-62078888 010-62055588,116.374447,39.983849
10c4dea340dd93075b109368,北京桃丝主题酒店,北京市,北京市,海淀区,中关村南二条2号中国科学院大学中关村校区西门,(010)82449583,116.341283,39.987807
cde9e2c7a985b1ade81e975b,北京玉明珠国际商务会馆,北京市,北京市,丰台区,丰台区西四环中路130号,(010)51211888,116.28456,39.885098
4eb3b5335510796c4302455d,新疆巴州驻京联络处,北京市,北京市,海淀区,北京市海淀区学院南路皂君庙2号（近北三环联想桥）,010-62115556,116.346629,39.96948
e80284283dd5ddb48e77273a,北京宝鼎商务酒店,,,,崇文门东打磨厂街新世界百货宝鼎中心B座8层,,116.419309,39.905846
2e39f058329224638bb98893,北京封阿姨家庭旅馆,北京市,北京市,海淀区,北京海淀区魏公村小区11号楼1单元3层中7号,13681265163,116.326969,39.960912
87248d96ca6b67aa2906ce81,北京赛福特饭店,北京市,北京市,朝阳区,朝阳区和平西苑2号(近中国建筑科学院),"(010)59068899,(010)59068888",116.421685,39.973907
6835e3a785de664ee31103d7,北京乐百荣宾馆,北京市,北京市,丰台区,南三环中路73号洋桥东路,(010)87818086,116.391363,39.864144
1ee1113d665663f375e5b64b,北京黎昌酒店,北京市,北京市,东城区,北京北京市东城区永定门外彭庄乙58号,(010)83109988,116.393725,39.876681
bbc86342810ae7f50d3ddacc,北京东方文苑宾馆(王府井店),,,,北京市东城区帅府园胡同20号,"(010)65260887,(010)65268039",116.418527,39.918076
f94d6e61b484cbfe0e3ddae5,威斯汀美味(westin),北京市,北京市,西城区,民康胡同30号院3号楼金融大街乙9号,,116.365862,39.92315
be54cde97d70074178f79601,春豪宾馆(大鹁鸽胡同),,,,北京市东城区王府井北大街36号王府井大饭店斜对面,"(010)65259950,(010)65238656",116.418216,39.926836
7dfd3fba275031d1283a9f6f,北京四环宾馆,北京市,北京市,海淀区,北京市海淀区永定路100号,(010)68185599,116.271698,39.908376
ef773a0f961e402d22022006,北京轻联富润酒店（前门二店）,,,,北京西城区(原宣武区)珠市口西大街石头胡同65号(前门、崇文门商贸区近纪晓兰故居东侧),(010)83160664,116.397282,39.898304
d0b8923fe00d30fbb4f42fef,五台山酒店,北京市,北京市,海淀区,北京市海淀区太平路甲23号,(010)88229509,116.295249,39.906353
a5ef680f21b7daceb9df8f04,北京三泰之星宾馆,北京市,北京市,海淀区,北京海淀区大慧寺路19号（北京交通大学西门往西200米）,(010)62119488,116.338571,39.959194
beabdbf48c5db4817069d305,福康旅馆,北京市,北京市,西城区,北京市西城区万明园14号1,"(010)68024001,(010)68025627",116.359893,39.92714
4d25a650bd231f094e2fdf4f,粤兴大酒店,,,,西城区永安路175号（前门建国饭店东侧）,(010)63174083,116.393517,39.893498
34924dad28385d4eca09f03d,北京世纪INN酒店,北京市,北京市,丰台区,海户屯165号(木樨园新世纪商城西侧)地铁10号线-大红门站,010-67259966,116.403757,39.857307
3be122e1cd555f4b1ff74da5,红菜苔酒店四季青店,北京市,北京市,海淀区,北京海淀区紫竹院路128号(四季青桥东),(010)88501358,116.286078,39.951622
e116be5449e0ad62c81b95f3,创世商务酒店,北京市,北京市,东城区,东单北大街3号青年会大楼5-8层,"(010)65287782,(010)65287679",116.423751,39.921139
7c5e480b054810adadb22a60,聚盛祥宾馆,北京市,北京市,朝阳区,北四环惠新东桥小营路5号（小营北路与小营路交叉口南侧）,(010)51313106,116.430567,40.001742
d146b3880d4253c774026938,北京和家宾馆管理有限责任公司（广安门店）,北京市,北京市,西城区,广安门南街30号西楼,"(010)83535789,(010)83536123",116.35719,39.885767
0418f4d38eb4c1401d5800ba,北京崇文门新世界-都市馨园短租公寓,北京市,北京市,东城区,北京市东城区崇文门都市馨园2号楼（近北京新世界百货）,(010)67014017,116.421422,39.902695
6c8b5157a706dd8e210262d2,锦绣庄四合院宾馆,,,,前门大街施家胡同4号（邻近刘老根大舞台、纪晓岚故居）,(010)63180028,116.403258,39.900209
8dd737539d295aa884154139,万邦山水酒店,北京市,北京市,海淀区,北京市海淀区万寿路甲12号,,116.301126,39.918804
65a85a36706589b5354aaee0,国杰招待所,北京市,北京市,西城区,北京北京西城区永安路8号,15300036813,116.403414,39.892589
5c700428c9e9a9e8354aaee8,家在北京公寓,北京市,北京市,海淀区,苏州街人民大学紫金庄园小区7号楼,"1,521,081,068,818,300,000,000",116.314683,39.971746
74c933fb89376f479e82ea04,北京金域万豪酒店,北京市,北京市,海淀区,北京北京海淀区西三环北路98号,,116.318595,39.930355
4b735c7ef37a7fe8b35c6af3,北京雷龙宾馆,北京市,北京市,西城区,北京西城区后坑胡同43号（近积水潭地铁站）,"(010)68050845,(010)68050846",116.377013,39.953574
108b1cea941d0bb53586f404,北京富伦德酒店,北京市,北京市,海淀区,北京市海淀区三里河路39号(毗邻甘家口大厦南侧150米路西),68338866,116.339989,39.930759
161a0ed2fcb403505cd4fe03,什刹海国际公寓,北京市,北京市,西城区,地安门西大街57号,(010)83228766,116.396738,39.94105
a3e8341c736c8c8c4afd3f0a,安成宾馆(内务部街),北京市,北京市,东城区,北京市东城区王府井内务部街26号（近东四南大街）,(010)85118352,116.429359,39.925005
07933af91b483dd1f32d838b,稻草人之家公寓,北京市,北京市,海淀区,北京中关村南四街18号紫金数码园2号楼619室,(010)62662821,116.344634,39.985214
b292b3aae4a02d55be4842e0,百乐宾馆,北京市,北京市,海淀区,田村路甲4号A院百乐大厦,(010)52706123,116.273061,39.934349
5001a3b00ecce08028201a55,北京泡泡商旅酒店,北京市,北京市,海淀区,大钟寺四道口北街甲13号（大钟寺中坤广场向南约100米）,(010)82481229,116.348668,39.969311
f57b2d9cce09381681a12e4d,北京温馨公寓颐和园店,北京市,北京市,海淀区,香山路槐树居果园7号,15910788762,116.257617,40.009786
34059f97537a654d71455b38,天隆园宾馆,北京市,北京市,海淀区,北三环西路47号院乙9楼,(010)82651088,116.321729,39.97303
90f40f66a9a5d7ae4e2fdf7c,唯美东方酒店,北京市,北京市,丰台区,北京市丰台区张仪村路三顷地南里25号(公交站张仪村北站),(010)88693520,116.23912,39.888068
ef314ea5b9a983f8f7b916e1,99优选酒店,北京市,北京市,丰台区,北京西站南路12号建银饭店往南约200米路东,010-63328752,116.328105,39.891592
7bc12d68439fd352213bf2bd,前介宾馆,北京市,北京市,东城区,北京市西城区前门粮食店街44号(前门大街109号B座),(010)63041688,116.404203,39.900228
69fcd6dfbde41851cb2915ba,德盛坊宾馆,北京市,北京市,海淀区,北京海淀区杏石口路80号,"(010)62598411,(010)82599902",116.232396,39.959523
f5e3bcaef540c9d85e17c300,建苑宾馆,北京市,北京市,西城区,北京市西城区北新平胡同5号,(010)66057424,116.387237,39.912245
e11defbcbef38d3f4bcc4a60,途179迷你酒店(北京西单地铁站店),,,,太仆寺街48号,(010)66010505,116.385608,39.918258
d5464cf821060d4efca778b3,天中商务酒店,北京市,北京市,海淀区,北京市海淀区万寿路甲27号南门,(010)68217117,116.302955,39.907436
3c0ea7c53c102385fbf0cbc8,新华苑宾馆,北京市,北京市,西城区,北京市西城区宣武门西大街乙6号(地铁2号线长椿街东南出口国华商场往东300米),(010)63180325,116.375318,39.904718
478ad9ffc0650ce349fd3f90,北京蓝色海洋公寓（荣上居店）,北京市,北京市,海淀区,北京市海淀区西五道口荣上居紫金数码园2号楼206室,,116.344623,39.985423
e2c734e41b70274415a19040,宁阳大酒店,北京市,北京市,西城区,北京北京西城区白云观南里9号,(010)63450101,116.351367,39.904112
8850d83f5b22f30cb11e36d1,金雷池商务酒店,北京市,北京市,东城区,北京市东城区安定门内大街259号,(010)64457188,116.41453,39.948168
d7dc1d0930060ff648cc4a9d,北京都市恒嘉主题酒店,北京市,北京市,西城区,北京北京市西城区月坛南街甲15号,"(010)68059923,(010)68010160",116.355737,39.919841
2c3b8689f58b4e47e81e97bd,北京商旅智选凯德华玺公寓,北京市,北京市,东城区,北京市东城区朝阳门内大街288号凯德华玺大厦819室,(010)65210791,116.427037,39.930028
ef773a0f961b402d22022005,北京石化宾馆,北京市,北京市,西城区,北京市西城区东京畿道10号,(010)66015550,116.375581,39.916032
0a46dc0f116ad04730621206,京文宾馆,北京市,北京市,西城区,北京前门大栅栏北火扇胡同2号,(010)63031857,116.400574,39.903384
d46024d94749aed41ef74d1e,园博苑宾馆,北京市,北京市,丰台区,北京晓月中路晓月苑一里甲1号,"(010)63709100,18611714338",116.244903,39.850568
e401f122ee44c88e1ce99998,旺豪之家快捷宾馆,北京市,北京市,西城区,西城区西黄城根南街1号(西单/北海),(010)66088022,116.383092,39.928494
55fa2c0bc4391c2d1ce999e5,大力宾馆,北京市,北京市,西城区,西城区前门煤市街大力胡同17号（近煤市街）,(010)63033465,116.400146,39.899978
6330d09fa69678e615c9056c,北京成成精品短租公寓,北京市,北京市,海淀区,"北京蓟门桥西北侧,靠近首都体育学院北门",15810527347,116.353088,39.979322
dffd631c68e41da538221c05,怡园宾馆(西单店),北京市,北京市,西城区,北京市西城区高义伯胡同6号(广州大厦东胡同内),(010)66051859,116.383834,39.917528
5211d21952f871417dc876d6,沁园府酒店,北京市,北京市,海淀区,北京市海淀区中关村南大街12号(中国农业科学院内),(010)82105108,116.333346,39.968474
219f9803bb62d5fe7f29bd92,北京福华瑞源宾馆,北京市,北京市,海淀区,海淀区德胜门西大街15号远洋风景1号楼(文慧园西路),(010)82291367,116.367026,39.953119
35e73e4729976826ca29159d,北京雅缘宾馆,北京市,北京市,西城区,北京前门大栅栏西街铁树斜街31号,(010)63156121,116.396274,39.900099
49d959388c42575ac61e5102,玉阁宾馆,北京市,北京市,西城区,大六部口街21号,(010)66036196,116.387843,39.911438
89d505b6c843657315c90500,乐语宾馆,北京市,北京市,东城区,东城区王府井大街277号南门,(010)65259718,116.416387,39.917033
11ede9dfcb5bba6749fc8df5,安贞鸟巢家庭院公寓,,,,地铁安华桥站安华里五区13号楼,,116.410198,39.970947
56e88cba94037a7ca4c75604,北京华尔宾馆,北京市,北京市,海淀区,北京市海淀区苏州街19号（八一中学东侧）,"(010)62552069-0,(010)62552069",116.312269,39.984866
ef3e14b8f2b5ed2eb8bd6344,北京瑞新酒店公寓,北京市,北京市,东城区,西花市大街国瑞城中区6号楼近国瑞西路,15001395265,116.428605,39.904568
22e11407ba5cd0add5b74e05,北京红龙宾馆陶然亭店,,,,（原宣武区）陶然亭路12号（菜市口、陶然亭地铁站）,(010)63586646,116.384977,39.88484
4bb049d9848c635e99005007,紫来宾馆,北京市,北京市,丰台区,丰台区青塔西路12号6号院1号楼（翠微北侧500米）,(010)68696419,116.271502,39.900398
41572e00e26bffadb45f1e06,天顺宾馆(粮食店街),北京市,北京市,西城区,（原宣武区）前门粮食店街39号,(010)63044871,116.40402,39.90058
14076dee35c21bed02294f2d,北京国土资源部地质旅社宾馆,北京市,北京市,西城区,北京市西城区北礼士路70号,68355898,116.3602,39.93304
9f6346e0756763f57ab55c02,北京滨棣永合宾馆,北京市,北京市,海淀区,甘家口小区27号楼2楼（白堆子口东200米）,(010)68331528,116.335661,39.930481
f7a87153949c894585420e8a,北京交通大学日租公寓,北京市,北京市,海淀区,高粱桥斜街11号院1号楼13层1301,13581733396,116.342302,39.956363
8a066522d4f2d2da82288a3e,贵雅自助服务式公寓（西直门店）,,,,北京市海淀区交大东路66号高粱桥斜街钻河中心2号楼,(010)62249207,116.357181,39.950219
8fa14fc39fab3d77f7eafc0b,荣华宾馆,北京市,北京市,西城区,北京市西城区新街口北大街72号(北京科影厂门口北侧),010-66127310,116.379226,39.949845
8d0cf18be253344831f71d8a,和平之家宾馆,北京市,北京市,西城区,西城区西交民巷126号,(010)66023952,116.3925,39.908084
7fd72311176441865cbe8641,长荣宾馆(半壁店),北京市,北京市,海淀区,北京市海淀区田村路23号,(010)52985758,116.272989,39.93573
3445ef5a193f2ffc4051c096,北京悠悠公寓,北京市,北京市,海淀区,万泉河路68号紫金庄园4号楼22层（接待中心），近北京科技经营管理学院。,18310925518,116.31588,39.972078
8b7fb409064f848701294f25,金三星宾馆,北京市,北京市,西城区,施家胡同7号,(010)63163577,116.403138,39.900517
17558cde3a4733eb343a7132,北京安心家庭旅馆,北京市,北京市,海淀区,北京海淀区花园北路塔院小区朗秋园1号楼,13581872778,116.36809,39.987163
2527be1e3d5e5baa4afc8d0b,城市家园宾馆,北京市,北京市,西城区,北京市西城区百万庄大街9号A座,"(010)88375917-0,(010)88375917",116.357929,39.934082
5b39fae3ed8eb36871455b20,盛祥春宾馆,北京市,北京市,西城区,北京市西城区前门大栅栏西街23号,(010)63021808,116.399932,39.901812
d3bd47b8fcf29582c91b95a5,绿叶宾馆,北京市,北京市,西城区,牛街16号,010-83534660,116.370619,39.892538
e2c734e418b9264415a1900b,紫金钟宾馆,北京市,北京市,西城区,北京市西城区阜城门外大街北营房西里3号,(010)68312254,116.354557,39.932178
3f9337d617f0efaaf7231006,来得福宾馆,北京市,北京市,东城区,北京市西城区粮食店街32号,(010)63035899,116.404191,39.901009
637df60a7a2e606b40afe635,建晋东方宾馆,北京市,北京市,东城区,北京市东城区新开路胡同78号,"(010)65255810,(010)65251635",116.427908,39.917566
1c1e4d80ea82ced72eb96d4c,鑫源华宾馆,,,,煤市街140号(近西华京兆宾馆),(010)83197833,116.401269,39.899539
e3a7fd13aa412d4b28b97c05,德政宾馆,北京市,北京市,西城区,西什库大街74-3,(010)66174230,116.38643,39.929631
2527be1ed9d327aa4bfc8dbc,六顺兴宾馆,北京市,北京市,海淀区,北京市海淀区中关村路6号(北四环路北银谷大厦南门东邻),(010)62578539,116.342187,39.992628
83d5dd7ea04ffac417948e39,北京温馨家庭式公寓,北京市,北京市,朝阳区,北京朝阳区科学园南里七区718号楼,18601245707,116.392466,40.000899
fc7675243c8ce2e34e776e34,莱茵之家酒店,北京市,北京市,西城区,西城区骡马市大街121号（近菜市口地铁站A口）,(010)63186671,116.386565,39.895883
28e700f1ef07c101095cb3e5,北京市华宇苑宾馆,,,,北京市西城区粮食店街23号,(010)63135886,116.40401,39.901177
4e23088d95d3ffd57adbd227,蘑菇公寓,北京市,北京市,朝阳区,北京朝阳区北苑家园茉藜园16号楼,18800134097,116.428994,40.044183
fcf81f30959e156eab175ada,北京爱在里屋短租公寓,北京市,北京市,海淀区,北京市海淀区五道口地铁站王庄路27号院,13269016102,116.346429,40.001847
89816cd37b0c6678047ce869,红达悦宾馆,北京市,北京市,西城区,粮食店街59号（近天安门，前门，王府井商圈，地铁2号线前门站，7号线珠市口站步行可达）,(010)63031818,116.40403,39.899657
d7fd2ad3784f8f4d0bccdd6c,北京徽都大酒店(马连道店),北京市,北京市,丰台区,北京市丰台区三路居113号(近西局东街),(010)51809988,116.333756,39.880137
e3a7fd13aa4e2d4b28b97c3c,金天地宾馆,北京市,北京市,西城区,粮食店街43号,(010)63031819,116.404004,39.900356
cde9e2c7aa25b6ade81e973b,克拉玛依大厦,北京市,北京市,东城区,安德路61号,(010)84113311,116.403882,39.95824
56ebe896c1f343414e5547b9,班思特宾馆,,,,北京市西城区前门大栅栏粮食店街31号,(010)63036198,116.404026,39.900967
a74481d66357495ff503b85e,金水桃源饭店,北京市,北京市,丰台区,北京丰台区马家堡路63号（全聚德烤鸭店马家堡店旁）,"(010)67575158,(010)67574654",116.385078,39.849724
ba943c7ecb892bc4df1e5293,北京好房东家庭公寓,北京市,北京市,海淀区,北京学院路20号石油大院23号楼,13671306141,116.364561,39.999531
c85085be366420002afc4825,北京兰兰家庭公寓,北京市,北京市,朝阳区,北京朝阳区北土城地铁C2口安贞西里小区,13581852252,116.403471,39.980006
11885f725da09cddc61b7500,北京荣达昌旺宾馆,北京市,北京市,西城区,北京市西城区新街口东街罗儿胡同8号,(010)83221379,116.382646,39.947927
58562a69c99ba1291d1d1164,北京苏州街人民大学公寓,,,,苏州街人民大学西门紫金庄园8楼,13051424899,116.314687,39.97217
cc0849a0bb31e35094031955,北京恒尚宾馆,北京市,北京市,朝阳区,安华里二区十四楼底商(安贞桥西站往南300米),(010)64264511,116.411632,39.973689
b1c556e86d457915b42655f8,北京东方美爵酒店101餐厅,北京市,北京市,东城区,交道口东大街101号,010-84031188,116.418473,39.947561
240749b9776b765ffbf0cbcd,智隆源宾馆,北京市,北京市,西城区,北京北京西城区前门大栅栏西街31号青云阁宾馆隔壁,(010)83155368,116.399662,39.90189
1bb77114114beefbb72655f1,北京清穆源宾馆,北京市,北京市,西城区,北京市西城区南横西街98号,(010)83513715,116.371448,39.889041
55fa2c0b7206ea341ce99935,北京国际饭店,北京市,北京市,东城区,北京市东城区建国门内大街9号,(010)65126688,116.435059,39.915832
cde9e2c7aa52b6ade81e9706,北京富力万丽酒店,北京市,北京市,朝阳区,东三环中路61号富力万丽酒店三层,(010)58638888,116.467213,39.904044
7eb30e885c123adde21103ba,万豪酒店(建国门店),北京市,北京市,东城区,北京市东城区建国门南大街7号,(010)58118888,116.440566,39.910364
faefe725222911016268587f,中国大饭店,,,,北京市朝阳区建国门外大街1号国贸商城1期F2,010-65052266,116.465649,39.915926
680fb7037cdd77858bb98806,新云南皇冠假日酒店,,,,中国北京朝阳区东北三环七圣中街12号云南大厦,(010)64298888,116.44122,39.97833
31f9101b6bd0e0a026e0a02d,北京丽都维景酒店,北京市,北京市,朝阳区,北京市朝阳区将台路6号,(010)64376688,116.485907,39.983709
669775d035aa1b42fd0eb008,北京昆仑饭店,北京市,北京市,朝阳区,北京朝阳区新源南路2号,(010)65903388,116.466472,39.953985
28e700f17d4d3718095cb306,金茂北京威斯汀大饭店,北京市,北京市,朝阳区,朝阳区东三环北路7号,(010)59228888,116.467349,39.955852
28e700f17d4b3718095cb308,希尔顿酒店,北京市,北京市,朝阳区,东三环北路东方路1号,(010)58655000,116.469078,39.958889
f9fd60627b4b7d060f0e6b01,北京嘉里大酒店,北京市,北京市,朝阳区,光华路1号(与金桐东路交汇口东北角),(010)65618833,116.464925,39.91985
95d660a2c214b6d459f6be82,维景国际大酒店,北京市,北京市,朝阳区,北三环路2号三元桥维景国际酒店b1层(原中旅大厦),(010)64622288,116.458005,39.964392
08fc93dfcc04eb889b68b431,北京京伦饭店,北京市,北京市,朝阳区,北京市朝阳区建国门外大街3号,,116.461486,39.914729
75d0881a958332543a04b154,凯宾斯基酒店(亮马桥店),北京市,北京市,朝阳区,亮马桥路50号,(010)64653388,116.471134,39.954647
5ffb181689f0d8466f476037,长富宫饭店,北京市,北京市,朝阳区,朝阳区建国门外大街26号长富宫饭店内(建国门桥东南),(010)65125555,116.444326,39.913586
dffd464263fa46ab3c9a5e0b,北京建国饭店,北京市,北京市,朝阳区,北京市朝阳区建国门外大街5号,(010)65002233,116.459417,39.914718
b533ea4af2798d584f6d460b,北京河南大厦,北京市,北京市,朝阳区,北京市朝阳区潘家园华威里28号(潘家园桥西南侧),(010)67751188,116.464408,39.87884
0a46dc0f111ad04730621236,广西大厦,北京市,北京市,朝阳区,北京市朝阳区潘家园华威里26号(近华威桥),(010)67796688,116.463249,39.878887
780bdabc38c7972dc51e513b,北京长城饭店,,,,北京朝阳区东三环北路10号,(010)65905566,116.469781,39.950367
db1f39d4a8562b76f5c59c24,北京瑞吉酒店,北京市,北京市,朝阳区,北京市朝阳区建国门外大街21号(原北京国际俱乐部饭店),(010)64606688,116.446566,39.916579
3be122e1ccb15e4b1ef74d01,珀丽酒店,北京市,北京市,朝阳区,北京朝阳区将台西路8号（四得公园正对面）,(010)59602288,116.484499,39.979583
7bfa08fc3dd84a6624d2bbf1,四川龙爪树宾馆,,,,北京市朝阳区小红门路312号,(010)87699988,116.461646,39.855881
fd13a3f2fb0f83f9b1077dfc,北京伯豪瑞廷酒店,北京市,北京市,朝阳区,北京朝阳区光华路15号伯豪瑞廷酒店4楼(近中央电视台新址),(010)85885588,116.477792,39.920262
119e834050b766392a02e1fe,好特热温泉酒店,北京市,北京市,丰台区,北京市丰台区方庄芳星园二区12号,010-67655777,116.441749,39.86911
dffd631c68e61da538221c0b,昆泰嘉华酒店,北京市,北京市,朝阳区,北京市朝阳区朝外大街乙12号(朝阳门外大街与朝外市场街交汇处),(010)58285588,116.448904,39.929025
ea4a3dc9704b81374e554701,北京五环大酒店(东三环南路店),北京市,北京市,朝阳区,北京市朝阳区东三环南路15号五环大酒店2楼(华威桥西南角),(010)67673888,116.466602,39.876054
314106ef4cca71acca291564,中国铁建广场,,,,北京市朝阳区北苑东路19号院1,(010)84935588,116.447416,40.048553
7388dffd486373f2d3ff2379,人济万怡酒店,北京市,北京市,朝阳区,北京朝阳区京顺路101号(人济大厦楼内),"(010)59076666,(010)59076002",116.481954,39.984485
5c2dc21d9a84991d6fc02c5b,鹏润国际大酒店,北京市,北京市,朝阳区,朝阳区霄云路26号,(010)51086688,116.472729,39.965176
be1ea5efffa684a614948e13,北京港澳中心-瑞士酒店,北京市,北京市,东城区,东城区朝阳门北大街2号港澳中心瑞士酒店1楼,(010)65532288,116.442801,39.939009
35debf29f22f295da7da398f,黄河京都大酒店,北京市,北京市,东城区,北京市东城区夕照寺中街29号,(010)51335588,116.443376,39.895226
e96b4420e58e414082288a30,北京中航泊悦酒店,北京市,北京市,朝阳区,北京市朝阳区霄云路36号,(010)64689999,116.470219,39.962862
161a0ed28da0f4495cd4fe07,东方花园酒店,北京市,北京市,东城区,北京市东城区东直门南大街6号,(010)64168866,116.441397,39.944138
850815e173e4168243e19202,北京青蓝大厦酒店,北京市,北京市,东城区,北京市东城区东四十条24号（东四十条桥西200米）,(010)84021155,116.436126,39.939194
161a0ed28da5f4495cd4fe08,北京皇家大饭店,北京市,北京市,朝阳区,朝阳区北三环东路甲6号(中国国际展览中心处),(010)59223388,116.449131,39.966107
e3e2cd9d03cc38fac6f50deb,艾维克酒店,北京市,北京市,朝阳区,朝阳区东三环中路乙10号(东三环中路与通惠河北路交汇处),(010)65661188,116.469691,39.910763
0ed20a15415e928e57bfff0a,宝辰饭店(恒基中心店),北京市,北京市,东城区,北京市东城区建国门内大街甲十八号(恒基中心内),(010)65266688,116.434795,39.911875
61f634f6f006ec616b49f306,惠侨饭店,北京市,北京市,朝阳区,北京市朝阳区惠新东街19号,"(010)64918811,(010)64918046",116.430767,39.984454
69fcd6dfb17f0c36ca29153e,朝阳宾馆(金台西里店),北京市,北京市,朝阳区,北京市朝阳区小庄金台西路8号(朝阳路与金台西路交汇处),"(010)65014433,(010)65023870",116.47695,39.92335
3da907f36bd8884ab320a84f,保利大厦酒店,北京市,北京市,东城区,东城区东直门南大街14号（地铁2号线东四十条站B口旁）,(010)65001188,116.44265,39.940061
53349ee379da357722026255,北京长安大饭店(陕西大厦),北京市,北京市,朝阳区,北京市朝阳区东三环华威里27号陕西大厦,(010)67731234,116.465041,39.877551
550fd5f968b49460931fc902,强强北京国际商务酒店,北京市,北京市,朝阳区,朝阳区东三环南路102号强强酒店二层，地铁10号线十里河站A口附近(地铁10号线十里河站A口),(010)87385588,116.467024,39.872055
af1ae56bb8518e0b4207c10a,新大宗饭店,,,,北京朝阳区北京朝阳区麦子店街58号(近永安宾馆）,(010)65068888,116.474842,39.951613
1bf85b25b5fc3abda1a93402,北京船舶重工酒店,北京市,北京市,朝阳区,朝阳区东三环南路100号(联合国际大厦对面),(010)67353366,116.467368,39.872694
f696f3c257f5c4f21b11d533,温特莱酒店,北京市,北京市,朝阳区,北京市朝阳区西大望路甲1号（蓝堡国际中心1座北侧）,"(010)65812288,010-65812550",116.484043,39.918551
6904423f592398693904b10b,和乔丽致酒店,北京市,北京市,朝阳区,朝阳区光华路甲8号(万达广场北侧),"(010)57075700,010-59792331,13522783937",116.478017,39.917931
a5097bfacb4ca07af03cba08,兆龙饭店,北京市,北京市,朝阳区,北京市朝阳区工人体育场北路2号,,116.466955,39.938734
e889a744471096ac8605bf36,江西大酒店,北京市,北京市,丰台区,北京丰台区东铁匠营横一条8号江西大厦院内2楼(近南三环),(010)67608866,116.440713,39.862091
96627941d81d88007bf796c0,北京檀驿栈精品酒店(工体三里屯店),北京市,北京市,朝阳区,北京市朝阳区工体北路幸福一村十巷2号(工体北门对面民生银行旁),(010)64155548,116.452398,39.941035
4eb3b53358236c6c43024552,呼家楼宾馆,北京市,北京市,朝阳区,北京市朝阳区呼家楼向军南里二巷5号,010-65918164,116.466548,39.927807
e96b4420e5f0414082288a06,北京共济国际酒店,北京市,北京市,朝阳区,北京市朝阳区太阳宫北街1号(太阳宫太阳星城),(010)84410088,116.461463,39.976676
a1418eb404117c66ebe58208,北京中欧宾馆,北京市,北京市,朝阳区,北京市朝阳区农展北路55号(麦子店西街),"(010)65080998,(010)59195588",116.472477,39.952616
d5464cf8d4157a4efda7785d,将台艺宫酒店,北京市,北京市,朝阳区,酒仙桥路甲12号(近将台西路乐天玛特超市旁),(010)64345588,116.495977,39.976978
0058610853a6e1bc46e27401,国安宾馆,北京市,北京市,朝阳区,北京市朝阳区关东店北街1号(南三里屯路与朝阳北路交叉口南侧),010-65007700,116.459778,39.927996
4662d6be1d714df7b11e3649,北京朝外新金山奉元酒店,北京市,北京市,朝阳区,北京市朝阳区朝外西街3号新金山大厦,"(010)85629731,(010)85728302,13520668850,4006061230-24621",116.443379,39.926281
56e88cba94727a7ca4c75635,民航国际会议中心,北京市,北京市,朝阳区,北京市朝阳区花家地东路3号,(010)58250011,116.485403,39.989556
09185c56d26d7e44f119373d,实华饭店,北京市,北京市,朝阳区,北京市朝阳区北三环东路西坝河东里14号(三元西桥北侧),(010)64665522,116.454086,39.971244
7bfa08fc51653e6625d2bb02,兰溪宾馆,北京市,北京市,朝阳区,朝阳区育慧南路1号（环境保护中心院内）,"(010)84638189,(010)84639791",116.436216,39.993225
07266ed67b0527442fb9089c,北京晓景国际花园酒店,北京市,北京市,朝阳区,北京朝阳区东坝乡东晓景村206号(机场第二高速管庄路旁),(010)65701616,116.600889,39.950719
631c41573819807830f71de3,瀚金佰九号温泉国际酒店,北京市,北京市,朝阳区,四惠桥盛世龙源9号,(010)87799999,116.508357,39.911245
27f6ebbc999f89823a04b1e5,厚道酒店,,,,北京市朝阳区东直门外斜街小关56号（与新源西里东街交汇处）,"(010)57208181,(010)64601239",116.450867,39.953064
ea4a3dc91506e42d4e5547e6,佳龙阳光酒店(朝阳门涮肉),北京市,北京市,东城区,朝内大街75号,"(010)57398888,010-64038888",116.436549,39.931173
d52831f988db8fbe2efaa738,内蒙古大饭店,北京市,北京市,朝阳区,朝阳区西街南13号内蒙古饭店1楼,"(010)65762933,(010)65741909",116.556757,39.915838
cc0849a00ec3164994031903,圣天使酒店,北京市,北京市,朝阳区,北京市朝阳区呼家楼向军北里4巷10号,"(010)65919988,(010)52875993",116.465916,39.930032
c4200c389f4e8dde770269da,大北宾馆(大北写字楼东),北京市,北京市,朝阳区,朝阳区建国门外大街南郎家园甲一号(北京电视中心西侧),(010)65685511,116.473635,39.913363
4642844a93bef2c0c9fa5f0b,北京东长安饭店,北京市,北京市,朝阳区,北京市朝阳区建国门外大街甲10号,(010)65686688,116.45751,39.913298
bb1d38e47d813b540c0a7001,永安宾馆,北京市,北京市,朝阳区,北京市朝阳区农展馆北路甲5号,(010)65011188,116.476269,39.948932
bb1d38e4891a2f330d0a70b2,世界城-A座,北京市,北京市,朝阳区,北京市朝阳区金汇路10号,,116.459487,39.923191
844a750e24d307a062685801,京都苑宾馆,北京市,北京市,朝阳区,北京市朝阳区建国门南大街8号,(010)65291166,116.444126,39.910812
75b92e03b38d57f733169b13,海友酒店(建国门店),北京市,北京市,朝阳区,北京建国门外大街乙24号(北京站东边一千米),(010)65159909,116.445771,39.912251
2e00c5ddc32b0305d6851f95,汉庭酒店(北京欢乐谷店),北京市,北京市,朝阳区,北京市朝阳区周庄路308号,(010)67474998,116.490482,39.859763
eee1980415f7b9c582a12e13,北京家和百利酒店,,,,北京市东城区建国门内大街18号恒基商城F1,(010)65257688,116.434424,39.912085
5d6f4bab83e13315260bd02d,鸿炜亿家连锁酒店,北京市,北京市,朝阳区,北京朝阳区望京湖光中街8号3-4层,,116.467862,40.002367
61085211d2ac88b8c51b7507,赤峰宾馆,北京市,北京市,丰台区,方庄小区芳星园二区5号,(010)51475858,116.442108,39.870944
f60a15ed71a8c291bb17e77a,北京华丹艺术酒店(原华丹庭园商务酒店),北京市,北京市,朝阳区,朝阳区朝阳路三间房南里4号院（北京生物制品研究所院内）,"(010)85787776,(010)65758567",116.577924,39.919657
5211d21944ab0b417dc87601,荣宝宾馆,北京市,北京市,朝阳区,北京市朝阳区日坛北路4号(芳草地国际学校芳草地校区正对面),"(010)85634488,(010)85610235",116.455014,39.923322
d1469ee7ddcebc7b84330406,北京市交通饭店,,,,北京市东城区(原崇文区)东四块玉南街35号,(010)67196200,116.431167,39.88352
d6ee8724d55da1f9a8f0cd2d,明宫宾馆,北京市,北京市,朝阳区,朝阳区西坝河西里16号,(010)64207791,116.443033,39.97137
fa7da3e81a0f797b43d63ee5,福运星月宾馆,北京市,北京市,朝阳区,北京西坝河中里9号,(010)52032888,116.448353,39.97
a74481d660b9485ff503b808,北京华通新酒店,北京市,北京市,朝阳区,北京市朝阳区工体北路1号(春秀路内100米路东),"(010)64163630,(010)64160198",116.450929,39.941769
93df0dc3189d5532882fb508,北京丰荣君华酒店,北京市,北京市,顺义区,北京首都机场国门商务区李天路27号(近樱花园六区),(010)81463366,116.626899,40.041528
a12baa40933e2f4fe856fa07,北京中煤宾馆,北京市,北京市,东城区,北京市东直门外察慈小区10号楼（东直门长途汽车站对面）,(010)64613377,116.446335,39.948601
bf29b702584e688009b93a06,鸿润商务酒店,,,,北京市崇文区广渠门内白桥大街28号（坐落于东二环广渠门桥西北角）,010-67196888,116.446589,39.900614
504a13c3c3e9b62d4f3a59cf,ZMAX潮漫酒店北京欢乐谷垡头地铁站店,北京市,北京市,朝阳区,北京垡头翠城馨园125号楼,(010)67299299,116.51669,39.86311
4dddfb3d49ee595940ab9ac0,趣舍酒店,北京市,北京市,朝阳区,北京双柳北街39号天籁轩D座,(010)65756665,116.573326,39.910351
3da907f37d00fe4ab320a807,礼士宾馆,北京市,北京市,东城区,北京市东城区东四南大街礼士胡同18号,,116.430885,39.92775
7c5e480b050010adadb22a28,宝鼎商务酒店,北京市,北京市,朝阳区,北京高碑店南里1356号,(010)87741700,116.5341,39.906014
f9fd60627b407d060f0e6b3e,润德酒店,北京市,北京市,丰台区,北京市丰台区永外南窑34号,"(010)87682868,(010)87681650",116.441169,39.856361
bff8fa7d912c7db9c8213d34,玉轩阁快捷酒店,北京市,北京市,朝阳区,北京十八里店乡十八里店村2008号内,"(010)51072828,(010)87389188",116.487525,39.857333
f2f15ffbf6ae6091631c6703,平乐宾馆,北京市,北京市,朝阳区,北京市朝阳区西大望路磨房北里129-6号,67335201,116.483544,39.887345
d219bb1dc65cb392f50e7703,富润酒店北京站店,北京市,北京市,东城区,北京市东城区北京站东街6号,"(010)65271952,(010)64011277",116.4398,39.909879
d219bb1dc623b392f50e7730,嘉乐丽宾馆,北京市,北京市,朝阳区,北京市朝阳区望京丽泽中园二区208号,(010)64390888,116.478223,40.017666
a98cd28cabe06a60ca291585,北京家舍海晟国际公酒店式公寓,,,,北京市东城区东直门外大街36号海晟国际公寓25号楼2单元510室（东湖别墅南侧）,"(010)84532450,4006061230-15409,4006061230-14916",116.448396,39.945561
aad71ef5c45de2de9f09f7c4,北京即家轻奢酒店,北京市,北京市,朝阳区,北京朝阳区朝阳区广渠路15路大郊亭桥西北角金茂府小区23号院6号楼1单元3层,(010)56428899,116.493974,39.900314
251ef2782013eaeb3310af90,君汇梦圆宾馆,北京市,北京市,东城区,北京市东城区东直门内大街5,"(010)84074877,(010)84079797",116.43712,39.946727
1bf85b25b6e93bbda1a93409,尊泰酒店,北京市,北京市,朝阳区,北京市朝阳区北苑中街11号（青年小区南门）,(010)84946669,116.444978,40.034871
96471f2a06adeae557bfffb9,EGO主题驿站酒店式服务公寓,北京市,北京市,朝阳区,双井百子湾南二路非常生活1楼107室,(010)87759075,116.471336,39.904031
56e88cba94087a7ca4c75603,明益昌宾馆,北京市,北京市,朝阳区,建国路与双桥东路交叉口西,"(010)65459889,(010)52018068",116.606763,39.914326
e889a744476a96ac8605bf3c,北京五岳宾馆,北京市,北京市,丰台区,北京五间楼十号五岳大厦A座,(010)51228223,116.431144,39.854042
4bfec7b7388a52cf3a04b1db,北京上东今旅酒店,北京市,北京市,朝阳区,北京朝阳区东四环北路2号（霄云桥东南角）,(010)59078888,116.483728,39.973918
f912e7729a6d29d28bfc06c0,北京燕翔谭阁美饭店,北京市,北京市,朝阳区,北京市朝阳区将台路甲2号,"(010)59200088,(010)51389988",116.488227,39.983159
b388f9fd93d6ba58b35c6a07,长峰宾馆南三环店,北京市,北京市,丰台区,丰台区宋庄路6号(近地铁刘家窑站),(010)58037088,116.43531,39.861572
0ed20a15415c928e57bfff08,国展宾馆,北京市,北京市,朝阳区,朝阳区静安西街10号(三元西桥南侧),(010)64639922,116.451571,39.966444
191c77222a3949b9246e98f1,北京世界城国际服务公寓世贸天阶店,北京市,北京市,朝阳区,朝阳区金汇路10号世界城A座22层2211(世贸天阶北20米),(010)56189307,116.459592,39.923055
d470430b38cfdc8a83a00c1c,北京职来职往求职公寓,北京市,北京市,朝阳区,北京朝阳区华腾园4号楼近北京广仁医院,13371676303,116.469709,39.892396
9c055cb52caaac3a9ee3214f,二十一世纪饭店,,,,朝阳区亮马桥路40号,,116.48009,39.957971
f4b4947a211c46fc8c55ec6d,北京阳光・宾馆,北京市,北京市,朝阳区,北京市朝阳区双桥中路32号院1号楼101,"(010)85366388,(010)57268518",116.596674,39.898713
80b8c622c9ae8ba1e9f853ef,KUNTAI ROYAL HOTEL,,,,北京市朝阳区,,116.449776,39.928817
72e57fd75ef42fb6f8dc85d7,美源宾馆,北京市,北京市,朝阳区,望京广顺北大街36号彩虹桥往北150米路东侧,(010)64706299,116.475059,40.009191
f52c71f1d5936a446140a966,公园1872国际公寓,北京市,北京市,朝阳区,朝阳区八里庄北里218号9号楼,(010)85918248,116.505683,39.930104
b795f4d4b750dbf779b55cca,摩力圣汇地热温泉,,,,劲松路9号,,116.458412,39.890523
536a5b88377e5b28343a71e6,玉龙阁宾馆,北京市,北京市,丰台区,北京市丰台区东铁营顺一条8号(大陆写字楼院内),(010)67688835,116.436091,39.86272
a379f5c42368f59e9d9d68a1,北京晓景国际花园酒店,北京市,北京市,朝阳区,东小井206号,(010)65701616,116.579029,39.953464
78ddd70d429f5e74da2f286d,全季酒店(北京火车站广渠门店),北京市,北京市,东城区,北京市朝阳区广渠门外大街41号,(010)51692998,116.453222,39.899934
08f1f1f53075cfd388db730b,奥都宾馆,北京市,北京市,朝阳区,北京市朝阳区西坝河中里6号楼，国展西门3号门对面,(010)51400888,116.448965,39.969699
46c02a0d133582d9c3364441,北京京鑫博招待所,北京市,北京市,东城区,江擦胡同16号,(010)65287708,116.430954,39.910247
eec44d9c7e9c65e49b68b4f8,北京温馨日租公寓,北京市,北京市,朝阳区,北京市朝阳区建国路珠江绿洲小区2号楼,13716762081,116.56568,39.913996
00586108bf8995bc46e27463,北京紫檀万豪行政公寓,北京市,北京市,朝阳区,朝阳区建国路23号（紫檀博物馆，近高碑店）,(010)85578888,116.532224,39.918376
382e46b3f7211d88bfa8226f,北京临空智选假日酒店,北京市,北京市,朝阳区,北京市朝阳区京顺东路6号院1号楼1层,(010)64349999,116.535555,40.030512
e652a5d29e587c1e744ff192,68家庭公寓,北京市,北京市,朝阳区,北京市朝阳区东三里屯3.3服饰大厦对面胡同内(近中8楼),(010)64152346,116.464991,39.940586
3c7c7cb3d501aa4443afe66f,佳龙阳光酒店朝阳门店-C座,北京市,北京市,东城区,朝阳门内大街75号,010-57398888,116.437095,39.930874
02db2c41d8b34e2eeddfcaeb,北京宏运家庭旅馆,北京市,北京市,丰台区,方庄桥西四方景园二区6号楼,13011861643,116.447106,39.863124
cf991d408b36b9eec6effb95,郡王府饭店绣楼,北京市,北京市,朝阳区,朝阳公园南路19号,(010)51667512,116.49241,39.942348
14b905da4adf4daf03ec0101,三亚天域度假酒店北京办事处,北京市,北京市,东城区,东四十条68号平安发展大厦2层203,(010)84085499,116.43141,39.939324
ee8e9eb4106d1f9fa8175aaf,北京水晶主题酒店,北京市,北京市,朝阳区,北京市朝阳区武圣东里54号楼,(010)59374355,116.474576,39.882596
043ee768b3df11e65bf6be68,998快捷宾馆（北京站店）,北京市,北京市,东城区,北京北京东城区毛家湾胡同1号,"(010)65286056,(010)65268085",116.435818,39.910389
844669b34e071ff3a4c756c7,品爱主题酒店,北京市,北京市,朝阳区,石门东路百子湾西里104号2楼,"(010)87725022,4008925222",116.508499,39.906554
08f1f1f53073cfd388db7301,农展宾馆,北京市,北京市,朝阳区,朝阳区东三环北路16号（农展馆院内）,(010)65096221,116.475087,39.945586
60942432613f87a1f8f0cbaf,北京中骏世界城酒店式服务公寓,北京市,北京市,朝阳区,北京市朝阳区金汇路10号世界城A座3301室,"(010)65617113-0,(010)65617113,4006061230-104977",116.459214,39.923005
a50cf672c76e61ca0b69d913,君享家度假公寓(九龙山店),北京市,北京市,朝阳区,北京市朝阳区百子湾南二路70号乐成豪丽6号楼1单元,"(010)59626087,(010)57135011,4006061230-13193",116.483634,39.902455
b388f9fd93d4ba58b35c6a01,鸿雁宾馆,北京市,北京市,朝阳区,朝阳区酒仙桥路5号,(010)64315550,116.495903,39.992495
848ec8d335f04c97882fb562,北京金珠旅馆,北京市,北京市,朝阳区,农光里25号楼旁(10号线地铁劲松站C口),18612200987,116.469043,39.88904
9d9221f0ce1b048681a12e36,北京特色公寓,北京市,北京市,朝阳区,北京广渠路29号院九龙花园,15910659217,116.475558,39.900506
4a8160e93083fc8b354aae74,北京东方凯旋商务酒店,北京市,北京市,朝阳区,朝阳区朝外南街天福园2号(朝阳区政府对面),"(010)89510808-888,(010)89510808",116.45147,39.928018
4a0143abe277cc47018972c8,北京阳光温特莱酒店（方庄店）,北京市,北京市,丰台区,北京成寿寺路甲12号颐方园体育健康城内,(010)67686928,116.453994,39.856932
6440075b5ca1c0d6c72ba154,培新宾馆-酒吧,北京市,北京市,东城区,北京培新街甲5号,"(010)67125588,(010)68398498",116.439025,39.896579
166342c76c3b8c4a8505bfc2,北京悦来客栈,,,,北京朝内南小街禄米仓73号西巷-3,18801087979,116.436542,39.922901
b4e18f6022f5466d17b54b1d,天之星酒店,北京市,北京市,朝阳区,北京朝阳区西坝河中里36号楼,"13700817497,(010)57754241",116.444944,39.968359
64186e804b3081739dec2b87,北京富顿中心家庭旅馆,北京市,北京市,朝阳区,东三环南路58号（劲松桥东北角）富顿国际公寓C座三层315(近南磨房路),,116.469513,39.89068
8afec9a550441597441a320a,悠乐汇宏悦酒店,北京市,北京市,朝阳区,北京朝阳区广顺南大街望京园609号楼悠乐汇A座9层,"(010)84991688,(010)84787328",116.483177,39.995347
f46c2668f3bbdc8fc33644c5,北京都城小舍青年旅舍,北京市,北京市,朝阳区,劲松都城心屿小区229栋2408室,13701375120,116.457617,39.891512
3be122e1ccb05e4b1ef74d00,福怡苑宾馆,北京市,北京市,朝阳区,北京市朝阳区定福庄北街福怡苑小区12号楼(地铁八通线传媒大学),(010)65462325,116.560752,39.925998
a5097bfacb49a07af03cba07,北京华夏明珠宾馆第一分店,北京市,北京市,东城区,北京市东城区老钱局胡同18号,(010)51830521,116.436562,39.911286
f5e3bcaef546c9d85e17c33e,京鲁缘宾馆,北京市,北京市,东城区,朝内南小街22号楼（靠近协和医院）,(010)65125088,116.433732,39.918348
1d137c41a9c30701c3364462,北京小苹果温馨青年公寓,北京市,北京市,朝阳区,北京团结湖公园东门南二条6号楼,,116.474829,39.931656
31bfc94b0546541c744ff188,七彩阳光宾馆(西大街店),北京市,北京市,丰台区,北京市丰台区分中寺481号(燕竹医院斜对面),(010)87695529,116.461965,39.858467
b15ec171b03d9da6725e8073,首都机场国际时尚酒店,北京市,北京市,顺义区,北京首都机场天竺家园18号,(010)56212235,116.595312,40.048252
34e485088956dbfbd8d89101,北京崇东旅馆,北京市,北京市,东城区,北京市东城区崇文门东大街8-3号,(010)67186853,116.435587,39.906495
5508504d7884a5d2c7f02561,行者居连锁宾馆东铁营店,北京市,北京市,丰台区,北京市东铁营横一条35号,"010-67602199,010-67602899",116.440389,39.855664
8494d639dcb7f9c671455bbc,北京新开俏佳人求职公寓,北京市,北京市,朝阳区,北京朝阳区双井百环家园11号楼,13121007688,116.471689,39.896889
75ed8c20eac918132bd7ab07,百环爱家学生公寓,,,,广渠路66号院百环家园4号楼,,116.473691,39.895648
4f5357063fee934f00ff2da4,北京远景国际公寓(金港国际店),北京市,北京市,朝阳区,北京市朝阳区西大望路19号金港国际社区,13520741314,116.484533,39.903334
c7fb04bda6c4a414fa0cad79,旺得福宾馆,北京市,北京市,朝阳区,北京市朝阳区红庙北里90号楼,(010)65932998,116.488326,39.923738
1d31ad3dc9e0776df4e73bb7,逸凡阳光主题公寓北京朝阳十里堡地铁店,北京市,北京市,朝阳区,北京朝阳北路129号,"15810664288,4006061230-19968",116.509227,39.929704
873e812e073c701fafee7aec,含雅公寓（北京苹果社区店）,,,,北京国贸双井百子湾苹果社区南区6号楼,15901168085,116.477526,39.904381
d0b8923fe43b2cfbb4f42fbd,北京印象江南商务酒店,北京市,北京市,朝阳区,十里堡东陈家林2号院,"(010)65589683,(010)65447462,(010)65447426",116.515441,39.91825
a1a0b609dcd70297d92f2893,北京姐妹之家公寓,,,,北京市朝阳区百环家园10号楼,,116.47186,39.896633
7b7e97fb7f1ddbc6bb17e7a9,石佛营宾馆,北京市,北京市,朝阳区,北京市朝阳区石佛营路石佛营东里105号院A座(如家酒店南侧),010-85826685,116.509337,39.941164
4bb049d9e1080844980050ad,金地宾馆,北京市,北京市,朝阳区,东土城路5号林达大厦对面,"(010)51099774,(010)64204616",116.437454,39.961962
66d0c2db2c83c556f33cba5e,北京瑞客门精品公寓世贸天阶店,,,,北京金汇路6号中骏世界城B座16层,(010)65661986,116.458467,39.923348
3ce6837c08d01d288936eeff,北京北旅之家,北京市,北京市,朝阳区,北京市朝阳区百环家园10号楼（十号线双井站东北B出口）,13522845124,116.47056,39.894753
03835011a4740e14d22dd6d0,北京奕馨月大学生求职公寓,北京市,北京市,朝阳区,九龙花园3号楼,18611162007,116.476156,39.899269
e9ce1fc9dcd8d7de3586f4f4,北京蜡笔小新青年公寓,北京市,北京市,朝阳区,北京市朝阳区广渠路29号九龙花园1号楼,"1,770,113,981,213,330,000,000",116.475172,39.899683
ffd6d4039c05869617b54b01,北京朝阳佳丽酒店,北京市,北京市,朝阳区,北京市朝阳区酒仙桥乙21号,"(010)64363399,(010)64363366",116.4955,39.974959
c353329feb0cc6d54e5547f5,北京长安1号公寓,北京市,北京市,朝阳区,北京市朝阳区建华南路6号长安驿A座,13810529831,116.451009,39.911987
51b9f4fe430a3aec03ec0145,北京美霓家庭式服务公寓崇文门店,北京市,北京市,东城区,北京市东城区西花市大街新景家园小区3楼,"(010)57100026,18911277828,18501388922",116.430951,39.902369
24d05508618d52b612882438,源泉宾馆崇文门分店,,,,东城区南花市大街1号,(010)87193908,116.433757,39.903129
f2d5318096a3bdf715a1906a,北京玫瑰求职公寓,北京市,北京市,朝阳区,北京市朝阳区双井百环家园5号楼,15910659217,116.47267,39.896439
91fd1bb4ccc434c3abf72997,北京市金丰宾馆,北京市,北京市,朝阳区,北京市朝阳区石佛营西里21号楼(姚家园路),,116.506284,39.941261
4ad1901e43ced8d37dc8768e,北京书香谧静公寓,北京市,北京市,朝阳区,北京北京市朝阳区百环家园8号楼,13699223275,116.469991,39.89563
d82895845dce11c9b320a8c6,北京鹏煜短租公寓,北京市,北京市,朝阳区,北京朝阳区东三环双井百环家园,18911546965,116.471689,39.896889
9bd941d9ce334738a9175a66,北京静轩阁求职公寓,北京市,北京市,朝阳区,北京市朝阳区广渠路66号院15号楼地铁10号线--劲松站A口,"1,880,138,794,615,210,000,000",116.471199,39.894946
d4e54176881b045fc9fa5f68,北京莘莘学子公寓,北京市,北京市,朝阳区,北京北京市朝阳区百环家园18号楼,13699223275,116.472807,39.896841
bc2c2615fb4385ec593ac87a,瑞客门精品公寓(北京三里屯店),,,,北京朝阳区工人体育场北路21号永利国际大厦2号楼,(010)64610392,116.451266,39.940319
34f68ab0a60fa5138f55ec2d,北京亚太花园酒店,北京市,北京市,通州区,北京市通州区玉桥西路103号,(010)81528822,116.677598,39.892744
602c4a12987e8cf3373a71d9,通州运河苑温泉酒店,北京市,北京市,通州区,北京市通州区宋庄镇白庙村(近京哈高速白庙出口),,116.784444,39.951149
e6ee2fd2e302e9512b11d113,运河源温泉酒店,北京市,北京市,通州区,北京市通州区运河西大街172,(010)81586668,116.689962,39.897263
fa835ce212c7c5afe812e402,月亮河温泉假日酒店,北京市,北京市,通州区,北京市通州区月亮河河滨路1号,(010)89523737,116.68193,39.926758
eb37fa8f70a6d944b21e36d6,北京金港湾商务酒店,北京市,北京市,通州区,北京通州区新华南路87号（潞河医院对面）,(010)69957878,116.664187,39.908758
9056baf982fd0244047ce886,爱沐电影主题酒店,北京市,北京市,通州区,北京市通州区新华西街北苑一号爱沐大厦内,(010)80885528,116.649611,39.913314
d05698dc6f1b846ed72ce2c9,金恒宾馆,北京市,北京市,通州区,北京通州区运河东大街50号（卜蜂莲花东70米），近乔庄南路,(010)81555029,116.697243,39.896715
7d8e4612fbdb5f18d0ff2351,99优选酒店(北京通州中国宋庄艺术区酒店),北京市,北京市,通州区,宋庄镇京榆旧线与宋梁路交叉口西南角（宋庄公交车站南侧）,"(010)69597668,(010)69531188",116.736551,39.949369
2fd2beab803ce54b7adbd230,北京金松宾馆(北京北方红旗机电有限公司医院西南),北京市,北京市,通州区,通州区新华南路81号,"(010)69556608,(010)80882599",116.664221,39.9091
50fb64ffff2e6b44e9f85328,九凯宾馆,北京市,北京市,通州区,通州区车站路46号（通州车站路中仓小区西侧）,(010)69557052,116.669254,39.910029
b533ea4a8ad0f5584e6d46e2,瑞林宾馆,北京市,北京市,通州区,通州区九棵树西路114号（旗舰凯旋旁）,(010)81523760,116.6512,39.884051
f60a15ed3d768ef5bb17e700,锦航商务酒店（首都机场店）,,,,北京首都机场顺义李天路南半壁店段11号,(010)52132626,116.640848,40.041249
be1ea5efffb684a614948e03,新航岸酒店,北京市,北京市,顺义区,北京市顺义区樱花园三区5号楼,"(010)81465656,(010)81462183",116.633859,40.034242
d717f392324fcc68ca09f045,丽枫酒店(通州果园店),北京市,北京市,通州区,北京市通州区运河西大街105号,(010)81566678,116.683036,39.897553
9f97b1c5b6a5b81fb74f54ae,运河苑娱乐中心,北京市,北京市,通州区,通州区宋庄镇白庙村潮白河公园（近右堤路）,(010)69592928,116.784355,39.950442
eb22a53029254770ed74f80e,东关宾馆,北京市,北京市,通州区,北京新华东街6号（京客隆超市旁边）,010-60538788,116.682507,39.913871
094cf746e9bb3896932ca37b,相遇爱家故事主题酒店,北京市,北京市,通州区,北京通州区梨园城铁贵友大厦四层（近梨园城铁）,(010)57620122,116.673269,39.89018
6ee010205a1d799153e5c589,宋鑫旅馆,北京市,北京市,通州区,北京市通州区京榆旧线北京宋庄宾馆附近,(010)89578229,116.731258,39.94891
61297a8757aea38571455b4a,万隆宾馆(通胡大街店),北京市,北京市,通州区,北京市通州区通湖路８０号京贸中心1层,(010)80851258,116.691612,39.918527
72540a45c7d85744b54f5429,北京溢海嘉诚宾馆,,,,北京市通州区怡乐中街底商85号（通州区东直门医院东区北门对面西侧）,"(010)81536155,18311281699",116.650369,39.891773
86c660394ef8548a9de3211e,西雅图精品主题酒店,北京市,北京市,顺义区,北京市顺义区富壁路8号,"(010)57111066,15201617212",116.647804,40.039617
4d3689d7d78d0474aecb66c9,泰洋盛雅主题商务宾馆,北京市,北京市,通州区,通州区九棵树西路172号（麦当劳北侧50米）,(010)60545686,116.647106,39.881082
b3aa435dc8120812157643c3,福成国际大酒店,河北省,廊坊市,三河市,京榆大街963号,,116.843838,39.952162
925c550f970f7aab5a3ac8c6,京东第一温泉度假酒店,河北省,廊坊市,大厂回族自治县,河北省廊坊市大厂回族自治县穆斯林大街276号,"(0316)8865511,(0316)8865518,010-66067199",116.947758,39.964607
befdb29205030af887154112,新东大酒店,,,,t阳西大街8号(近东风电器城),(0316)3222020,117.079209,39.991927
c7a483a5b1abf0d249fc8d3d,如意住宿,天津市,天津市,蓟县,天津市蓟州区中昌北大道明珠大厦西100米处(环岛大厦附近),(022)29708979,117.424819,40.048324
c7eca12b583ad537e115f96a,北京阳坊大都大饭店,北京市,北京市,昌平区,北京市昌平区阳坊镇b座,(010)69768880,116.145488,40.143751
9ee392b8d2a39658bbbd634a,北京北方长城宾馆,北京市,北京市,昌平区,南口镇马坊村1号（中国兵器工业第二O八研究所）,(010)80190398,116.115897,40.238751
02e9ca84d48a086f63180999,星香源宾馆,北京市,北京市,昌平区,北京昌平区阳坊镇中心南街19号,(010)69760125,116.146308,40.14572
076800e2521094c8102935c4,怡然乡村酒店,北京市,北京市,昌平区,北京北京昌平区阳坊镇西贯市村,(010)60792612,116.146496,40.147452
30c391c1a16d6b923586f4e7,回家乐乡村酒店,北京市,北京市,昌平区,北京北京市昌平区阳坊大都涮羊肉总店后侧大都c座,(010)69768858,116.147271,40.142371
48eb00588dbd1bb42fe67b06,昆泰嘉禾酒店,北京市,北京市,昌平区,北京市昌平区回龙观西大街107号,(010)59910088,116.327323,40.082092
8e3d8c9a55877541ad0457d4,北京龙城温德姆酒店,广西壮族自治区,南宁市,青秀区,北京昌平路317,(010)80799988,116.307932,40.093238
d3e3ba84eb42430cd8d891d7,北京军都大酒店(军都旅游度假村),北京市,北京市,昌平区,北京市市昌平区水库路12号,"(010)60713338,(010)60712138",116.274443,40.245727
56f2f696920404990aa8d436,且亭山水酒店,,,,朝凤北路8号(临近十三陵水库风景区和蟒山公园和凤山温泉和东关地铁站),(010)60713865,116.277754,40.246783
a3f21eeed2fd7f5d2fb17e3d,碧水大厦,北京市,北京市,昌平区,定福皇庄75号,(010)69738848,116.288496,40.12382
4edf9fbf767c998dcc06a46e,华清温泉宾馆,,,,北京市朝阳区立水桥甲2号,(010)84826665,116.42475,40.06389
1020060f03758ad81994c6b5,北京太申祥和山庄,北京市,北京市,昌平区,北京市昌平区北清路5号,"(010)80713807,(010)80713806",116.292108,40.099607
2a7a25ec4b38e57a6c3e1b34,北农酒店(北农路店),北京市,北京市,昌平区,北京市昌平区北农路7号,(010)80797788,116.312149,40.097251
d6ee87244beb57e0a8f0cd67,地铁度假村,北京市,北京市,昌平区,朝凤南路7号(近朝凤南路),"13901229197,(010)60712288",116.276562,40.244865
fc7675243cf5e2e34e776e3d,北京瑶台温泉酒店,北京市,北京市,昌平区,北京昌平区崔村镇棉山村北(怀昌路),"(010)60727000,(010)60721188",116.33481,40.21135
b7021bf81a49c0e3f4e73b4c,富来宫温泉酒店,北京市,北京市,昌平区,小汤山镇大柳树环岛北200米路西北京富来宫温泉山庄,(010)61781080,116.410269,40.187949
9fb43a21345cbb76c1f1cfdf,神舟商旅永丰酒店公寓,北京市,北京市,海淀区,海淀区永丰科技园丰智东路5号( 上地、中关村地区 近13号线西二旗站),(010)52398788,116.260557,40.073533
69fcd6dfb17b0c36ca291502,昆钰酒店,北京市,北京市,昌平区,北京市昌平区沙河镇沙阳路11号,(010)51529388,116.26629,40.12775
0b1301a355868ba4db131822,神舟商旅酒店(昌平振兴路店),北京市,北京市,昌平区,北京市昌平区振兴路9号,010-57938588,116.240209,40.213482
d83717e37837b9f7343a712c,北京FOX夜归人主题酒店东街店,,,,昌平区鼓楼东街33号（龙福居隔壁）昌平一中路口西100米,(010)69725866,116.244415,40.230601
15ed53ced316744d9322e0b6,恩德民酒店,北京市,北京市,昌平区,中东路400号院-5,(010)84812299,116.415996,40.06524
060f5e53e1a0d6ce081cc702,汤山假日会议中心,北京市,北京市,昌平区,北京市昌平区小汤山镇街口往西1000米,(010)61785522,116.385005,40.18069
d219bb1dc65eb392f50e773d,千子桐连锁酒店（南环店）,北京市,北京市,昌平区,北京市昌平区南环东路21号,010-69728818,116.250702,40.219449
50fb64fff8b76844e8f853a1,顺玮阁大酒店,北京市,北京市,昌平区,北京市昌平区北七家镇王府街32号(上承路与北七路交叉口往东),(010)60788886,116.389446,40.107617
75d0881a945033543a04b101,东三旗宾馆,北京市,北京市,昌平区,北京市昌平区北七家镇东三旗村东三旗邮政支行旁（地铁天通苑站出口北走200米）,(010)61743227,116.420967,40.095328
504d6113fbc674aa4657260b,百福源宾馆,北京市,北京市,昌平区,昌平区回龙观镇定福黄庄村87号(碧水庄园南门对面),(010)61779881,116.296111,40.116042
fa01e9371d4f0753774ff103,家自居梧桐树宾馆,北京市,北京市,昌平区,北京市昌平区昌盛园一区8号楼临6号昌盛园小学北侧(近中国化工大学),(010)60742755,116.258136,40.216824
e66414fcc10378a77f29bd1a,北京且亭山水酒店有限公司,北京市,北京市,昌平区,朝凤北路8号,(010)60713865,116.277753,40.246701
72e57fd75c1b2db6f9dc85f2,太阳城奥林匹斯俱乐部,北京市,北京市,昌平区,北京市昌平区立汤路30号,(010)81767766,116.42308,40.15484
dffd4642510730ab3d9a5eae,昌平区财政局财会之家,北京市,北京市,昌平区,北环路妇幼保健院往西300米,(010)69716688,116.243654,40.235862
cb4fd14663eca1429d9d6879,陆陆顺快捷酒店,北京市,北京市,昌平区,回龙观镇太平庄北街旺发综合市场北二楼28号,"(010)82465332,(010)82465332-0",116.351008,40.069482
060f5e53525861aa081cc759,顺通苑宾馆,北京市,北京市,昌平区,天通苑西一区25号楼4门,(010)84841210,116.41651,40.074046
108b1ceafa2efdac3586f419,宏润宾馆,北京市,北京市,昌平区,北七家镇平西府街宏福大厦对面,(010)69795179,116.37716,40.106136
ae148ec89b6c6009c4f50d0e,爱家宾馆,北京市,北京市,昌平区,北京市昌平区温泉花园a区西门,"(010)69755418,13911242848",116.416073,40.133885
68f5e2bc50fde5a54e2fdf75,和谐酒城,北京市,北京市,昌平区,北京市昌平区良庄街2号楼,13161159628,116.364469,40.091472
e22048a8cd633428a5da39ef,红福家宾馆,北京市,北京市,昌平区,北京北七家镇郑各庄村宏福苑小区85号,(010)81789883,116.370164,40.116554
606289fdbf14c154a2046400,国寿酒店,,,,北京北京市昌平区鼓楼南大街15号,(010)69746346,116.239741,40.225729
40b65b735be58b7ca2d23079,人汇宾馆,北京市,北京市,昌平区,"北七家镇平西王府20号(温都水城对面,快3车站平西王府西站)","(010)57117438,13366278791",116.381873,40.106813
72aa25139758f647077ce813,财会之家康体中心,北京市,北京市,昌平区,北京北环路（昌平药材公司以西）,(010)69716688-1023,116.243953,40.235741
204c2e5dae8de93b9cf779ce,北京温都水城红楼岛,,,,北京北京市昌平区北七家镇宏福创业园活动中心,,116.378867,40.108179
e0dad4b0735dbe0f31169bbb,清水大水城国际消防会议中心,,,,北京市昌平区,,116.373297,40.111163
163faf169ddfe2fa067ce8ee,奥丰宾馆,北京市,北京市,昌平区,天通苑1区101-402,,116.42384,40.06877
4eb3b53341ca65764302451d,三合源宾馆,北京市,北京市,昌平区,"回龙观三合庄盛商厦西侧(天露园小区一区东门,近华北电力大学)",(010)57957161,116.323968,40.091381
0adce3e2e8ac221f81a00cae,清秀源宾馆,北京市,北京市,昌平区,北京市昌平区东环路23-9号,(010)89707100,116.246031,40.229762
545b88789db0293b6c476031,北京赛家宾馆,北京市,北京市,昌平区,东沙各庄377号,(010)89759206,116.414077,40.133443
85ce4c687db3e5fefa0cad2f,北京快乐年代宾馆,北京市,北京市,昌平区,北京市昌平区商业街32号（昌平法院，体育馆附近),(010)56245808,116.237705,40.220892
c90208e9682a4d6e2902e1a6,北京旗盛宾馆,北京市,北京市,昌平区,立汤路七家镇东三旗村406号,(010)61751727,116.420784,40.09368
40f19eed190387033fe23115,福瑞祥宾馆,北京市,北京市,昌平区,北京市昌平区北七家镇政府西侧,(010)89755918,116.430104,40.124214
2c17b0007ca4fb1ea8f0cdce,北京丰晏祥宾馆,北京市,北京市,昌平区,北京市昌平区天通西苑19号楼(天通西苑北门往南60米),84816680,116.415569,40.072968
ef9c653c3262beb1a7c7566a,北京草莓派家庭公寓,北京市,北京市,朝阳区,北京锦芳路1号院旭辉奥都小区10号楼,13581808695,116.423827,40.051218
680fb70394720f858ab988e3,东航大酒店,北京市,北京市,顺义区,北京市首都机场小天竺路1号,(010)64575588,116.59502,40.052616
9694036112d0f8281ce999fa,宏瑞御景国际酒店,北京市,北京市,顺义区,北京市顺义区安平路3号,(010)53258827,116.567166,40.125184
5c56edd6715b3f43a1d23002,京林大厦,北京市,北京市,朝阳区,南平东里乙1号首都机场,"(010)64572626,(010)64583715",116.608219,40.051335
26a491a5ff527e52c7f025a1,北京花水湾磁化温泉度假村,北京市,北京市,顺义区,北京市顺义区高丽营镇北高路99号,010-59451833,116.517964,40.184063
4cccef1c1f1ef57bd22dd653,西御园会议度假中心,北京市,北京市,昌平区,西御园会议度假中心桃峪口水库北侧,(010)61707450,116.451319,40.248613
edd64ce1305d6f883fe2313d,豪雅商务酒店(天竺大街),北京市,北京市,顺义区,顺义区天竺镇府前二街一号（府前二街与天竺大街交汇处）,"(010)64533395,(010)64533388",116.592006,40.068874
a620adccfb768008b6147f73,空港世纪商务酒店,北京市,北京市,朝阳区,首都机场路6号近t2航站楼(免费24小时接机010-64590990),"(010)64590991,(010)64592601,(010)59143311,(010)64590990",116.599737,40.071872
13c33cc45a9cc668afee7abf,顺天盛宾馆,北京市,北京市,昌平区,天通苑北三区34号楼4单元102号,010-56548234,116.439286,40.080549
2fd2beab804fe54b7adbd23d,天驿宾馆,北京市,北京市,朝阳区,北京市朝阳区首都机场南平路1号,010-64577711,116.608492,40.052984
a5583121160d24d971210bf9,格蓝特快捷酒店,北京市,北京市,顺义区,北京市顺义区京密路（京沈路）衙门村村口,(010)60498909,116.620234,40.160345
25ec69fcf413a364c26c142c,北京海云天酒店,北京市,北京市,顺义区,北京北京市天竺空港工业开发区A区天纬四街10号,(010)80489555,116.568075,40.077025
d6fb4a641d8a2f7c250bd03b,北京首都机场宾馆,,,,首都机场西路8号(首都机场T1T2航站楼南侧),(010)64577788,116.595478,40.076642
c874079ab5a71f1d0c0e6bc7,天顺宾馆(天通苑店),北京市,北京市,昌平区,北京天通苑东三区56号楼18门（苏宁电器南100米环岛北站下车即到）,13301020219,116.443584,40.076881
5e93ce9431b57fc2077ce82b,北京顺义区温馨旅馆,北京市,北京市,顺义区,北京顺义区后沙峪镇西泗上村中兴街35号,"1,871,019,365,218,210,000,000",116.492481,40.101496
606289fdb3b6d533a3046485,洪源昌盛宾馆,北京市,北京市,顺义区,高白路与顺沙路交叉口东150米,(010)69454326,116.511093,40.175463
504330fc8c1723c44e776eb4,北京到家真好公寓,北京市,北京市,昌平区,燕丹乡燕青公司31号楼1202室,18601114717,116.448357,40.094366
fe599479bc02049004fef5dd,红苑旅馆,北京市,北京市,顺义区,北京市顺义区顺余东路2号,"18611343800,(010)69471458",116.62747,40.134537
50f7d1468c21ffdd72210b36,京都空港宾馆,北京市,北京市,顺义区,北京市朝阳区小天竺一街36号,,116.596518,40.050835
9c30ebfb358fb0cfbbbd63fb,北京志强宾馆,北京市,北京市,顺义区,高丽营镇顺沙路4村段9号（高丽营红绿灯向东50米路北）,010-69456688,116.509694,40.175838
89fd4ea3520edc3ae5e9659c,瑞麟湾温泉度假酒店,北京市,北京市,顺义区,北京顺义区南彩镇顺平辅线39号,(010)89468899,116.744919,40.146627
34e485088952dbfbd8d89105,北京顺义宾馆,北京市,北京市,顺义区,北京市顺义区府前中街3号,(010)69444815,116.661976,40.138235
b7021bf8199ec7e3f4e73b3d,北京金航线国际商务酒店,北京市,北京市,顺义区,北京市顺义区四纬东路8号,(010)52139999,116.667385,40.055369
65a13341b1a8464cfe0eb079,北京顺鑫绿色度假村酒店,北京市,北京市,顺义区,北京市顺义区李遂镇西潮白河边上,(010)89485588,116.746415,40.091363
18df411486b9cf333617dc1a,东方太阳城-嘉宾国际酒店,北京市,北京市,顺义区,北京市顺义区东方太阳城社区(潮白河畔右堤路),"(010)89431700,4006061230-26819",116.728481,40.093797
d6df91c11f240573f7b91601,北京裕龙花园大酒店,北京市,北京市,顺义区,北京顺义区裕龙花园二区甲九号(燕京桥往东北方向顺平东路),(010)69445678,116.672869,40.126683
7fee9925f07a2a20c9e33cb0,仁和名辰假日酒店,,,,北京顺义区仁和镇双河大街甲57号4幢,,116.663079,40.103343
99b25b78d5f9b8ea29b97ccc,华利佳合望潮苑度假村,,,,仁和镇河南村村东（彩虹桥前右转，右堤路2公里）,,116.713206,40.111449
a24581d86e5e8acaadcb66cf,富兰岛酒店,北京市,北京市,顺义区,北京石园南大街33号楼,"(010)89497857,(010)89489977",116.66765,40.114461
cf84bcb5f0e389cee31103ad,北京来来酒店(顺义店),北京市,北京市,顺义区,北京市顺义区西辛南区66号（卧龙环岛东南角）,(010)61408588,116.646635,40.142161
fb68c765889451832afc487b,派酒店北京燕京桥店,,,,北京顺通路6号燕京桥南桥头东侧,(010)89448761,116.665726,40.120799
0b242815963e440de6073877,北京雅客之家宾馆,北京市,北京市,顺义区,北京市顺义区石园南区33号楼鑫海运通对面,010-89443817,116.667401,40.114191
be1ea5ef6ddb72bf14948ecd,北京天昊源度假村,,,,北京市平谷区峪口经济开发区峰云街5号,(010)61988899,117.026919,40.149452
8f9318221826d68b01294f09,雨燕商务酒店,北京市,北京市,平谷区,北京市平谷区新平北路40号,"(010)69962002,(010)89988505",117.126689,40.15247
ab58e71446b380d0b817e714,北京佳禾兴旺宾馆,,,,新平东路18号（大马环岛北京客隆平谷店南）,(010)69977460,117.130181,40.148414
53cebd509c3caa612a02e1cc,碧海山庄,北京市,北京市,平谷区,北京市平谷区金海湖旅游区8号,(010)69991201,117.311652,40.183564
2ce6f45d5dfb22e71ce99975,北京南华山庄酒店,北京市,北京市,平谷区,海子山庄路金海湖付坝1号,"13681287771,(010)60980268",117.314276,40.175466
eac8ba6e88a4268a09a8d412,金海宾馆,北京市,北京市,平谷区,平谷金海湖大坝西侧,(010)53206676,117.307494,40.188188
6df0a81c43b87e8d72210bea,北京会军农家院,北京市,北京市,平谷区,北京金海湖镇海子村海子前街北一巷20号(海子桥头第一家),"(010)69996678,15810623301",117.30265,40.1813
606289fdbc4cc054a20464c8,读月山庄,北京市,北京市,平谷区,平谷区金海湖海子南环路1号(近碧海山庄),(010)69996922,117.306012,40.178892
d4b9649c91eeb4dfe215f952,天津京蓟圣光万豪酒店,天津市,天津市,蓟县,蓟州区渔阳区凤凰山路6号,(022)29179999,117.464996,40.073143
a7c56ee0c394b7cea3acc42b,山水郡国际度假酒店,天津市,天津市,蓟县,天津市蓟州区渔阳镇(城关镇)燕山东大街16号,(022)82758888,117.483565,40.078835
8484c404b91f1683306212ae,天津蓟县郭家沟博雅人家农家院,天津市,天津市,蓟县,天津下营镇郭家沟村,13132253314,117.492501,40.195088
a3922c5a1ba4247c373a719e,天津途家斯维登度假山庄,,,,天津市蓟州区下营镇团山子村27号,(022)29719828,117.496318,40.18482
1701a357860bd070d6b74ed2,天津蓟县坝尺峪向阳农家院,天津市,天津市,蓟县,天津穿芳峪乡坝尺峪村16号,13820972555,117.554595,40.130981
98ddc0bfd6195f237bf796d9,春来山庄,天津市,天津市,蓟县,天津市蓟州区下营镇道古峪村三区八排,"(022)22711729,13207617506",117.555266,40.160004
21fdd8a5b8de0dbbcd06a4a1,蓟县黑峪神秘谷咱家小院客栈,天津市,天津市,蓟县,渔阳镇东果园村(近果营路),18202297810,117.47974,40.097567
2ce384a0c9830eae86420e20,蓟县快乐人家农家院,天津市,天津市,蓟县,天津市蓟州区下营镇下营村8区135号,13820859853,117.456313,40.189981
7ed21108654857220bf5ebe3,天津蓟县梨木台邓小军公寓,天津市,天津市,蓟县,下营镇船仓峪村三区11号,15122360525,117.546173,40.181806
c94c630b455284e683a00cd8,蓟县龙门小筑农家乐,天津市,天津市,蓟县,天津市蓟州区东水厂村,13920136352,117.53196,40.149925
ace75d855a4ba9099cec2b97,松鹤居农家院,天津市,天津市,蓟县,城关镇桃花园村(凤来阁西),15922161847,117.433152,40.07109
6be00480ce55b94426e0a01e,天津蓟县梨木台宾馆,天津市,天津市,蓟县,天津市蓟州区黄马路附近,13702168315,117.544197,40.177665
637df60a74f4126b41afe6e3,怀来宾馆,河北省,张家口市,怀来县,河北省张家口市怀来县沙城长城中路东侧,(0313)6223936,115.525532,40.408916
2a73fa627eb7f3bec91b952e,怀来北京大唐官厅温泉培训中心宾馆,河北省,张家口市,怀来县,河北省张家口市怀来县桑园241省道,13931307332,115.541578,40.341736
c5ddcc08dd1beec6d8131825,军都山酒家,北京市,北京市,延庆县,北京市延庆区西拨子邮政所西,(010)69120346,115.971379,40.369534
ef773a0f9662402d22022032,北京八达岭滑雪场酒店,北京市,北京市,延庆县,北京市延庆区八达岭经济开发区66号,(010)69129966,115.962895,40.355502
eeddbc7331bc385f8c55ec0c,北京虎峪园林山庄酒店,北京市,北京市,昌平区,北京市昌平区南口镇虎峪园林山庄(虎峪村步行可至虎峪自然风景区),(010)69771100,116.153336,40.274209
e34c7814da180640ad080fb0,德厚庄园,北京市,北京市,昌平区,十三陵镇石牌坊北200米,(010)80108661,116.227501,40.250545
acfe691aa744b20eb2077d94,北京康陵正德正宗春饼宴20号院,北京市,北京市,昌平区,北京市昌平区泰燕路20号院,13716630471,116.216339,40.322554
785123f0dbe0265d89db73aa,北京麻峪房士琴休闲处,北京市,北京市,昌平区,北京北京昌平区十三陵镇麻峪房村,18311052782,116.200826,40.340758
d2ce3d3ab30a0f35d52ce24c,北京金隅凤山温泉度假村,北京市,北京市,昌平区,北京市昌平区水库路东侧,"(010)60711188,(010)85696688",116.286966,40.2562
a7c56ee0af5dc3b3a3acc467,北京蟒山会议培训中心,北京市,北京市,昌平区,北京市昌平区南邵镇蟒山路8号,(010)60713899,116.289891,40.255178
923ffd0049e67baed92f2800,皇家艺苑酒店,北京市,北京市,昌平区,北京北京市昌平区十三陵镇胡庄,"(010)89761281,010-89761406",116.241407,40.276529
589662959ee4e8da471a3226,北京怀柔黄花城城腾龙农家院,北京市,北京市,怀柔区,安四路,(010)61651929,116.352129,40.422709
dd70087832e76dc29fec2bff,北京神鹿度假村,北京市,北京市,昌平区,北京昌平区兴寿镇牛蹄岭旅游新村,13426121933,116.407864,40.284316
ac32efb2c51a6b332bb97ca1,王军农家院,北京市,北京市,怀柔区,九渡河镇西水峪村32号,13436958048,116.319751,40.416704
791b4640f35b8cf11e1d1108,北京金池蟒山会议中心,北京市,北京市,昌平区,北京市昌平区蟒山路5号,"(010)60712266,(010)60712010",116.287718,40.253895
c546e4e92636be8355bfff49,北京心悦小屋,北京市,北京市,怀柔区,北京市九渡河镇石湖峪村167号(黄花城水长城),"(010)60670215,13011149830",116.329901,40.417383
702f923c79c2134bfbdc85bc,北京陵西养殖场宾馆,北京市,北京市,昌平区,北京北京市昌平区长陵镇献陵村,13020075282,116.24363,40.307314
79cceb3678b95b901e580002,红螺钟磬山庄,北京市,北京市,怀柔区,北京市怀柔区红螺路5号(近红螺寺),(010)60681145,116.629745,40.382861
0a15c7ec55476efced74f874,大明星度假村,北京市,北京市,怀柔区,慕田峪长城旅游区内,(010)61635613,116.517744,40.40281
4214f697c122e2b1c51b75d7,京螺假日酒店,,,,北京市怀柔区红螺路2号,4000123611,116.623154,40.369847
5a99145ab0466a8c59bbbc36,六合农家院,北京市,北京市,怀柔区,慕田峪村17号,(010)61626992,116.563404,40.431564
21ef044c080b3cb82b11d1d0,长城山庄,北京市,北京市,怀柔区,北京市怀柔区慕田峪旅游区(慕田峪村),(010)61626395,116.560215,40.430665
f067782853094fb4593ac850,北京农家住宿,北京市,北京市,怀柔区,北京怀柔区红螺寺卢庄173号,13522620857,116.627796,40.378049
a3d9f46b9d724e3637b06cac,北京怀柔山水云间度假酒店,北京市,北京市,怀柔区,北京市怀柔区雁栖镇长元村47号,,116.602187,40.428555
bd6563198ad70e21b55f1edd,滴滴金酒店,北京市,北京市,怀柔区,北京市怀柔区北京怀柔渤海镇慕田峪长城171号滴滴金酒店,(010)60630789,116.56908,40.436069
a5097bfacb4fa07af03cba05,北京双阳宾馆,北京市,北京市,怀柔区,北京市怀柔区青春路41号(青春路与滨湖北街交叉口),"(010)69628410,(010)69642706",116.635232,40.335372
6ed3083af33e1fae2b3a9f34,北京团圆假日酒店,北京市,北京市,怀柔区,北京市怀柔区青春路45号,"(010)69620999,(010)69628111",116.636221,40.337508
d6c5d99143ac8df130169b02,大雁楼宾馆,北京市,北京市,怀柔区,北京市怀柔区雁栖湖雁青路15号,"(010)63672996-72888,(010)63672888",116.668274,40.392951
a74481d69164bf46f503b874,苑林山庄,,,,北京市怀柔区雁栖湖雁水路4号(近雁栖湖公园正门),(010)69661669,116.690249,40.401548
1eeed546c344788fb5147f23,北京九州溪谷大酒店,北京市,北京市,怀柔区,青春路北口甲45号,(010)69602688,116.636476,40.337728
37d60a46c0b439791e1d113d,鸿雁苑宾馆,北京市,北京市,怀柔区,北京市怀柔区雁青路6号(雁栖湖景区斜对面),010-69636188,116.675854,40.393268
881a28e72a9c0347f942b274,北京松秀园度假村,北京市,北京市,怀柔区,北京市怀柔区雁栖湖雁青路13号,(010)69661642,116.669356,40.393597
6916f84c02fa96258c55ecf3,力通酒店,北京市,北京市,怀柔区,北京市怀柔区雁栖镇下庄565号-3近范各庄村路(怀柔风景区),(010)61635951,116.6682,40.366934
cd9d05dd6a9509af85420e32,裕龙花园大酒店怀柔店,北京市,北京市,怀柔区,北京市怀柔区青春路68号(近青春路公园),"(010)69696373,(010)69683400",116.63723,40.33494
e247cda652998b18cd04ef07,汇德源会所,北京市,北京市,怀柔区,北京市怀柔区雁栖镇神堂峪东湾子9号,18610803618,116.651483,40.422155
4642844a93b5f2c0c9fa5f3c,北京东方银河宾馆,北京市,北京市,怀柔区,南大街10号（乐堡士旁）,13501111168,116.640545,40.318411
a605bac2a8d7dbf913293579,阳光明宾馆,北京市,北京市,怀柔区,北京北京怀柔区南华园一区288号,"(010)69626072,(010)69622072",116.640531,40.31828
15e1e85e2d287ba259109396,家泰旅馆,北京市,北京市,密云县,北京市密云区西大桥路17-5家泰旅馆,"(010)89080827,15611432806",116.829891,40.373452
fb9230151321a7eb08f5eb07,北京普岚山庄饭店,北京市,北京市,怀柔区,北京市怀柔区雁栖湖雁秀路13号,(010)69662817,116.684503,40.408544
81d6a509bf493b596e20b905,冠军苑宾馆,,,,北京市怀柔区府前西街甲3号（怀柔区体育馆旁）,(010)69626970,116.632859,40.323704
7ccb05ffa95434b4373a7182,长林农家院,北京市,北京市,怀柔区,北京怀北镇河防口村87号,18832455568,116.681161,40.443305
49d959381b8aa043c61e5173,北京大通鸣镝酒店,北京市,北京市,怀柔区,迎宾中路16号森海海鲜火锅城3楼商业街过马路东口,(010)51593153,116.644549,40.321378
1caa50063bb09803c17da261,美丽假日度假村,北京市,北京市,怀柔区,北京怀柔怀北镇河防口村,(010)89696388,116.678007,40.443023
97ca9dda82a4b3f0abf0cd5d,怀柔雁栖湖玉秋农家院,北京市,北京市,怀柔区,北京近郊雁栖湖景区西庄村,(010)69665675,116.697457,40.393592
8fab832405767ca6c16c146f,北京华荣园旅馆,北京市,北京市,怀柔区,北京市怀柔区怀柔站,(010)69646125,116.64766,40.329813
a85326250ccb84d25fbe86df,北京瑞芸旅馆,北京市,北京市,怀柔区,北京怀柔区杨家园220号,15611764234,116.643646,40.337955
2303899b7d11c4750482c273,北京乐之家旅店,北京市,北京市,怀柔区,北京怀柔区怀柔镇南花园二区53号,18510319605,116.639607,40.316515
c38d99412fe96c16f11937b9,聪聪农家院,北京市,北京市,怀柔区,神堂峪道风景区五道河村26号,"13716764807,(010)89617825,13716009066",116.632105,40.44541
ae1a1fa4d357bbcb0c0e6b9c,北京神堂峪康裕发垂钓园农家乐,北京市,北京市,怀柔区,北京神堂峪旅游区官地下1000米,(010)89617870,116.642196,40.426134
dfae8f82a7020f9a49fd3f28,北京豪千宾馆,北京市,北京市,怀柔区,怀柔区南大街15号楼三层,"(010)61614378,13810500196",116.640194,40.318855
edd64ce1a78b98913fe23177,山野度假村,北京市,北京市,怀柔区,神堂峪道北京瑞创志联科技有限公司东南侧120米,(010)89617199,116.63221,40.44777
055fcdf92d0c6ab29ef7796d,一枝花旅馆,,,,北京市怀柔区下园二条18号,"13718877727,(010)51591933",116.650961,40.324462
bd5046e80419e458d72ce234,雁栖景园,北京市,北京市,怀柔区,北京市怀柔区雁青路23号,(010)69661601,116.67081,40.390175
d146b3880d3953c774026937,金地来大酒店,北京市,北京市,密云县,北京市密云区新南路86号,"(010)69050692,(010)69050690",116.857114,40.375471
c7fb04bd4c100e0cfa0cad05,世纪阳光假日酒店,北京市,北京市,密云县,北京市密云区滨河路26号,(010)89088888,116.845529,40.377613
881a28e7bb33f45ef942b23a,文锦世博国际大酒店,北京市,北京市,密云县,北京市密云区滨河路46号,010-89088333,116.845357,40.375784
2e721bd392d279a1b64f540e,金地来商务会馆,北京市,北京市,密云县,密云区新南路88号101国道旁(101国道与新中街交汇口),"(010)69050999,(010)69050666",116.856027,40.375374
befdb29289a186e186154195,云佛山度假村,北京市,北京市,密云县,密云区溪翁庄镇(近玛森姆田园度假村),"(010)89032255,010-89032606,010-89032601",116.843163,40.435284
0cb67ffb6593108a88db73f4,北京燕山宾馆,北京市,北京市,密云县,北京市密云区新中街36号（宾阳建筑旁）,,116.857989,40.378033
f6b91db6dc7b6f7b3fe231e7,进鑫福宝旅馆,北京市,北京市,密云县,北京新南路43号,(010)69050629,116.873817,40.383119
0b80c556526e835bf4b916df,北京张裕爱斐堡国际会议中心,北京市,北京市,密云县,北京市密云区巨各庄东白岩（近蔡家洼）,(010)89089999,116.904487,40.379754
92b806d2363b75e779b55c31,新首创大酒店,北京市,北京市,密云县,北京市密云区阳光街352号,"(010)69027777,(010)69082222",116.866369,40.374699
07f3c8b579f87d7a6340a9e1,庆贤楼酒店,北京市,北京市,密云县,新东路281号(老城墙北侧),010-69054451,116.864958,40.384588
e392d2e8933e6c1309a8d457,北京吴淑义民俗饭庄,北京市,北京市,密云县,北京市密云区河南寨提辖庄村南顺路120号,"1,371,639,230,515,900,000,000",116.887216,40.356457
caca410af56f7c6872210b7e,北京穆家峪忘忧阁7-2,北京市,北京市,密云县,北京穆家峪阁老峪村7-2,13716991995,116.933201,40.44819
bcca0eb063c5c92e63180935,檀东旅馆,北京市,北京市,密云县,北京市密云区长城大厦北侧,13520375519,116.873417,40.383747
fb390f64e6d6cae9c9e33cbd,北京玻璃台风景区高山情农家院,北京市,北京市,平谷区,罗营镇张家台村新村北区122号近张家台村村委会,13716868520,117.228,40.3355
ef773a0f33cdab342202207f,广兴宾馆,河北省,承德市,兴隆县,河北省承德市兴隆县大友经济开发区兴开街,(0314)5952345,117.491034,40.414166
befdb292881087e18715412a,中银酒店,北京市,北京市,延庆县,延庆区庆园街12号,"(010)69172020,(010)69171701",115.986897,40.476938
f3c2373ca996d24bd22dd63b,北京圣世苑温泉大酒店（延庆-县城）,北京市,北京市,延庆县,北京市延庆县东外大街69号,"(010)69187776,(010)69187775",115.996259,40.469824
ea4a3dc9703d81374e55473b,北京华风温泉大城堡酒店,北京市,北京市,延庆县,北京市延庆区庆园街12号,(010)69182266,115.999572,40.477964
951d7e01f16694f0b6147fc5,北京快乐假日大酒店,北京市,北京市,延庆县,延庆区龙庆峡风景区1号,(010)51055613,116.007689,40.534323
d1469ee7deb9bd7b8433043b,育新宾馆,北京市,北京市,延庆县,北京市延庆区香苑街110号,(010)69189462,115.996429,40.475385
ffd6d4030f08718f17b54b25,四时春饭店,北京市,北京市,延庆县,北京市延庆区四时春饭店(沈韩路北),(010)69193488,116.017316,40.53857
e5a62b295aeba17296ca07f0,环湖宾馆,北京市,北京市,延庆县,北京市延庆区东屯村113号,(010)61112700,115.958166,40.461355
07e218268b324e3275e5b6e9,北京西湖华奕宾馆,北京市,北京市,延庆县,北京市延庆区北顺城街270号,(010)69148388,115.972065,40.467341
e547bfc29ce7a9dfcb213d0c,青青日租,北京市,北京市,延庆县,川北小区42号楼（近沃尔玛）,15810019344,115.985168,40.468207
75f249aedf81fdc088f15d9f,北京赵石荣农家院,北京市,北京市,延庆县,北京张山营镇玉皇庙村51号,13716325593,115.901591,40.5187
a4ddfaa54e46439d12293558,爱思酒店,北京市,北京市,延庆县,延庆区东外大街21号(原福华楼宾馆),(010)69185188,115.988188,40.466799
bfae8d4baf3db1c43c9a5ec2,龙庆峡宝对农家饭庄,北京市,北京市,延庆县,北京市延庆区旧县镇古城村古城大街14号,13716332361,116.029479,40.548978
f6ebf02ca78d9f228bf15d1e,柳沟25号农家院,,,,北京市延庆区柳沟村25号院,,116.10754,40.450819
5d7a1340237cfffaf7e73b1b,北京15号农家院李二平宾馆,,,,井庄镇柳沟村(柳沟豆腐宴68号院隔壁),(010)61191173,116.103427,40.454198
2a43deac782108f62fb17e37,北京幸福驿站农庄,北京市,北京市,延庆县,北京市延庆区正泰电器南100米(延琉路南),13522311711,116.035262,40.484165
8864bf480e4050146040a952,聚福乐酒店,北京市,北京市,延庆县,北京市延庆区古城村车站东,"151,015,720,021,391,000,000,000,000,000,000",116.033174,40.547652
c7515ba28630b2b17adbd2ec,驿鑫酒店,北京市,北京市,延庆县,旧县镇古城村南大街118号,(010)81184990,116.030652,40.546697
2c090c7273c4e8edf13cbaae,北京珍珠泉郑金兰农家院,北京市,北京市,延庆县,北京市延庆区珍珠泉乡珍珠泉村35号,13810122796,116.431673,40.565803
76c73a3ea6247e1e6f47602e,老周农家院,北京市,北京市,怀柔区,响水湖长城自然风景区售票处南100米,"(010)89602468,13501106614",116.461149,40.457447
f0a9efe96f4835bff03cba95,卧龙泉,北京市,北京市,密云县,北京市密云区密云水库溪翁庄镇尖岩村北,(010)69016886,116.816922,40.498227
656f048e1d1a6d8f102935b3,北京福鑫农家院,北京市,北京市,密云县,石城镇南石城村99号,"(010)61025077,13521542794",116.824387,40.548017
4ef875acea145146931fc9b6,青龙峡山水湾农家院,北京市,北京市,怀柔区,北京怀柔青龙峡大水峪村630号,13716029300,116.706656,40.453919
fd13a3f268e510fab0077d95,北京京都第一瀑旅游度假村,北京市,北京市,密云县,京瀑休闲居度假山庄,"(010)69013288,(010)69250280",116.791798,40.598602
05918f29d3dd0d0cd518b7c2,平安农家院,北京市,北京市,密云县,北京市密云区石城镇石塘路村,13718246446,116.827606,40.546888
7565a54b525572ce2fe67b83,鬼谷子草堂,北京市,北京市,怀柔区,"云蒙山后山铺村,近京加路",15811495203,116.683396,40.581023
8e8127056ee7633c3fe23113,怀柔钰淇百泉山农家院,北京市,北京市,怀柔区,北京怀柔百泉山,(010)61622160,116.674748,40.520248
83307326a03964f92ce67b29,北京百泉山彩霞农家院,,,,北京怀柔区怀柔区怀北镇北台子村13号,(010)61627940,116.67158,40.501129
9eefc6c7824b555716c905aa,北京金家大院,北京市,北京市,怀柔区,怀北镇大水峪村75号,13716501662,116.704931,40.452284
bf29b7025844688009b93a3c,云蒙山庄,北京市,北京市,密云县,密云水库白河主坝西侧,(010)69010888,116.829905,40.496858
4642844a210504d9c8fa5f95,云湖度假村,北京市,北京市,密云县,密云水库内湖西侧(云湖森林公园东170米),"(010)61021899,(010)61021990",116.907701,40.470512
f01934e3152389eebb17e791,山水团山农家院,北京市,北京市,密云县,北京市密云区溪翁庄镇口门子120号,(010)69011038,116.870815,40.482437
b488fe0e7c590bae0f0e6bc9,北京龙跃农家院,,,,北京近郊密云区石塘路民俗村,15910426382,116.836262,40.556523
b7b893471938c8b2d23ce34e,密云春玲农家院,北京市,北京市,密云县,北京市密云区石城镇石塘路村27号,"1,565,237,214,615,000,000,000",116.842755,40.558116
6c70f0c15d48e2c33310af30,北京百里山水画廊聚龙缘农家院,北京市,北京市,延庆县,北京市延庆区千家店镇上德龙湾村23号,18710298348,116.375919,40.706497
b893ca70b663a93afea77800,北京纪书方农家院,北京市,北京市,延庆县,北京市延庆区千家店镇下湾村45号,"1,371,681,151,713,240,000,000",116.470374,40.69265
13a2db41fa546d532806ce9f,北京东林农家院,北京市,北京市,怀柔区,怀柔区琉璃庙镇白河湾狼虎哨村14号,13716075623,116.704425,40.678327
8acb4d46f747f81fca09f00e,北京白河湾27号农家院,北京市,北京市,怀柔区,琉璃庙镇白河北村27号近白河湾漂流,13511009104,116.689872,40.66841
c349bc0002782c18c8213d9e,张家口长城岭宾馆,河北省,张家口市,崇礼县,和平森林公园内,"(0313)4783508,(0313)4619088",115.462777,41.018347
383d133cd27692d4f90cadc7,元泉宾馆,,,,赤城温泉度假村汤泉路,,115.759282,40.910481
d7101014a2f7ba1b93114c45,赤城电力培训中心紫电宾馆,河北省,张家口市,赤城县,张家口河北省张家口市赤城县汤泉村,(0313)6481258,115.758845,40.909491
b1e696680be6309e9f09f7c4,北京怀柔喇叭沟门村亚军农家院,北京市,北京市,怀柔区,北京怀柔区喇叭沟门村北京农商银行北行20米199号院,13716299601,116.629304,40.904427
8826bdf6e28b17343f9a5ed1,北京彭光满农家院,北京市,北京市,怀柔区,北京北京市怀柔区喇叭沟满族乡孙栅子村54号2门,13241373730,116.520991,40.955076
cdef4edf92ef364e28d7ab51,滦平大酒店,河北省,承德市,滦平县,北山新区1号,"(0314)8988088,0314-8988188",117.340398,40.948549
47e6653a67b57d73095cb3b4,滦平锦辉宾馆,河北省,承德市,滦平县,滦平镇05鑫港B13-S11室,(0314)8580189,117.336265,40.94143
ef773a0f33ebab342202205d,银河温泉宾馆,河北省,承德市,丰宁满族自治县,承德丰宁满族自治县城南16公里洪汤寺,(0314)8212020,116.504614,41.123911
6113ef77b34c63148e77275d,怡园山庄,河北省,承德市,丰宁满族自治县,河北省承德市丰宁满族自治县509县道,(0314)8212222,116.506898,41.126067
2527be1e56abb0b34afc8d5c,华泽宾馆,河北省,承德市,丰宁满族自治县,河北省丰宁满族自治县大阁镇新丰北路230号,(0314)8061066,116.644605,41.225781
81967348d8b339989cf779d3,隆宇商务宾馆,河北省,承德市,丰宁满族自治县,满族自治县阳光水岸西门南200米(近坝北沿),(0314)8068898,116.656403,41.224413
