UID,NAME,PROV,CITY,DIST,ADDRESS,TEL,LONG,LAT
25aee6ae113309e7abf0cd71,林凤装饰体验馆,辽宁省,沈阳市,铁西区,铁西区兴华北街18号千缘财富商汇5层,,123.38802,41.815571
8cba4bb05edaa384ac04579d,沈阳龙坤装饰工程有限公司,辽宁省,沈阳市,铁西区,辽宁省沈阳市铁西区建设东路49号-3门,(024)25657007,123.385241,41.796654
d884b9d9e92ce95cb320a8f9,奉泉装饰,辽宁省,沈阳市,皇姑区,辽宁省沈阳市皇姑区淮河南街11号,,123.394013,41.82831
ce1a938f34fbc519047ce83f,恒大家装,,,,铁西区兴华北街小北一路7甲号12门,,123.389077,41.815064
1e9841fb16cbf022abf0cd6f,沈阳九创装饰工程有限公司,辽宁省,沈阳市,铁西区,沈阳市沈阳市兴华北街11号,,123.388476,41.814193
6f44b5da5fb5aa2febe58228,沈阳品艺装饰工程有限公司,,,,沈阳市沈阳市兴华北街18甲5门,4000245007,123.387855,41.815868
8183366b4a4cad2b26e0a02d,沈阳宜家装饰工程有限公司,辽宁省,沈阳市,铁西区,辽宁省沈阳市铁西区兴华北街小北一路千缘财富商汇B座4门,(024)31327839,123.387624,41.81589
3c4daf633fa94106276e982b,绿港装饰(铁西体验馆),辽宁省,沈阳市,铁西区,小北一路千缘财富商汇大厦B座3门18甲,,123.387978,41.815284
5dbd2f68ded54b32932ca3bf,龙发装饰,,,,兴华北街45号e附近,,123.379978,41.803324
66bfa0b95213ae97b5f42f36,沈阳匠臣装饰有限公司,辽宁省,沈阳市,铁西区,辽宁省沈阳市铁西区保工北街18号-6-3门,,123.373377,41.819739
fd4942591adc6ea95e0d02b0,沈阳枫和万家装饰工程有限公司,辽宁省,沈阳市,铁西区,辽宁省沈阳市铁西区保工南街83号11门,"(024)31671700,4000409339",123.351471,41.791298
b1fab0bf365d72e748cc4a92,峰之翼钣金喷漆美容装饰快修保养,,,,辽宁省沈阳市和平区南十马路3号-2门,,123.3912,41.782536
7388c6dbd0bf4fdabe4842c2,一龙装饰(沈阳店),,,,华山街道昆山西路55号,,123.394586,41.831161
a391cc18445534ccb35c6a3a,桓宇装饰工程有限公司,辽宁省,沈阳市,铁西区,兴华北街25-1-2门(君临天下东门对面),,123.38329,41.807402
3ee511a3b46df327d5b74e06,米兰装饰,,,,沈阳市于洪区汪河路33号,,123.36726,41.763262
b2a7c7c3dc19b0015cd4fe94,沈阳安九州装饰材料有限公司,,,,辽宁省沈阳市市于洪区沈阳经济技术开发区沈新路310-6号,,123.247521,41.800586
eb0a180c3b55e7c308f5ebaa,方林装饰(市场部),,,,兴华街道小北二路新财富大厦27楼,"4000651918,(024)31351918",123.384974,41.810929
d55fe6d651e4fe35deee8bae,沈阳普临装饰设计部,辽宁省,沈阳市,铁西区,建设东路35号2门假日国际大厦22层A2202,,123.386416,41.796211
06a3dc3fa951a6bec8213da4,立信东升装饰材料市场,辽宁省,沈阳市,于洪区,辽宁省沈阳市于洪区洪湖北街6号,,123.3159,41.810427
f52aeee8f8e66ff29fe321b9,荣上五金装饰厂,辽宁省,沈阳市,于洪区,辽宁省沈阳市于洪区洪汇路203,,123.236977,41.808112
03e92c0633809e9516948e5b,沈阳隆成高分子装饰材料有限公司,辽宁省,沈阳市,于洪区,翟家街道经济开发区浑河17街开发26号路54号,,123.242728,41.70979
7488fa2d95d2bfa403ff2d3e,军诚装饰家居体验馆,,,,辽宁省沈阳市于洪区美的城(赤山路北),4000777540,123.365243,41.873477
ccbaca6977eca7b716a1901b,佰福莱欧式装修体验馆,,,,九路家具城三期西门97-1号,,123.366168,41.796528
1e7a5d7e7275671e42d63e95,沈阳品味装饰材料有限公司,辽宁省,沈阳市,于洪区,辽宁省沈阳市于洪区前民工业园,,123.241466,41.817229
de6d9c19483b5fd248cc4ad2,百隆智能整装,,,,北三东路28-1号3门(应昌街北三东路路口北行50米),,123.386301,41.807819
71bdc378798a4c6ee6e96570,晟奥美容装饰,,,,沈阳市铁西区南八西路10-10门,,123.34962,41.802962
e6ceb6cde72d5032a6da39b3,大展装饰设计顾问有限公司,辽宁省,沈阳市,铁西区,辽宁省沈阳市铁西区保工北街1甲1号4门,,123.374862,41.821505
9b3ddec42df6c11341024543,明廉装饰材料大厅-东门,辽宁省,沈阳市,皇姑区,沈阳市皇姑区锦水街65号2门,,123.37116,41.834115
f82fc0fceeb0ec8904fef5f1,鑫顺专业贴膜,,,,辽宁省沈阳市于洪区沈新东路1网点28门,,123.336555,41.783546
4b0d3c640d75936c14b54b34,北轩装饰(铁西店),辽宁省,沈阳市,铁西区,铁西区北二东路35号红星美凯龙正对面,,123.387899,41.811214
739b47287d22176d1e1d11c7,恒锋兴业装饰,辽宁省,沈阳市,于洪区,辽宁省沈阳市铁西区花海路35号,,123.300095,41.772695
1e4a9e3880448a0603ff2d37,沈阳鑫业金属装饰材料,辽宁省,沈阳市,于洪区,东方木业附近,,123.282934,41.821331
86033fde4d479b00fda7783c,吉诺尔装饰材料公司,,,,辽宁省沈阳市于洪区开发二十二号路36号,,123.239526,41.725583
6eb0d5a254c484e6f11937ea,辰歌装饰,,,,辽宁省沈阳市铁西区保工北街42号-2号-2门,,123.366343,41.812691
a7c528ee02b768f5631c67f1,刘鹏装饰,,,,于洪赤山路122号(西江西街与赤山路交汇处西行),,123.366366,41.873733
e9a0bcb214a2ed208605bfe1,鑫淼汽车装饰养护中心(CM美车西江店),,,,辽宁省沈阳市皇姑区塔湾街79-38,,123.395192,41.847961
b75ce6819ce183c9354aaedb,鼎发装饰,,,,汪河路吉力湖街37号楼3门,,123.365796,41.76271
b0eb1473e8c7fefb25e0a009,辰龙彩色装潢印刷中心,辽宁省,沈阳市,铁西区,兴顺街29号-1号-1门,25864174;13940385978,123.36828,41.802753
2226edc01e2b763cab059d6e,沈阳鑫友装饰铁西店,辽宁省,沈阳市,铁西区,铁西区北二路22-1号门,,123.390305,41.81022
2b264a9b245d9c8e51e5c5ec,方升装饰,,,,辽宁省沈阳市于洪区南阳湖街154-2号1-12门,,123.337436,41.752696
afe7f1271aa5ee588d772782,亿通汽车美容店,辽宁省,沈阳市,铁西区,辽宁省沈阳市铁西区启工街56号-6门,,123.345261,41.80339
2d5d5ec8f9ecf9eb5bf6be4c,兴辉装饰装修公司,辽宁省,沈阳市,铁西区,建设中路92号5门,,123.356745,41.808559
7c56c19451bc191e9a0050c0,沈阳德方装饰工程有限公司,,,,辽宁省沈阳市皇姑区白山路208号9门,,123.367534,41.858681
0b7f9333637819a78bf15dfe,美天装饰(建设东路),,,,建设东路11号韵动商务领地4017(南五马路两洞桥),,123.391186,41.793717
77248c0a00d52686adb22a52,昌隆装饰材料厂,,,,千山西路62号,,123.389529,41.88334
4584bf1866d8889ac5effbe3,车之宝汽车装饰,辽宁省,沈阳市,铁西区,虹桥路25-2号3门,,123.390903,41.811522
9252351904a73c32adcb6606,彤祥装饰,,,,沈阳市沈阳市兴华北街8号2门,,123.388962,41.817299
d3b0ae5e80090a8e93114cdc,立信东升装饰材料市场-2门,,,,沈阳市于洪区,,123.316281,41.812127
da1d851d77466e62077ce8b3,鼎泰丰装饰,,,,辽宁省沈阳市铁西区兴工北街122号-7门,31905550;13478869000,123.391476,41.798342
a85bad8ad8657b074e5547de,天宇艺丰装饰,辽宁省,沈阳市,于洪区,辽宁省沈阳市于洪区赤山路300米,,123.367387,41.875549
46d118fc9ead001ebea24053,鲁鑫装饰,,,,赤山路119号,,123.372346,41.875645
dbf60b7e9fe86425f6c59cae,沈阳馨雅轩装饰工程有限公司,辽宁省,沈阳市,铁西区,建设中路1号第一商城A座10层1013,,123.376189,41.799818
82d91f9d23a16c549ee32182,红军汽车装饰,,,,辽宁省沈阳市铁西区卫工南街100号,,123.344684,41.786235
54df8a0e53c438356f3e1bf6,大华汽车美容会所,辽宁省,沈阳市,于洪区,辽宁省沈阳市铁西区沈辽西路100号-1-8门,,123.265193,41.757921
ef26b7b5019e652b2e4733f1,爱车人汽车美容装饰中心,,,,辽宁省沈阳市于洪区沈大路45号-甲,,123.304072,41.805144
f3efd8cfd7ffe77e2cb96dad,车鼎汇汽车美容装饰,辽宁省,沈阳市,于洪区,沈阳市沈阳市白山路168-1-4门,,123.376589,41.862807
f8136cdb20c1b5cb58f6bec4,沈阳乐家装饰（铁西店）,辽宁省,沈阳市,铁西区,辽宁省沈阳市铁西区北二路24号（红星美凯龙对面）,,123.388528,41.811022
cc52c9bf19d9da8821f017c3,北京元洲装饰集团沈阳分公司,辽宁省,沈阳市,铁西区,北二东路35号红星美凯龙6楼,,123.389736,41.810422
e79b01349ff9a673e5e965d2,鑫起来装饰,辽宁省,沈阳市,皇姑区,明廉路111,13252892218,123.360878,41.832443
dbc319837bf5000bac31e558,有嘉装饰,,,,辽宁省沈阳市铁西区北一东路81号-4门,,123.39304,41.818853
2eca59f1a573e5a0a1a934a9,一鸣汽车装饰,,,,沈新东路1号西部汽配新城24-25门,15204093886,123.336555,41.783546
46feb08261f9951e74026919,家海装饰,辽宁省,沈阳市,皇姑区,辽宁省沈阳市皇姑区昆山西路108号-3门,(024)62458588,123.385662,41.83411
1d04396eefbaa27833169bc4,日丰管装饰材料水暖五金建材,辽宁省,沈阳市,和平区,辽宁省沈阳市和平区南十一马路204附近,,123.392768,41.779097
66f2e555fa0a1fcb79dbd21f,洪晟装饰(艳华街店),,,,艳华街7号(家乐福金牛店南行100米),(024)25911838,123.366829,41.784279
0c621f16bfdae9b08f55ec02,大伟汽车用品装饰,,,,辽宁省沈阳市铁西区沈新东路20号,"024-66684888,024-31381888,024-31381999",123.336731,41.784797
9b40c59602b6374430169b60,长山装饰,辽宁省,沈阳市,铁西区,辽宁省沈阳市铁西区艳欣街4号,18704080279,123.353563,41.784052
1fe6d454e2a92e8b7069d3b9,新北方装饰建材城-东2门,,,,齐贤北街30号甲,,123.368229,41.808644
be010d7d09593531b05c6a4f,鹏发铜装饰,辽宁省,沈阳市,铁西区,辽宁省沈阳市铁西区兴顺街152,(024)25431311,123.362952,41.796941
a62b0bccc1e769c5d13ce358,广源汽车装饰,辽宁省,沈阳市,铁西区,辽宁省沈阳市铁西区肇工南街182号,,123.341415,41.786909
0964144051248c88bda24019,鸿鑫隆美术装饰,辽宁省,沈阳市,于洪区,沈辽路251甲(杨士乡政府斜对面),,123.312051,41.768013
b7e755e66f014c3881288a2b,齐轩装饰,辽宁省,沈阳市,铁西区,辽宁省沈阳市铁西区保工北街32-1号-10门,(024)85616677,123.369576,41.816288
79414ef820a7fc0b1b94c603,宏泰装饰(于洪新城店),辽宁省,沈阳市,于洪区,辽宁省沈阳市于洪区细河路120号-3门,(024)31076120,123.345111,41.764657
14bf53ef3c4a0ef77f29bd79,家装e站,,,,沈阳市铁西区兴华北街小北一路千缘财富商汇A座4门,,123.387818,41.815228
4cf8bda7577c0338e115f9cd,昌宇装饰工程有限公司,辽宁省,沈阳市,和平区,沈阳市和平区西安街162号,(024)23396388,123.392305,41.782059
7a25de1e2fc5ca50725e8081,泰格装饰,辽宁省,沈阳市,于洪区,辽宁省沈阳市于洪区洪湖北街木材市场食杂店对面,25344508;13840481789,123.315616,41.810292
fbe793ae648c67ff1a94c673,车无限汽车清洗美饰广场,辽宁省,沈阳市,于洪区,辽宁省沈阳市于洪区西江街119号,,123.389758,41.860916
c51ca65667e78ada17948e21,石磊装饰,,,,白山路278-212门,,123.354396,41.849738
d7c6317ec03f1eb188b98871,聚酷豪专业汽车美容会所,,,,辽宁省沈阳市铁西区南八西路1-7号7门,,123.350244,41.800866
88bd3b29e038952f213bf28a,车魔工作室,辽宁省,沈阳市,铁西区,沈阳市铁西区瑞京时代汽配广场西5门,,123.34968,41.823211
1dd46d77f1e44b29b45f1e08,大拇指汽车养护中心,,,,沈阳市铁西区江南印象东门7号楼,,123.339895,41.798076
d4448d4738db8bae4e6d46b7,艺棠装饰,,,,辽宁省沈阳市于洪区赤山路55号,024-31040567,123.386072,41.879337
66a06be753119dd2a2d23011,五心精装家,,,,辽宁省沈阳市于洪区燕塞湖街,,123.318231,41.772744
5da4656037e18e634afc8d20,宏宇装饰,,,,辽宁省沈阳市铁西区中央大街28-8网点2门,,123.251022,41.752241
2dfeb079e2116b22901fc924,林泽装饰,,,,辽宁省沈阳市于洪区汪河路碧桂园银河城111-3号,024-66999320,123.34618,41.756444
def66ebc8e13a4d5770269d6,金麒麟喷绘服务社,辽宁省,沈阳市,铁西区,辽宁省沈阳市铁西区勋业三路37号,(024)31231645,123.326882,41.788709
d735095cfe44d03159bbbc97,斯博汽车装饰,辽宁省,沈阳市,铁西区,辽宁省沈阳市铁西区肇工南街182号3门,,123.34134,41.787124
c0e5ca2f083ab92fd23ce399,家艺陶瓷装饰材料,,,,洪湖北街8号附近,,123.315911,41.809534
97844f6f10485539b35c6ad3,美家帮家装体验馆,,,,沈阳市铁西区保工街北三路38-2,4006059201,123.367392,41.814045
f68ed6abdf7e7b739cec2beb,兴兴丰宇装饰材料经销处,,,,辽宁省沈阳市铁西区兴华星程酒店(沈阳铁西九路家具城店)西北,,123.368436,41.796677
355b798a82b72a9adeee8bba,美景装饰公司,,,,南阳湖街细河南路67号9门,,123.338419,41.757462
d0411a9f587ee5232811d1f4,实创装饰(于洪店),辽宁省,沈阳市,于洪区,燕塞湖街三隆世纪城20栋,,123.315031,41.774067
0545328158b992e76fc02c9c,兵心汽车美容装饰店,,,,辽宁省沈阳市铁西区花海路7号,,123.305565,41.776423
8c001dcf93ec965932f71d7b,荣泰装饰(铁西店),辽宁省,沈阳市,铁西区,景星北街22-2号,(024)64691898,123.378938,41.819424
62fa3a929fdd02ef1d5800c9,亮美汽车美容装饰中心,辽宁省,沈阳市,铁西区,辽宁省沈阳市铁西区沈辽东路75-10号楼,,123.370786,41.783728
debb803a0dd1d4a30e0e6b91,巨鹿建材装饰材料,,,,凌空二街与南滑翔路交叉口南50米,,123.376103,41.772908
2a4c6d438e07bbc3cac3dbbd,富林装饰,,,,沈阳市于洪区松山西路158号,024-67763559,123.365535,41.866297
6f8662c05faafb20c51e51d5,吉祥何氏装饰工程有限公司,辽宁省,沈阳市,铁西区,勋业一路26号1门,13998264837,123.324937,41.792033
5e71c1005a51af1c100daab9,灯箱牌匾店面装饰,辽宁省,沈阳市,铁西区,辽宁省沈阳市铁西区应昌街沈阳市第三十一中学北100米,,123.376955,41.796217
703d30e8aa5196fbbadf8fc1,乐艺装饰装修公司,辽宁省,沈阳市,铁西区,兴顺街56号创富中心4层S415,,123.366613,41.801716
e983bb3f8131959f213bf229,众林装饰,,,,重工街建业路东行30米南侧36号1-1,,123.333825,41.802872
6d386f4dcf6620114afc8d47,沈阳富田装饰,,,,辽宁省沈阳市于洪区大通湖街141号5门,4008004175,123.351639,41.760073
cc7cf3edb607353a4c3a59f6,沈阳驰尚汽车装饰用品有限公司,,,,沈阳市铁西区北二路瑞盛汽配城,,123.350248,41.824617
5dae769d58f7cead80a00c90,利民车坊洗车美容装饰,,,,辽宁省沈阳市铁西区爱工南街11号-1号-5门,,123.384078,41.794369
f1d136c8bf1deeda60180985,祥瑞装饰,,,,辽宁省沈阳市铁西区北滑翔路6号,,123.379489,41.781795
a583fe99d041aa5ef219379f,沈阳金典必盛自动门有限公司,辽宁省,沈阳市,铁西区,辽宁省沈阳市铁西区南八中路66,,123.363482,41.798163
c37215c2f8d067252fb96d96,鑫海森装饰(铁西店),辽宁省,沈阳市,铁西区,沈阳市铁西区兴华北街5-3号13门,,123.389931,41.816485
dbd066db4bfe6d5cf32d833f,金吉利专业装饰,辽宁省,沈阳市,铁西区,景星南街139-1号6门,,123.362355,41.791448
665ac08e5b66fea2afee7a3e,大班装饰设计工程有限公司,辽宁省,沈阳市,于洪区,沈阳市铁西新区经济技术开发区花海路19-1号奉达大厦银座10层,,123.302805,41.773525
5de840cc43b7fb4495ca075d,卡得尔专业玻璃配套装饰五金产品,,,,南十二路与景星南街交叉口南50米,,123.361102,41.789769
6c7f216ad2fea57c9c09f790,鑫正达装饰,,,,辽宁省沈阳市铁西区景星南街50号,,123.36751,41.798895
8dff175140d5e201a80dd857,佳强装饰,辽宁省,沈阳市,铁西区,铁西建设东路57号千缘・爱都国际B座3层,,123.382778,41.797538
95501354fd260ee6d23ce30f,佳利福装修装饰材料,,,,辽宁省沈阳市于洪区沈辽西路168号15-12门,,123.227783,41.73247
4f335411d44b9c4a94031998,洗洋洋汽车美容,辽宁省,沈阳市,铁西区,辽宁省沈阳市铁西区云峰北街34-3号-8门,,123.386339,41.804986
2a23b880ad7951696d20b9ca,万里装饰,辽宁省,沈阳市,铁西区,沈阳市铁西区重工北街32号,,123.340343,41.831835
861e91cd3e59f3b1c5effb2d,海英装饰,,,,广业西路122-5号附近,,123.311864,41.851296
85576e814486b850adcb6674,金嘉家装饰,,,,沈阳市沈阳市西江街188号1门,,123.382185,41.869533
2cc3c8e8693f9ad64c2fdf94,辽宁鸿业装饰装修有限公司,辽宁省,沈阳市,铁西区,南六中路19号盛世华城商务楼E座,13889878598,123.373081,41.799503
0879261a49de1e09fea778c8,神州五金水暖建材益兴装饰,辽宁省,沈阳市,铁西区,南六西路518不动产旁,,123.344858,41.809164
59b78e3419ec9a5a73210bbd,沈阳铭秋建筑装饰工程有限公司,,,,辽宁省沈阳市铁西区凌空一街10号,,123.384947,41.778534
cfac6218d53762592b3a9f9c,鑫岩装饰,,,,辽宁省沈阳市于洪区大明湖街15-4号2门,13998181804,123.30105,41.768922
e6bb4a713faa4ed0a8f0cd29,帅林汽车美容装饰,,,,广业西路36-2门,,123.329984,41.84626
f43b72ea6ca444d8bb17e776,车之海汽车装饰,,,,辽宁省沈阳市于洪区玉龙山路26,,123.357482,41.844264
5e3a6fbb5cd92f9ad8ecedf7,瑞家地产装饰,辽宁省,沈阳市,皇姑区,昆山西路77-16,,123.385481,41.832305
bb9ef9370108d78159bbbc35,新力装饰材料总汇,辽宁省,沈阳市,铁西区,辽宁省沈阳市铁西区南八中路26号,,123.367052,41.79671
0580ddc373650927626858e6,沈阳法拉菲装饰,,,,铁西区兴化北街25号2门(盛京银行西南40米),,123.383249,41.807608
6591fd735e820603157643da,力军装饰材料商店,,,,贵和街道云峰街小五路34号,,123.381584,41.797396
7e6fbab05a62ecc4ab0dd87a,浚洁汽车美容装饰,辽宁省,沈阳市,铁西区,辽宁省沈阳市铁西区卫工南街50巷-4号,,123.348175,41.79629
3c73cd8300cd2ee558f6bed6,香江家具装饰材料馆集成家居馆,辽宁省,沈阳市,铁西区,辽宁省沈阳市铁西区保工南街2-1号,,123.357835,41.806575
21d46a694c22e97a203bf27c,启点装饰,,,,橙山路11号7网点,,123.360218,41.866979
5458444c1a8ac0af8a36ee29,弗莱尔汽车美容装饰,辽宁省,沈阳市,铁西区,辽宁省沈阳市铁西区北三中路5号-10门,,123.378023,41.810524
dcaf839951936986a2d23046,万宝装饰一部,辽宁省,沈阳市,铁西区,南八中路88号4门,15998343971,123.355343,41.801717
694fae01d18e37a1aa175af0,格豪装饰,,,,广业西路36-8号附近,,123.331296,41.848613
7e1043effc9a8e1ca8059dfc,汇莱鼎业装饰,辽宁省,沈阳市,于洪区,梁子湖街10-12,(024)31562008,123.310501,41.773459
0c66359e4a6a0304d518b770,星亮点建筑装饰工程有限公司,辽宁省,沈阳市,铁西区,重工南街58网点4门,"(024)25700788,13694186321",123.332568,41.797164
2e71ee1f7411def226d2bb32,北京锤子工长装饰工程有限公司（沈阳分公司）,,,,大通湖街141号-8门,,123.351755,41.759966
7f06b66cf86504eb43e192fe,万美家装饰工程公司,辽宁省,沈阳市,于洪区,沈阳市于洪区西江街217号2门,(024)86310877,123.378388,41.874835
21f05caa680f8205c42ba19c,佳邑装饰(中央大街精品店),辽宁省,沈阳市,于洪区,沈阳市铁西区中央大街27甲7门,,123.257995,41.755024
5c8cc020d2d60fb91f38947b,沈阳龙发装饰(铁西店),辽宁省,沈阳市,铁西区,北二东路35号红星美凯龙6楼,,123.389803,41.810395
c31a02e71e319f674054d730,新北方装饰建材城地上停车场-出入口,,,,辽宁省沈阳市铁西区北四中路62号附近,,123.368436,41.808509
719d2ec7a88d08c32cb908a9,新北方装饰建材城地上停车场-出入口,,,,沈阳市铁西区,,123.366189,41.80903
fe8284b9c4ea5b727169d38c,文杰汽车装饰,,,,沈辽路兴隆大天地负一层(电影院旁),18624027281,123.340951,41.786295
d953793316aa2da8f8221397,友谊汽车美容装饰,辽宁省,沈阳市,于洪区,辽宁省沈阳市于洪区吉力湖街82号-4门,,123.360636,41.767301
778439ef321c5fdb631c67de,新北方装饰建材城-东1门,,,,辽宁省沈阳市铁西区齐贤北街30甲,,123.368113,41.809161
86960c621ca3ea908bf15dfd,舒心装饰,,,,辽宁省沈阳市于洪区沙岭街道俪锦城三期西门,,123.201599,41.80857
fa4d82bd011568377bf7964e,海韵建筑装饰工程有限公司,辽宁省,沈阳市,铁西区,辽宁省沈阳市铁西区云峰北街62号(东环国际大厦)b座7楼15号,,123.38353,41.798608
703f64c0b485eada00ff2d36,鼎鑫塑钢门窗室内外装修铁艺白钢,辽宁省,沈阳市,于洪区,洪湖街5-3附近,,123.319035,41.805235
922b9b244e5a2691a2d230ff,忠诚装饰公司,辽宁省,沈阳市,于洪区,汪河路19-1号附近,,123.373481,41.764674
ca0f242457dc9366b5f42fb5,汽车美容精品装饰中心,辽宁省,沈阳市,皇姑区,辽宁省沈阳市皇姑区信江街2号8门,,123.378417,41.836506
8c9532b06b246fa82d4733c5,悦景装饰,,,,浑河十一街1-5号1门,,123.243246,41.738076
494ebf8d7d767448f4b9163c,沈阳志鑫装饰装修工程有限公司,,,,辽宁省沈阳市于洪区沈大路18-2号1门,18809889660,123.315783,41.809013
4e56d743b092a16a08ccdd4d,嘉艺装饰,辽宁省,沈阳市,铁西区,辽宁省沈阳市铁西区卫工南街40号,,123.348803,41.800839
1973eb73b1d1e7955a3ac82d,京东装饰,,,,沈阳市皇姑区昆山西路108号11门,,123.386251,41.83398
0a681b447e8a0a75a204642f,沈阳市铁西区豪豪海装饰材料经销处,辽宁省,沈阳市,铁西区,辽宁省沈阳市铁西区铁西商圈南八中路26号,,123.367916,41.796645
2039b5710109ed177bf79695,鑫宇亨通水暖五金家庭装修一条龙服务,辽宁省,沈阳市,铁西区,南七东路1号5门,,123.38538,41.791648
e8d0a1cf4c9d5b376e20b9a3,凯澌特装饰(铁西旗舰店),辽宁省,沈阳市,铁西区,肇工北街4甲3网点12门,,123.347807,41.828795
0a4da2988d1de1ffce04ef2e,长山装饰,,,,辽宁省沈阳市铁西区南十二路6号,18802489016,123.359223,41.79053
2aa36e67698280fafd0eb0fc,吉友家装饰,,,,辽宁省沈阳市和平区砂山街84号,,123.390285,41.77488
0ae843442095580b960319c6,艺景装饰,辽宁省,沈阳市,铁西区,保工北街34-1号1门,,123.368353,41.81518
fac65a3c0d1028458bfc06ac,金巢装饰,辽宁省,沈阳市,铁西区,保工北街261号附近,,123.375112,41.821373
959505c70104d2cc4251c01e,春天装饰建材,辽宁省,沈阳市,铁西区,辽宁省沈阳市铁西区重工北街50甲23网点3门,,123.336661,41.830875
3ab9a4bff27d88d896f08c47,东阳汽车美容装饰,辽宁省,沈阳市,铁西区,重工北街50甲37号18门,,123.33743,41.827746
fff2878d0b626f1e2e47336c,建材装修包工包料,,,,辽宁省沈阳市铁西区南十二路4号,,123.359017,41.790681
56af5bd9d6267f479d95de84,沈阳顺兴装饰材料有限公司,辽宁省,沈阳市,东陵区,民致北街附近,,123.37123,41.731635
2fc732a863cfb9144d776e4c,星灿艺术装饰设计有限公司,,,,南十中路与齐贤南街交叉口西南50米,,123.358564,41.795589
20fb01f410d86731d81318ba,沈阳加强装饰公司,,,,西江街201-8号附近,,123.382402,41.87396
27d9cb34cd9fb3408936ee74,雨辰工程装饰有限公司德福纳德电动门,,,,沈大路148-5号之4门-5门,,123.303485,41.805949
fc78815972c3ba6e8c55ec0a,博美饰家装饰工程有限公司,辽宁省,沈阳市,铁西区,兴华北街25-2,(024)25853633,123.386242,41.807703
4af849d993ddbf919222e06e,腾辉鑫装饰,,,,于洪街道赤山路76号绿地老街坊二期126-3门,,123.382118,41.87955
d590e1c47d29f699ab059d74,老五建材装饰,,,,辽宁省沈阳市铁西区南十西路32号,15524185749,123.342648,41.800154
d76856c760cdc9ec4f5547bd,沈阳同旺汽车装饰用品有限公司,,,,北二西路26-甲6号附近,,123.350516,41.827337
765af638346d930fa1a9345e,腾跃靓车装饰,,,,辽宁省沈阳市铁西区肇工南街95号-3门,,123.342796,41.785245
d35248a747da9f064251c00b,沈阳市名灏建筑装饰工程有限公司,,,,辽宁省沈阳市于洪区细河路水调歌成E20栋,,123.354481,41.767136
cf8ccf931a726626dcee8b57,鑫佳艺广告装饰,辽宁省,沈阳市,铁西区,辽宁省沈阳市铁西区南七中路65号,,123.366283,41.799851
e34569e6e1111c10902ca3cc,环宇汽车装饰,,,,辽宁省沈阳市于洪区沈新东路1网点29门,13478357041;13555824860,123.336555,41.783546
d5d0e81f5008d7701388249c,泉泉洗车房汽车美容装饰中心,,,,广业西路148,,123.302217,41.849172
649b5ae3fa5f7e2b2e473301,辽一网装修团购商城,辽宁省,沈阳市,铁西区,建设东路29号广大美居1层,(024)62222263,123.387598,41.795295
a3a7be1e27a92bab2b06cef8,沈阳美饰美家装饰工程公司,,,,沈阳市铁西区建设中路1号第一商城A2407,,123.376149,41.799742
01847ad14e52bc0958f6bedc,辽宁省轩铭工程装饰有限公司,,,,北四西路4甲7号,,123.349606,41.812402
747eb19247c1d3932806cec4,篮砖装饰,,,,兴华南街58-17号26门网点,(024)66587377,123.364458,41.790353
caaa49c991c4fffa0f0e6bc8,祥圣泰装饰,辽宁省,沈阳市,铁西区,沈阳市铁西区铁西区政府后门,,123.381168,41.808322
b420defaa4f158ed43ab9a9b,新北方装饰建材城地下停车场-入口,,,,齐贤南街30号附近,,123.366074,41.809041
c7e6b44a439b9d53a6da39bc,沈阳聚鑫才,,,,重工街道肇工北街爵仕意境14甲3网点,,123.342678,41.814922
4e4cbde8f7ba2af1c4f02547,辽宁尚品地产装饰,辽宁省,沈阳市,于洪区,辽宁省沈阳市于洪区橡树湾(松山西路南),,123.366603,41.866304
7f0541d94ce24ae1b7f42f1b,装修工程基础材料一站式采购,,,,兴顺街与小九路交叉口西50米,,123.361921,41.795619
b695a85b3512667f5d17c305,老五建材装饰二部,,,,辽宁省沈阳市铁西区富工二街64号,,123.338203,41.801593
eadfad99ba3499e03a04b12a,万汇装饰,辽宁省,沈阳市,铁西区,辽宁省沈阳市铁西区北一东路65甲2号3门,,123.395039,41.81705
b414c93d186ea3a541d63e71,绿色空间装饰,,,,沈阳市于洪区赤山路59号8门,024-31017818,123.3882,41.879252
bf6b28916a69b89a601c676e,锦蓝装饰(于洪店),,,,赤山路123-3门,,123.380042,41.878957
7a7461eae05a1ea3aaf0cd68,龙姿铁艺装饰部,,,,辽宁省沈阳市铁西区铁西商圈南八东路32号,,123.377569,41.792197
88b956dd58b95ca24354d785,鑫城汽车装饰贴膜,辽宁省,沈阳市,铁西区,沈阳市铁西区瑞盛国际汽配城31-8,,123.350273,41.825116
cbf2550f8a5692849e9d6803,天成饰佳装饰工程有限责任,,,,造化街道元江街迪卡侬南47号,,123.355588,41.86926
86d2b63f70ee22622a3a9fd9,明成装饰,,,,辽宁省沈阳市于洪区吉力湖街43-6网点3门,,123.360479,41.764282
a2876ffc52eace23f6c59c44,鑫奥森装饰,辽宁省,沈阳市,铁西区,辽宁省沈阳市铁西区南八中路与勋望街交口,,123.36873,41.796248
b7136af68470f6ffa5da397a,东立装饰,辽宁省,沈阳市,铁西区,辽宁省沈阳市铁西区国工三街28,,123.375526,41.79119
cf9572511edb32bbf5c59c8d,沈阳荣鑫装饰(橡树湾店),辽宁省,沈阳市,于洪区,汀江街G2-6号3门,,123.367975,41.862921
7548cc07c49c85244c3a59a8,美思迪集成墙面,,,,于洪区北一西路邦达汽车钣金喷漆修理服务站楼上,,123.321674,41.846085
df7c720583640e2912882443,瑞迪装饰,辽宁省,沈阳市,于洪区,松山西路西江街西行300米松山西路120-6号,,123.377843,41.87107
b74b531c5423f310f4b916b4,博雅装饰,,,,沈新东路34号富友大厦8520室,,123.330059,41.784589
97859409314c6787cb213d6c,万里装饰装修有限公司,辽宁省,沈阳市,铁西区,辽宁省沈阳市铁西区铁西商圈南八东路23号,13940467002;15940082248,123.377309,41.791532
52467c4d477209dde31103b2,宏经翔装饰,辽宁省,沈阳市,于洪区,吉力湖街202号八网点,4000987288,123.349767,41.771775
4d0f328be789b790246e9823,公牛装饰开关,,,,辽宁省沈阳市于洪区腾飞二街58-8号45A门,,123.359607,41.774937
5b953809a2438aabc4f50dfd,百纳装饰,,,,造化街道青城山路海逸铭筑小区205-1网点2门,,123.375313,41.889776
364d8711e47f8700b11e3648,永丰广告装饰,,,,辽宁省沈阳市铁西区铁西商圈景星南街59号,,123.368379,41.799509
3c2e240dd6592a75a6c75649,鹏达装饰,,,,浑河二街2甲6号19号楼3-1-1淀粉厂对面,,123.276084,41.757198
aab1499043dd80aa3be4a68c,晋鼎装饰(中央大街店),,,,辽宁省沈阳市于洪区中央大街20甲1-4-22网点3门,,123.245859,41.76829
dafa05a911baa8a69b68b4dc,沈阳兴辉装饰装修有限公司,辽宁省,沈阳市,铁西区,建设中路92号5门,(024)25602988,123.356188,41.808739
be4182a8a3b1b5cfdf1e5216,鑫凯广告装饰,辽宁省,沈阳市,于洪区,沈阳市铁西区沈新路66号,,123.317096,41.786217
2209cbfec8500d650a5cb3dd,靓馨汽车美容店,辽宁省,沈阳市,铁西区,爱工北街11-1-3门,,123.394902,41.808366
fe88cdf26b9bf052eedfca22,乾何汽车美容装饰店,辽宁省,沈阳市,于洪区,渤海路26-1门附近,,123.314796,41.796168
b5ad930d401b947af603b80a,鑫饰源装修装饰工程有限公司,,,,辽宁省沈阳市于洪区滨江街与赤山路交叉口西北150米,,123.367498,41.875227
54a8f2c7d4957c2a3fe2317d,美车汇汽车美容装饰,辽宁省,沈阳市,于洪区,辽宁省沈阳市于洪区黄海路64号,,123.296123,41.799574
5ad00664e52d2e1b7f29bd4d,沈阳格调雅居装饰工程有限公司,,,,沈阳市铁西区建设中路1-2号第一商城A座11层,,123.376189,41.799819
6b6a84645f0785d25d0d0240,朗润设计,辽宁省,沈阳市,铁西区,辽宁省沈阳市铁西区南七中路12,13940536690,123.369226,41.798874
9b5d86bf9154e1182911d151,样品名品装饰,辽宁省,沈阳市,于洪区,南阳湖街恒大绿洲2期,,123.340459,41.751073
3e901f4616ac01959f09f74d,公牛装饰开关,辽宁省,沈阳市,铁西区,辽宁省沈阳市铁西区保工圣工街富云新都(西区),,123.364544,41.816721
0db03bb41e5fd768d42ce209,吉林科龙装饰工程有限公司,辽宁省,沈阳市,铁西区,景星南街90号中城大厦11层1112,,123.363875,41.795643
0c1f69fe755259acaaf0cddf,雅韵装饰工程,,,,辽宁省沈阳市和平区满融朝鲜族实验小学东南(满融路南),,123.353579,41.708984
d69b8a9b39aaf140abf729ce,欧域装饰,,,,辽宁省沈阳市皇姑区天山路274号,,123.391139,41.828027
144a9efe6f94fe1215c90500,沈阳天鼎装饰工程有限公司,辽宁省,沈阳市,铁西区,建设中路1-1号第一商城B座10层,,123.375838,41.800581
591bfa5ea4c04c7c1cf74d49,筑鼎装饰,,,,沈阳市铁西区北一中路19号沈阳国际纺织服装城F1,,123.382127,41.819985
24ef5163e012c9388bb9888f,辽宁誉成装饰工程有限公司,,,,辽宁省沈阳市于洪区凌空二街59-6号,,123.377401,41.772162
bd5c5e275ae8c5a78bdb7322,富林装饰(于洪店),辽宁省,沈阳市,于洪区,汪河路37号8门,,123.366052,41.762791
dfbff3c749757019b726557e,宏诚装饰,辽宁省,沈阳市,铁西区,辽宁省沈阳市铁西区国工二街48号,(024)31412165,123.376323,41.791658
f8a70eeee5d50c941ce99905,星宇车饰,,,,辽宁省沈阳市于洪区沈新东路1网点26门,,123.336555,41.783546
fd81b00af7fe6ea103ff2d2d,吴江龙盛装饰材料,,,,辽宁省沈阳市铁西区贵和街74号,,123.368151,41.79287
c6843424837b722715c8f6d7,中外装饰设计,辽宁省,沈阳市,于洪区,中央南大街与中央大街交叉口东200米,,123.258096,41.750401
7357571a36e5c092077ce8c1,百姓装饰,,,,辽宁省沈阳市和平区南十马路3号-10门,,123.391967,41.782668
b0e99888b79ba4cd4d776ef1,全运轩装饰工程有限公司,,,,汪河路凤凰街阳光100E14号2门(阳光100凤凰街),4008268186,123.36541,41.762539
b21524c0d18ebd58118824c0,圣多美汽车装饰广场,,,,辽宁省沈阳市于洪区北陵街道青城山路环北家园B区北100米,,123.393382,41.899304
af7f13f3bb0d58b2e856fabb,喧泰装饰(皇姑店),,,,三台子街道文大路保利溪湖林语五期北门对面,,123.393782,41.902036
465af758fa870160cc04ef40,旭盛鑫装饰,,,,辽宁省沈阳市于洪区造化街道造小线丽仁花园旁,13889270515,123.331283,41.888501
d559827c3aa682e908f5eb26,洁净汽车美容装饰,辽宁省,沈阳市,皇姑区,西江街79-10号(怒江公园西门对面),,123.395102,41.848159
07e8ba330f1f8cd1bbbd63cd,精艺求新装饰(皇姑店),辽宁省,沈阳市,皇姑区,太岳山路7号,4000240822,123.393451,41.854084
69eba590760b4a5d0aa8d417,Z铭装饰于洪店,,,,辽宁省沈阳市于洪区赤山路125-6门,024-67759395,123.381647,41.879537
f274cd8ff8ebc4fbe507382b,欣雅居装饰,辽宁省,沈阳市,于洪区,辽宁省沈阳市西江街168号-44门,,123.384471,41.866951
912ac770de819502f90cad31,名门装饰,,,,沈阳市皇姑区橡树湾2期南门,,123.369221,41.863867
75b16c7f309728401029352e,嘉毅美容洗车,,,,辽宁省沈阳市于洪区四季花城(丹景山路),,123.390163,41.86037
b324090096538c21343a7132,实创整体家装(于洪店),辽宁省,沈阳市,于洪区,辽宁省沈阳市于洪区松山西路15号附3号,,123.367271,41.866649
1c7dbb548bf37a548605bfda,凯滨汽车装饰美容轮胎超市-西北门,,,,广业路与重工北街交叉口东北150米,,123.344411,41.837227
3a5dce33647f00ddbda24095,沈阳蓝天装饰板厂,辽宁省,沈阳市,于洪区,辽宁省沈阳市于洪区马三家中街金马鸣园南,,123.251602,41.900528
4983b30dc5e06fde9f09f78f,御龙装饰建材,,,,辽宁省沈阳市于洪区马三家中街69-7门附近,,123.253093,41.904027
b21586a028bf144ceaf85307,鲁艺园石材私人定制石材装饰,,,,东平湖街东100米,13940423562;15140032818,123.300758,41.838003
8706f40e6cd2027e83a00ce4,建邦良友兄弟装饰工程有限公司,,,,沈阳市铁西区建设东路70号千缘・爱都国际A座12层,,123.383671,41.797886
44570dc27be4b7f948cc4a3a,星云装饰,,,,沈阳市铁西区陶林居北4,,123.372633,41.807786
93f325b778b75f39f6c59c33,兴晟汽车装饰,辽宁省,沈阳市,铁西区,辽宁省沈阳市铁西区北三中路25-3号,,123.363065,41.814787
ee2c6065f083e46ab45f1efc,金杞装饰,辽宁省,沈阳市,铁西区,辽宁省沈阳市铁西区南九中路25号,,123.361587,41.796705
9751de1ed26348a194031922,沈阳柏瀚装饰装修工程有限公司,,,,铁西区建设东路35号假日国际大厦12层,,123.386416,41.796212
2fa3e62fc52bb6f4f7e73b67,宏运顺装饰有限公司,辽宁省,沈阳市,铁西区,南七中路14号,13332438368,123.368444,41.799254
79a4e369fde64bce72210b67,沈阳俊翔装饰工程有限公司,辽宁省,沈阳市,铁西区,建设中路1号第一商城A座10层1017,,123.376189,41.799818
8bc60bf08a3bd51d9ff77949,惠友装饰,辽宁省,沈阳市,铁西区,铁西建设东路57号千缘・爱都国际B座20层,,123.382777,41.797539
7105080dbeba808c1df74dac,沈阳诗美绘建筑装饰材料有限公司,辽宁省,沈阳市,铁西区,辽宁省沈阳市铁西兴华北街30号新财富大厦25层,,123.384974,41.810933
8d1bfde12bae9614afee7a2e,沈阳建研装饰设计工程有限公司,辽宁省,沈阳市,铁西区,云峰北街62号东环国际大厦B座22层,,123.38353,41.798607
61abd4add627ee83afb22a42,装修活动家,,,,沈阳市铁西区陶林居东门,,123.373555,41.806791
c9d1d0fa50d741dfad0457f6,天雅装饰,辽宁省,沈阳市,铁西区,辽宁省沈阳市铁西区贵和兴华北街君临天下(东区)旁,13700004996,123.382433,41.807632
b44f4a9cd719bfff15a1906d,北京瑞原爱格装饰材料有限公司沈阳办事处,,,,沈阳市铁西区北二东路33甲5门红星国际4号楼407室,,123.388387,41.809124
b668d0a380c229b1c17da206,沈阳奇辉装修工程有限公司,,,,景星南街90号中城大厦1204,,123.363945,41.795502
e4936c92f6dcd6be1811d542,沈阳晋利恒装饰工程有限公司,辽宁省,沈阳市,皇姑区,辽宁省沈阳市皇姑区淮河南街11-1号,(024)86425909,123.39516,41.827275
965febd2d881977003ec019a,沈阳百分百装饰工程有限公司,辽宁省,沈阳市,铁西区,辽宁省沈阳市铁西区兴工建设东路和谐大厦B座南门,,123.385745,41.796221
74e403456c5aff484054d767,龙装饰集团工厂店,,,,辽宁省沈阳市皇姑区昆山西路53号,,123.394204,41.831246
98e26acfb6ebae1076e5b61c,DY东亚装饰驻沈阳办事处,,,,景星南街101甲附近,,123.365917,41.795853
d92266b562ea1fccb75f1e7a,沈阳艺万家装饰装修工程有限公司,辽宁省,沈阳市,铁西区,铁西区北二东路35号红星美凯龙斜对面,,123.390899,41.809872
e2a11c77f277029f3a13fda2,沈阳昊跃装饰装修工程有限公司,辽宁省,沈阳市,皇姑区,辽宁省沈阳市皇姑区锦水街57号-2门,,123.370657,41.83293
21fa38d3edbe57b97069d33a,仪铭装饰,辽宁省,沈阳市,铁西区,铁西区兴华北街18号千缘财富商汇8层,,123.388184,41.815458
7cc53c9197fbef879b68b437,四海汽车美容装饰(北四中路),,,,北四中路32-3-5门(宏伟金都北门),,123.358706,41.813269
353ca18e696e5d5f4c6d4643,精艺求新装饰工程公司,辽宁省,沈阳市,铁西区,景星北街22号6门,15940550435,123.380574,41.818879
6336a6933fe294ce2cb17e43,颐和金枪铁马装饰材料有限公司,辽宁省,沈阳市,铁西区,建设中路1-1号第一商城B座17层,,123.375838,41.800581
e318d3657c8328672902e16c,龙盛美术装饰,辽宁省,沈阳市,铁西区,南八中路77号-1-2门,,123.355007,41.801226
a133f1c7a48e4ea4471a320f,宇阳装饰沈阳工程公司,辽宁省,沈阳市,铁西区,景星北街21号7门,(024)31656459,123.375615,41.808842
db57e89a2fe798174207c1a1,圣兴建筑装饰工程有限公司,辽宁省,沈阳市,铁西区,铁西区兴华北街18号千缘财富商汇8层,,123.388187,41.815468
63b5ba4b59daf1da2b06ce96,沈阳统帅装饰装修工程有限公司,辽宁省,沈阳市,铁西区,建设东路72号爱都国际1310,,123.383922,41.798021
81ef7bc480e08652095cb315,鑫奇峰装饰,辽宁省,沈阳市,铁西区,北四中路22号2门,,123.371055,41.808473
6176f36bb102cf1f4054d71d,深圳博美装饰沈阳分公司,辽宁省,沈阳市,铁西区,南十一路22号-9门,(024)25491959,123.357257,41.795036
a00f84e1e952f8a90d0a708b,飞马装饰,,,,辽宁省沈阳市铁西区南七中路21号,,123.370969,41.797769
6d3dfbf5212064b77ab55cdc,沈阳天伦装饰工程有限公司,,,,辽宁省沈阳市铁西区第一商城B座19楼,,123.37607,41.800161
1f38919720c3c47cca09f00a,沈阳市雪克装饰材料有限公司,辽宁省,沈阳市,铁西区,建设中路1号第一商城A座12层1215,,123.376189,41.799818
cd43862ff01128ce0782c2b7,力创装饰沈阳公司,,,,兴华北街11,,123.388611,41.814092
2600f0add10e3939353a7116,弘誉装饰家居体验馆,,,,辽宁省沈阳市铁西区锦工街2号,,123.366831,41.804452
02206708d3e213eceb1e97d9,益格汽车美容装饰,,,,辽宁省沈阳市铁西区南七中路143网点2门,,123.355909,41.803271
90e71cb4a13c420c43e1928c,火娃装饰,辽宁省,沈阳市,铁西区,辽宁省沈阳市铁西区景星南街50号,,123.36751,41.798895
3a5bc785bce6cb199ee32189,沈阳东森装饰工程有限公司,辽宁省,沈阳市,铁西区,建设中路1号第一商城A座22层2221,,123.376189,41.799818
1a3ef054d848552d4151c0f0,美汇饰家装饰工程有限公司,辽宁省,沈阳市,铁西区,云峰北街62号东环国际大厦B座27层,,123.38353,41.798607
4264dfd3212a5e32dbeced7d,东飞装饰工程有限公司,辽宁省,沈阳市,铁西区,辽宁省沈阳市铁西兴华北街30号新财富大厦16层,,123.384974,41.810933
efeb30f1e982d46a17948e57,景尚装饰个性化设计研发中心,,,,沈阳市铁西区,,123.384403,41.809058
9808a1fc1fc3b42a0aa8d420,鑫源装饰建材,,,,辽宁省沈阳市铁西区德工街8号,13840546312,123.357116,41.805171
5f6003bcdd78e21314c8f6d5,金时代装饰,辽宁省,沈阳市,铁西区,辽宁省沈阳市铁西区景星北街68-3号-15门,(024)25846688,123.37209,41.80498
f3bb0490b9a732f11188248c,美盛装饰工程公司,辽宁省,沈阳市,铁西区,建设东路72号千缘・爱都国际A座4层404,,123.383671,41.797885
b0770b6ac7f1ec0a2e4733e9,沈阳岂元一品装饰设计工作室,辽宁省,沈阳市,铁西区,建设中路1-2号第一商城A座1110,,123.376091,41.800006
6aabffe8bbb961800782c206,沈阳博创伟业装饰材料有限公司,辽宁省,沈阳市,铁西区,建设东路35号2门假日国际大厦27层2711室,,123.386417,41.796211
93ac5964085bbf8e7f29bdeb,沈阳鼎豪建筑装饰工程有限公司,,,,沈阳市铁西区建设中路1-2号第一商城A座11层,,123.376189,41.799819
54ba4684032bfc77f6c59c1e,工程家庭室内外装饰装修修缮,,,,向工街16号附近,,123.364803,41.831059
1e3192b973f56f7549fd3f5a,冠甲装饰有限公司,辽宁省,沈阳市,铁西区,保工北街32号2号3门附近,,123.36329,41.813636
b21aa7e8eca40a6807026ff4,盛典装饰,,,,建设中路1-1号第一商城B座7层,,123.375837,41.800582
d3e50b38592626a3c336442c,飞扬装饰,辽宁省,沈阳市,皇姑区,辽宁省沈阳市皇姑区涟水街4号-1门,(024)31562697,123.361705,41.832549
a40f5191b1c3d8e29f09f7c2,鑫环装饰,辽宁省,沈阳市,铁西区,沈阳市铁西区,,123.371868,41.797744
f5a1a2855a3dcaee79b55c83,沈阳美之峰装饰工程有限公司,辽宁省,沈阳市,铁西区,建设中路1号第一商城A座20层2016,(024)85611102,123.376189,41.799818
1e6ae3e68fcd7f7b17c8f6b5,纳米氧蒸家装体验店,辽宁省,沈阳市,铁西区,辽宁省沈阳市铁西区景星北街23号,,123.374361,41.807073
e31cbc37965b4b79e31103d3,沈阳昌峰装饰工程有限公司,辽宁省,沈阳市,铁西区,建设中路1号第一商城A座17层,,123.376189,41.799818
e281049db42d595d5e17c3d6,晨光建材装饰,,,,保工街南七中路60号,15942013155,123.360257,41.802631
a281f1272db67946fa42b23d,美海家装饰,,,,沈阳市铁西区,,123.389169,41.808233
24ee12858831f1add22dd6d2,鑫鸿达装饰,,,,南七中路63号,,123.367221,41.799446
d3f83feb8fe7e35397f08c7a,沈阳市高吉装饰有限公司,辽宁省,沈阳市,铁西区,景星南街59,,123.368574,41.799654
826ce514c7586b98fda778fd,印像创意壁纸装饰画,,,,辽宁省沈阳市铁西区齐贤北街30-2号-3门,,123.368714,41.80948
41de0a46b5724f6c38221c4d,富雅中鼎装饰材料经销部,,,,辽宁省沈阳市铁西区铁西商圈南八中路12号,,123.369214,41.796314
66816d6c1e5f6882a2d230e9,d多知轩装饰,辽宁省,沈阳市,铁西区,辽宁省沈阳市铁西区北三东路28-2网点12门,(024)62642333,123.386523,41.808028
daa409804920be74f82d61aa,新北方装饰建材城地上停车场-出入口,,,,沈阳市铁西区,,123.366891,41.809888
cd2960f4a625504c72455b48,吉星装饰牌匾白钢铝塑,辽宁省,沈阳市,铁西区,辽宁省沈阳市铁西区富工五街15号,13804050463,123.335214,41.808997
5e5acab9a5e6e28eafee7af1,梓瑞装饰,,,,辽宁省沈阳市铁西区北四西路5号-22门,,123.338559,41.817644
1f01c9b4f33ea2e2725e8022,博雅装饰,,,,南十一西路与双喜巷交叉口西北50米,,123.326405,41.798761
673656eadce040f1d0ff2325,立信东升装饰材料市场-北门,,,,辽宁省沈阳市于洪区洪湖北街40号附近,,123.316163,41.812205
0dde6453096fb56495ca073c,立信东升装饰材料交易中心-4号门,,,,辽宁省沈阳市于洪区于洪街道洪湖北街于洪建材市场公交站,,123.316009,41.810543
1d491a8d915a01beadcb66ec,凌丰装饰,辽宁省,沈阳市,铁西区,辽宁省沈阳市铁西区北二西路26号甲4-12门,,123.350516,41.827337
324d611e0c352455d8d891c2,陕西建工安装集团,辽宁省,沈阳市,铁西区,北四西路4-4号7门,,123.352173,41.811064
5ff306cf83d700aee011030d,金顺装饰建材,,,,辽宁省沈阳市铁西区南七路肇工街公交站(富工花园东),,123.340014,41.806555
9f0ebc530f77e62b77e5b67a,聚众达爱车之家洗车装饰,,,,辽宁省沈阳市铁西区南八中路79号,,123.354417,41.801831
419e3b331777a80cd23ce393,沈阳吉盛装饰工程有限公司,,,,辽宁省沈阳市铁西区卫工南街(卫工佳苑旁),,123.350783,41.799801
6d9d9fbaabc47ac7940319c7,鑫盛源装饰材料,,,,辽宁省沈阳市于洪区沈大路,13898189305,123.31703,41.808968
a3bdaf5596bbb6481b11d534,成国汽车装饰用品厂-专业生产汽车脚垫,,,,北二西路26-3号附近,,123.352454,41.825866
49e3d2cd88adaff142d63ef8,昌隆装饰建材,辽宁省,沈阳市,铁西区,辽宁省沈阳市铁西区富工四街30号,"13284285565,15710518565",123.336092,41.806521
ef44775055767ab7581093f2,沈阳庆丰装饰装修材料批发,,,,辽宁省沈阳市铁西区富工五街27号,13390241858,123.335223,41.806492
993e3e662731daac40ab9a69,龙艺峰装饰,,,,辽宁省沈阳市铁西区富工二街8号,,123.338431,41.809754
ac672218269ed6f8260bd09b,晋泽汽车装饰,,,,辽宁省沈阳市铁西区瑞京时代汽配用品广场6门,15640217710,123.349627,41.823429
5d837e079ea2f1552fe67bea,敬业装修,辽宁省,沈阳市,铁西区,辽宁省沈阳市铁西区肇工街南七路公交站(三十六中学西南),,123.342079,41.806262
afd043bf5e673148e607389a,宏达建材装饰,辽宁省,沈阳市,铁西区,保工街南十中路西走五十米51号楼四单元一楼,,123.35425,41.797565
7e9639c3065414ce51e5c50c,一诺美术装饰,,,,辽宁省沈阳市铁西区富工五街27号,,123.335287,41.806476
71e31362fc9536ececdfcabe,新颖装饰,,,,辽宁省沈阳市铁西区南十一西路71号,,123.326033,41.798878
b6cbb6a1d2973d884d2fdf85,和沐建筑装饰,辽宁省,沈阳市,铁西区,辽宁省沈阳市铁西区北一西路25号-6门,,123.332401,41.835901
36569d7228f076d01d5800ea,筑汇装饰()华府店,辽宁省,沈阳市,铁西区,肇工北街25号恒大华府1号楼商铺2楼,,123.347421,41.822579
371ec5c77d87b3620bccdd9a,艺佳鑫鸿琳装饰材料经销处,辽宁省,沈阳市,于洪区,辽宁省沈阳市于洪区洪湖北街6号,13654997500,123.315812,41.809917
460b94af2828f87771210b99,众友装饰材料,,,,迎宾路街道洪湖北街西部石材32,,123.315911,41.809534
4282e56fdfdb0a62bea240ad,立信东升装饰材料市场-南门,,,,辽宁省沈阳市于洪区森美灯具(洪湖北街),,123.315868,41.810397
1616237377cf35ff3686f4d6,鑫鑫装饰建材,,,,七路街道富工二街南七西路19号,,123.337982,41.806548
97992bb9928a0639b6147f3f,冀沈装饰,,,,沈阳市于洪区,15998813496;13234019122,123.316057,41.811691
70c99286f01a43a70c0a70e6,嘉驰越野装饰,,,,辽宁省沈阳市铁西区启工瑞盛家园小区西北(北二西路北),,123.351481,41.825843
c4315a2b0486a8e0fadc8506,中原装饰材料,,,,辽宁省沈阳市于洪区洪湖北街24号,15710559232;15566190588,123.315966,41.810999
fb8b204c9ff0e976e8e58294,家佳装饰,,,,辽宁省沈阳市铁西区重工街道富工五街富祥社区,13610883414;13478346564,123.335116,41.805895
7d282b98694478948c1a8908,益格鑫装修队,,,,凌空二街53门6号附近,,123.380232,41.773349
ff510b733dbb86907ab55cf9,金利伟装饰建材,,,,辽宁省沈阳市铁西区红粉路31号7门,13591669803,123.354938,41.780204
c649fad35d37e7e52d473384,三x装饰企业,,,,沈阳市铁西区,,123.360856,41.787996
2781e296f085a8e91ce9998c,万福装饰,,,,辽宁省沈阳市铁西区艳粉街23号,,123.361825,41.79071
7f9dcd8890f468af87330414,沈阳华雷装饰工程有限公司,,,,辽宁省沈阳市于洪区城东湖街紫郡城西区D座3单元12,,123.368257,41.770579
49db773841dff70eb21e3642,联塑家装精品建材沈阳总代理,辽宁省,沈阳市,铁西区,艳粉街56巷7-2号7门,25950565;15942338115,123.357053,41.777459
6fdc00a6f9e4ef57e812e4c7,嘉祥美术装修,,,,辽宁省沈阳市和平区新华路113号,,123.395217,41.781114
5ab624e8118c454cf82d61bc,沈阳市蔷薇之恋装饰设计有限公司,辽宁省,沈阳市,铁西区,兴华南街48号都城MOMA大厦B座4层18,,123.37022,41.791917
3f143994826351e07369d32f,笔克装饰有限公司,辽宁省,沈阳市,和平区,沈阳市和平区胜利南街92号胜利大厦16层,,123.392934,41.787614
846586307ef4523f62685867,海岛装饰集团工程公司,辽宁省,沈阳市,于洪区,阳光路18号102门,,123.37041,41.758569
8ba4a4a0063ba55f6f4760bf,日隆广告装饰,,,,辽宁省沈阳市铁西区利工街88号,,123.360054,41.790184
13ece87717e97103adb22a2e,隆腾车饰,辽宁省,沈阳市,和平区,辽宁省沈阳市和平区胜利南街90号,,123.393958,41.78905
5bc0c5afb263d1373586f4de,炫车车饰,辽宁省,沈阳市,和平区,辽宁省沈阳市和平区胜利南街90号,,123.393737,41.788669
138be3a5e52a42a87f29bd5e,洗车装饰座套,,,,沈阳市铁西区,,123.385129,41.778026
7fc10b0e28916b1cfb42b251,鹏达汽车电器装饰,辽宁省,沈阳市,铁西区,辽宁省沈阳市铁西区肇工南街87号附2门,,123.342307,41.786141
ff149d7b689ee61342ab9aaf,小胖汽车精品装饰,,,,辽宁省沈阳市于洪区沈新东路1网点20门,18204010073,123.336555,41.783546
1ba41f70804fddab30870aab,龙玺装饰,,,,辽宁省沈阳市于洪区碧桂园・银河城105号-03,,123.34866,41.756564
64a4b4bbde7fd46c12882487,杰泰装饰,,,,南阳湖街与细河南路交叉口东50米,,123.338081,41.757058
b1f16c1c63ff017e87154149,宏运丰建材装饰,,,,沈阳市于洪区,15804092475;13358876673,123.345173,41.765053
049b2a7def27f4b6d23ce30e,伟星管公牛装饰开关,,,,南阳湖街与汪河路交叉口北50米,,123.340435,41.755128
04a7262df074b0a92b3a9fe1,祥辉汽车装饰,辽宁省,沈阳市,铁西区,辽宁省沈阳市铁西区勋业五路18号-14门,,123.335036,41.786206
9ddac88d8f7311c828d7abd3,沈阳新型建材高级装饰装修公司,辽宁省,沈阳市,于洪区,辽宁省沈阳市于洪区大通湖街益格风情湾二期附近,,123.330732,41.773485
199bf5850f19b7899f09f703,吉祥建材装饰,,,,辽宁省沈阳市铁西区赞工街115号附近,,123.33791,41.790758
a59e4b0a4df1e276a6da39ba,众鑫装饰,,,,辽宁省沈阳市铁西区重工南街75号,15840274765,123.332155,41.789839
af6e7a87c58a0d6a9a0050dc,沈阳大鸿装饰,辽宁省,沈阳市,铁西区,辽宁省沈阳市铁西区壮工街4号,"4006060080,15542286581",123.329288,41.791013
97b927946ac09300c336447d,永缘汽车装饰,辽宁省,沈阳市,铁西区,辽宁省沈阳市铁西区勋业五路18号-6门,,123.334422,41.7862
480d1f60c13e0608b9df8fae,奢美装饰,,,,辽宁省沈阳市于洪区大通湖街130号-4门,,123.343985,41.766075
4b6681b6e64d6d690c0e6bb6,鑫鑫装饰,,,,辽宁省沈阳市铁西区南十三路9,13140024411;13080707228,123.349468,41.790632
50e1b1331e0ada5d8c55ec09,乾僖装饰,,,,辽宁省沈阳市于洪区大通湖街134号-3门,,123.34393,41.766184
d6f066bf2f9d64b240e192f2,辽宁高科能源集团新装饰杂志社,,,,黄海路64号,,123.296229,41.799454
b170c7a71b8f9f40b13c810b,雨辰工程装饰有限公司,,,,辽宁省沈阳市于洪区于洪街道沈大路和泰・尚(东区),,123.303485,41.805949
9eae810eebfa757e715e802c,禹佳防水,,,,四号街与沈辽路交叉口西150米,,123.277181,41.761043
51991a61478eb5e543024533,卓达装饰工程公司,辽宁省,沈阳市,于洪区,花海路19-1号奉达大厦银座918,,123.302806,41.773534
cfe7d26c4425133497ec841f,佳美装饰,,,,辽宁省沈阳市于洪区开发大路9-1网点3门,024-67792918,123.264966,41.768454
b446c050cfae011d9c09f704,亚雅装饰图文美术,,,,沈阳市铁西区,,123.250922,41.763633
b653ae29ca662eedbe4842da,恒通装饰,,,,长白街道胜利南街356号越秀星汇蓝海西门,,123.391825,41.743364
051bcca7de2ab6a96fa3ccdb,吉庆装饰,,,,胜利大街长白中路,,123.391895,41.743201
a0b34f1ef3f251ceeb12e4dd,星云装饰工程有限公司,,,,沈阳市铁西区,,123.237666,41.74464
cd2587375fb19ca987420e69,金霞装饰,辽宁省,沈阳市,于洪区,辽宁省沈阳市铁西区曹后公路,,123.228107,41.732578
8f6f9c8b188ec2f9d7851ffb,天启装饰,辽宁省,沈阳市,于洪区,辽宁省沈阳市于洪区G102(沙岭路),,123.205985,41.798491
f21a93a1feb682ca5cd4fe63,大海装饰材料,,,,辽宁省沈阳市于洪区沙岭路64-5,,123.208054,41.799723
f526cb7e3cb50027cd04efa4,懿轩装饰王氏诚信建材,辽宁省,沈阳市,于洪区,辽宁省沈阳市于洪区沙岭路64-7,,123.207675,41.800538
d2feaf9d0988c3602fb9085b,冠亿装饰,,,,辽宁省沈阳市于洪区赤山路84-6号-1门,,123.378615,41.880687
88d45847ddd928afadcb6657,华鑫汽车装饰,,,,千山西路68号附近,,123.39027,41.883253
579b153a2f83742085420ea9,天佑水暖建材装修商店(No.00254),辽宁省,沈阳市,皇姑区,辽宁省沈阳市皇姑区汾河街27号,,123.392047,41.838706
d7ded47c5afa0f25c2f1cf67,居雅装饰,辽宁省,沈阳市,皇姑区,太岳山路7-2号楼附近,,123.393703,41.854046
41ed1ccd04f4e0bd58f6bee7,益源利汽车装饰,,,,辽宁省沈阳市于洪区向工街宏达家园北门,,123.3699,41.844408
5a937f63969bb7763fe231fc,棠装饰,,,,沈阳市于洪区,,123.386072,41.879337
75ffadc4e02dcc3b0ab93acc,鑫鸿家装饰,,,,辽宁省沈阳市于洪区赤山路124-8门,,123.380524,41.879127
fd10937854c44ca1df1e5275,沈阳禹地防水工程公司,辽宁省,沈阳市,皇姑区,辽宁省沈阳市皇姑区崇山西路38号412,,123.388324,41.836752
bc99a786737151180c0e6bcc,龙泰韵畅装饰,,,,沈阳市皇姑区,,123.366214,41.862653
6032f34cb21da50509ccdd66,凯东装饰工程设计有限公司工程部,,,,辽宁省沈阳市于洪区赤山路,,123.388586,41.877029
fbe0b661ebea1b9e8c1a89cd,宝兴隆汽车美容装饰洗车行,辽宁省,沈阳市,于洪区,辽宁省沈阳市于洪区青山路,,123.39243,41.87416
1794abdb6b22263a871541fe,大可以装饰,,,,广业西路30-1号附近,,123.332309,41.845356
b67ea6cf53ed0c8adbd8911f,中磊装饰,,,,辽宁省沈阳市于洪区广业西路,,123.332738,41.846363
df0f94e65876be591c38943c,凯滨汽车装饰美容轮胎超市,,,,广业路与重工北街交叉口东北150米,,123.344464,41.837217
554120ad6480d86715c905da,沈阳帝诚装修装饰工程有限公司,,,,辽宁省沈阳市铁西区云峰北街58号东环国际大厦B座11层,,123.383238,41.798377
d6e16037b5d5a4ebc91b959e,鑫君瑞装饰铁西旗舰店,辽宁省,沈阳市,铁西区,北四中路20号4门,(024)31670066,123.372617,41.807846
d4254f8ca5a977251d580002,金开利铜道铜装饰,,,,南十中路与齐贤南街交叉口西50米,15541979628,123.358273,41.795974
9e6e77ef86327cba31870ae3,满地荷装饰材料,,,,沈阳市铁西区北四中路24-611门附近,,123.367358,41.811294
7b7a3d3498be58c0f603b84f,子九装饰画,辽宁省,沈阳市,铁西区,辽宁省沈阳市铁西区建设中路35,,123.368844,41.803677
6c3fb683b093179a932ca36b,建邦良友装饰,辽宁省,沈阳市,铁西区,辽宁省沈阳市铁西区建设东路72号千缘・爱都国际A座12层1211,,123.383671,41.797885
6374fdcd9093358633169b38,沈阳鑫坤装饰有限公司(云峰北街),,,,云峰北街62号东环国际大厦B座25层,,123.38343,41.798763
60f7c69d71847e9b990050f5,沈阳佰轩装饰有限公司,辽宁省,沈阳市,铁西区,建设中路1号第一商城A座26层2602,(024)25115466,123.376189,41.799818
5af9b027a53ad1742b3a9fd5,百诺装修,辽宁省,沈阳市,铁西区,"铁西区兴华南街5号鲁尔大厦12层12,13号",(024)25873916,123.377424,41.798696
3d7389e96e5b06a22fb17e5c,沈阳天地和豪装装饰设计有限公司(浑南分公司),,,,浑南新区世纪路同方世纪大厦3门,"13604906215,(024)23483666",123.464411,41.724212
ec40321952759b077ab55ccf,加油加气站(装修中),辽宁省,沈阳市,东陵区,辽宁省沈阳市沈河区东陵路120号(沈阳农业大学体育馆东50米),,123.573335,41.826805
fa7da3e8b423cf6243d63ea1,辽宁荣昌装饰装修工程有限公司,辽宁省,沈阳市,沈河区,南乐郊路210,,123.472356,41.795792
50bc493bcc72c8b2ca1b9577,沈阳瑞家装饰装修工程有限公司,辽宁省,沈阳市,皇姑区,辽宁省沈阳市沈河区大西路268号沈阳市房产局路北,,123.445405,41.799967
906b504df45bd7ffa2a9345d,林凤装饰浑南店,辽宁省,沈阳市,东陵区,辽宁省沈阳市浑南区浑南中路20-3号-3门,,123.488329,41.747533
4219d0ed9923b2cc230262a8,荣耀汽车美容装饰名店,辽宁省,沈阳市,皇姑区,辽宁省沈阳市皇姑区昆山中路102号,,123.416828,41.825598
f19edbfacb7e0796128824a7,海越洗车汽车美容装饰中心,,,,辽宁省沈阳市浑南区仙岛南路滨河湾二期40栋6-7号,13066593353,123.417673,41.740989
0d56e3c2bd19dbee3813fd68,沈阳八家子装饰材料市场-西南门,,,,东西快速干道288号附近,,123.524778,41.819036
e90580d89493695b931fc935,金山五金装饰家具城,辽宁省,沈阳市,于洪区,辽宁省沈阳市皇姑区崇山东路49号,,123.455667,41.839191
1cea15a93b3a78b806fef5b6,沈阳市仕龙建筑装饰设计公司,辽宁省,沈阳市,沈河区,文艺路顺发西巷6号,,123.452438,41.785043
ff75e0259bb7c3817ab55c8e,长青恒宇装饰材料商行,辽宁省,沈阳市,东陵区,辽宁省沈阳市沈河区东北装饰城2区1层36号,,123.494898,41.773194
2c7d49f87c9e22bd8c1a8996,观泉路五金装饰材料市场,,,,辽宁省沈阳市大东区东二台街11号,,123.515165,41.848145
5c9b17fd2dc395c92b201a7a,原创花艺装饰作坊,,,,八王寺街7-1号(4门)尚品天城南区,,123.469573,41.81771
12cc5cb95161301f15c905dd,芒果装饰,,,,沈州路181号4门,,123.446045,41.798717
07f7c4ce6ebc3340f603b866,CG洗车美容装饰,,,,辽宁省沈阳市皇姑区黄河北大街79号,,123.423166,41.883873
7c1531eff77365d4a0acc452,洪技研汽车装饰用品有限公司,辽宁省,沈阳市,皇姑区,辽宁省沈阳市皇姑区崇山东路56号,,123.447248,41.839071
eb3f27f0044375da2fb96d23,沈阳豪都装饰工程有限公司,,,,辽宁省沈阳市大东区中学堂路19号-7门,,123.482803,41.818955
7268f7ff70b5d3c125e0a0b5,车百度汽车美容装饰养护专业店,辽宁省,沈阳市,沈河区,辽宁省沈阳市沈河区北二经街85,,123.434654,41.797797
84d8e73753fa65269d82ea41,日丰管玉雅居装饰材料,,,,沈阳市浑南区,,123.494327,41.738498
91cc7de01b8c50cbe5073823,东北装饰城-北门,,,,辽宁省沈阳市浑南区长青街东北装饰城西北(MOTO新城东北),,123.495707,41.773409
5367f0e662711be9373a71af,沈阳汇丰源装饰工程有限公司,,,,长白街道和盛巷6甲万科中心7楼,,123.39915,41.758265
684b1b5f012cf5e8a1d230de,靓车坊洗车美容,辽宁省,沈阳市,东陵区,辽宁省沈阳市浑南区银卡东路1-47号6门,,123.50889,41.746116
bbf96195278f843921026235,新饰家装饰（浑南红星美凯龙店）,辽宁省,沈阳市,东陵区,浑南区区区浑南新区临波路10号浑南红星美凯龙4楼(奥体中心),,123.448641,41.740933
172c53f22ccb73368c1a8979,辽宁嘉春装饰工程有限公司,,,,辽宁省沈阳市沈河区西滨河路44号,,123.439147,41.78912
a2832896819af34bb21e36e0,领秀e家装饰,,,,沈阳奥体对面亿丰时代广场A座整9层,18698891520,123.472333,41.743291
cacc158f96986dbcf82d614b,奉泉装饰浑南装修家居体验馆,辽宁省,沈阳市,东陵区,辽宁省沈阳市浑南区浑南中路10-13号4门,,123.49401,41.748838
8d88d9908f3fc4442efaa7d0,塞纳春天互联网家装,,,,辽宁省沈阳市铁西区北二东路4号4门,,123.40093,41.805623
56f2f696698bcd800aa8d45b,沈阳市飞翔装饰有限公司,辽宁省,沈阳市,大东区,滂江街111-2号,(024)24832625,123.492971,41.803214
d84859706c864411c9fa5f1f,福t装修装饰材料,,,,辽宁省沈阳市沈河区热闹路23-1号楼,18615489716;13889301683,123.447032,41.792844
41d46137731996f9631c6792,沈阳通海建筑装饰工程有限公司,辽宁省,沈阳市,大东区,大什字街19号-9门,,123.475111,41.801707
cac71697d5d350816c3e1b9a,港华装饰工程,,,,沈阳市和平区市府大路262号新华科技大厦24层,,123.434416,41.811645
ce6b5571e09520e9a6da39ea,林凤装饰工程有限公司大东店,辽宁省,沈阳市,大东区,大东区德增街38号(花鸟鱼市场对面),(024)85855112,123.470403,41.814819
db815c97023c5a3e31870aac,大永汽车装饰,,,,大南街道东滨河路82号,13514250496,123.470114,41.790846
6aed05901e9ffe724d2fdf31,堂利装饰装修,辽宁省,沈阳市,沈河区,辽宁省沈阳市沈河区南通天街30号,(024)24150748,123.463245,41.793645
5c0c1b6669fc0700b020a82e,恒拓装饰制品,辽宁省,沈阳市,东陵区,前进乡榆林大街83号鑫泉湖垂钓乐园附近,13998332237,123.529741,41.876282
892cde46106d7032a1a934d3,奇阔软装修旗舰店,辽宁省,沈阳市,沈河区,西顺城街222号,,123.45483,41.801323
789c833d98710db36f476074,车美佳诚专业贴膜,,,,沈阳市浑南区世纪新城西南门d9-62门,,123.447594,41.729538
557d90e21a68a6bf80a00ca7,海鸟装饰工程公司,辽宁省,沈阳市,和平区,辽宁省沈阳市和平区三好街54号辽宁物产科贸大厦16层,,123.433707,41.774867
93ab9c1ead643f600f0a70c8,沈阳斯勒防水保温工程有限公司,辽宁省,沈阳市,皇姑区,辽宁省沈阳市皇姑区闽江街2号-1门,,123.41499,41.81811
b1e9f0b50756e1ed30169b17,快捷洗车装饰专修现代起亚,辽宁省,沈阳市,沈河区,辽宁省沈阳市沈河区小南街317号,,123.456254,41.780333
2d6f33e5b3a2bb5e03ec018c,沈阳鸿诚包装装潢印刷有限公司,辽宁省,沈阳市,于洪区,长江北街66-2号,,123.412647,41.859796
d305db1fdd3fc63e932ca3f5,沈阳市鸿宝装饰材料厂,辽宁省,沈阳市,于洪区,鸭绿江北街58号,,123.459505,41.870545
b7f5da66eea4ee410b1cc745,金典装饰,,,,朝阳街少帅府后巷与正阳街通济仓北巷交叉口西北50米,,123.461494,41.80095
1dcd539773845e324251c0b0,轩境名车美容装饰会馆,,,,惠工西二街四十一号门市,,123.445895,41.816513
3bc9a548d82f1ac3cac3dbd2,仪铭装饰,,,,五三街道浑南新区彩霞街1-1号,4000241908,123.456219,41.739496
6835e3a7be5f594ee3110354,沈阳亚东装饰工程有限公司,辽宁省,沈阳市,大东区,文官街19号,(024)88261590,123.49674,41.887184
3688a685b370b1bc373a71b4,辽宁中尚装饰工程设计有限公司,辽宁省,沈阳市,东陵区,沈营大街28-28号首创自在天地A座11层,,123.448331,41.739695
0d2d1eecd6ed3e21c72ba109,沈阳永强装饰材料市场-板材批发大厅,,,,怒江北街56号甲,,123.4002,41.857216
68bb1f20e6e00be19ee3219f,沙沙装饰材料商行,,,,观泉路与高官台街交叉口西北200米,,123.515165,41.848145
91637a07bb88bad2c929155e,沈阳元铭装饰工程有限公司,,,,辽宁省沈阳市皇姑区闽江街75号,024-86201513,123.421641,41.820848
bc4ff2f0bb233f7a3617dc14,嫣轩装饰,辽宁省,沈阳市,和平区,辽宁省沈阳市和平区南湖街道南三好街7-18号(御景新世界二号岗斜对面),,123.43149,41.758963
e658e077f670266f1288249f,博奥汽车美容装饰,辽宁省,沈阳市,东陵区,东陵路18甲-22号1门,15542245688,123.532227,41.821862
d6dfcc82ca99822472210b9a,天地和装饰,,,,世纪同方大厦,,123.490379,41.793407
9d0cb0ef215e5d18f8221324,广东装饰城家具,,,,长青街78号,,123.495298,41.771909
5a841e470a2d63fb1b94c611,沈阳市沈河区红棉图片美术装饰中心,辽宁省,沈阳市,沈河区,沈阳市沈河区团结路69号(3-132),,123.452929,41.818901
9b5a825df2d80a4716c90529,鑫宏达五金建材家庭装修,辽宁省,沈阳市,和平区,辽宁省沈阳市和平区南五经街14号,15940331310,123.425326,41.793561
93210668d4ceec23932ca305,大邦装饰,,,,辽宁省沈阳市长白街道长白岛仙岛北路152号,,123.414107,41.742783
baf5c68e7f8fc7bb03ec017a,裕普汽车美饰中心,辽宁省,沈阳市,大东区,沈阳市大东区东边城街92号,,123.484182,41.814003
3b5256570ac001fe9c9d6821,大上立德装饰-东南门,,,,乐山路与黄河北大街交叉口西南200米,,123.423012,41.871204
72521d0d8d4bd28038e4a649,沈阳金银山五金装饰材料市场有限公司,,,,陵园街39号5层,,123.454741,41.852924
bed71e32e684eff6adee7a13,海江装饰,,,,辽宁省沈阳市大东区沈铁路222号-2门,,123.502197,41.846144
cdabc5c2732b8cedca1b951d,宝城装饰五金建材,,,,方凌路27号2-1门,,123.521028,41.791965
53a4ab9da1f7f175bb17e723,鑫如意装饰材料商行,,,,沈阳市浑南区,,123.496843,41.772306
d5d966f5442e06c76a49f388,车管家汽车装饰中心,辽宁省,沈阳市,东陵区,浑南区夹河街A-1号世纪新城五期南门,,123.457001,41.731628
69ceb024b6d20344bca822c6,鑫明辉装饰,,,,东陵路67-4号4门,,123.543227,41.820089
2461f14aa5a9aa6e1188240b,汽车装饰新伟五金电动工具,辽宁省,沈阳市,东陵区,辽宁省沈阳市沈河区东陵西路73号,,123.525774,41.818312
45c9d61d1b1319dd882fb523,北奇达汽车美容装饰连锁大东店,辽宁省,沈阳市,大东区,小河沿路150号民航北门建行东500米,,123.501321,41.797128
ea3dcfeee608dcdcf90cad67,沈阳市悦利装饰装修有限公司,,,,浑南新区天赐街5号国贸中心c座5楼,,123.470721,41.754766
486989acbc99ac3a0b1cc767,洁缘汽车美容装饰,,,,东北大马路273-1号,,123.508845,41.83453
1783bc9df64e73e888f15d3c,浩腾装饰,,,,热闹路87-3号五爱服装城东门(五联商业广场北6门正对面),,123.461015,41.79296
c9252d91e54d4da43f9a5e00,新天地汽车音响装饰,辽宁省,沈阳市,于洪区,辽宁省沈阳市怒江北街225号17门18门,,123.404074,41.891531
734e014012e88f93ebe582c3,辽宁泰康不锈钢制品装饰安防电子公司,辽宁省,沈阳市,于洪区,北固山路12-7号10门,,123.410625,41.872529
02417bb756c6d69f8415414f,沈阳铭天阔装饰装修工程有限公司,辽宁省,沈阳市,大东区,津桥路2甲金香山大厦5层510,,123.471186,41.811544
2edc394a0a2ac91cab0dd8e6,亿家装饰,,,,辽宁省沈阳市浑南区浑南东路59-28,,123.557238,41.77263
3432047ed9d06cb9d92f2890,沈阳凯瑞得装饰工程涂料厂,辽宁省,沈阳市,于洪区,辽宁省沈阳市皇姑区观音路西段,,123.45619,41.883681
238772def3fbc6bdb23c81f2,陈升福元昌(装修中),,,,边墙路92-9-7,,123.463021,41.823612
8320730c792c0e2ae7e96566,铭轩装饰,,,,辽宁省沈阳市皇姑区嘉陵江街68-1-2门,,123.423218,41.83005
3e689522e17873096ca3cc38,易新洗车美容精品装饰维修保养,辽宁省,沈阳市,于洪区,黑山路6-8号,18609882444,123.418265,41.871867
f7e09794de28bf4499005032,爱车一族汽车美容会馆(二部),辽宁省,沈阳市,于洪区,辽宁省沈阳市于洪区恒盛阳光商城3期西行90米,,123.400455,41.8719
11538ce301d6682888b9885f,昌鑫汽车美容装饰,,,,虹桥路8号3门富云花都南门,,123.403886,41.810621
f4a5273454e4efc9a4c7561c,众玉鑫汽车美容装饰中心,,,,泰山路9号北陵东门,,123.444765,41.849718
63f3ae9d8b6f6ed7d1f49e1f,沈阳中元伟业建筑装饰工程有限公司,辽宁省,沈阳市,沈河区,辽宁省沈阳市沈河区大西路316号,,123.444623,41.799838
c9b91260d3a8adcb28b97c4f,鑫水美车,,,,辽宁省沈阳市铁西区小北一东路51甲7号2门(新湖北国之春一期南门),,123.398373,41.814376
e3b6f33486b711f76f3e1b47,梵客家装（沈阳分公司）,,,,滂江街24号红星美凯龙二楼,,123.494567,41.812235
4a88ffb431ef820772210ba4,天天汽车装饰用品商行,辽宁省,沈阳市,和平区,辽宁省沈阳市和平区文安路23号,,123.437791,41.761179
82c2df2239b37050fbdc855f,鹏鸿金福缘装饰商行,辽宁省,沈阳市,东陵区,辽宁省沈阳市浑南区浑南区东北装饰城四区1层7号,,123.49601,41.772877
a0bd33943b00405b343a71c0,公牛装饰开关(沈阳授权店NO.辽沈W1503-G016),,,,辽宁省沈阳市大东区东方欧博城(望花中街东300米),,123.489082,41.870362
5a61b9b0847b7347bbbd63b2,北辰汽车装饰,,,,黄河北大街101-1门,,123.422897,41.888799
bc4ac38f4d92d09e8505bf37,车之家汽车美容生活馆,,,,辽宁省沈阳市大东区东建街59号,,123.510486,41.840964
e738de6952d5760d1ce9998f,沈阳永强装饰材料城停车场-出入口,,,,香炉山路南50米,,123.402526,41.857576
ce688b4b116a124a250bd023,东石装饰,,,,辽宁省沈阳市浑南区南京南街245号,,123.411848,41.744817
18b44ac4bd171581283a9f80,新世界汽车装饰,,,,辽宁省沈阳市大东区联合路203号,,123.505105,41.839924
ddd2dacf15429352ae31e5b6,欧坊装饰,辽宁省,沈阳市,于洪区,辽宁省沈阳市于洪区黄河北大街98-12号,024-66676809,123.416777,41.881359
54097a1fe8ff133a2806cecd,起点装饰,,,,辽宁省沈阳市沈河区东顺城街69号,,123.471172,41.805167
1304221381c33e460aa8d4aa,沈阳新叶装饰工程有限公司,,,,浑南新区金卡路亿丰时代广场C座729号,,123.469392,41.742381
ebb961a066f85f2ec26c1494,晟轩汽车美容装饰快修店,,,,东陵路19-4号14门,13478866455,123.533925,41.815284
913770c7bee6bc194e2fdf30,蓝天铝塑铁艺装饰,辽宁省,沈阳市,于洪区,崇山东路36-4附近,,123.458597,41.841594
db249b937ade379354bfff35,沈阳家居大世界装饰材料市场-南门,,,,长江北街58-6号附近,,123.413567,41.856414
a3fbd23b5cfcec59eb56fa2b,盛昊达装饰,辽宁省,沈阳市,东陵区,文化东路52号,,123.478245,41.775691
e68012088a107cf04107c10d,宏宇铁艺白钢门业,辽宁省,沈阳市,大东区,天后宫路69号,,123.46138,41.816334
9fa683450a56293beb56fa1d,振弘五金建材家庭装修,辽宁省,沈阳市,和平区,中兴街67号,,123.411734,41.77917
e529e419f56d42e0eddfcacd,创梦装饰,,,,辽宁省沈阳市浑南区浑南东路59-28,,123.556883,41.772459
a6d726dd5182fc95a3acc4d1,龙福源装饰,辽宁省,沈阳市,东陵区,长青路16-1号楼附近,,123.495742,41.772461
3f902b9bd3799e452811d116,同德装饰,,,,辽宁省沈阳市沈河区同德珠宝有限公司(怀远门地铁站东北),,123.456982,41.80598
1e508403142a0c2987330418,佛山日丰管业金德管业集团永强隆鑫装饰材料商店,,,,辽宁省沈阳市于洪区松山西路98-8,,123.396486,41.876412
4a55dcd5d74e966db04c495f,停车场(东北装修博物馆东),辽宁省,沈阳市,沈河区,中山路222附近,,123.437621,41.805592
d8a914b3b698df28f33cba18,荣泰装饰(浑南店),辽宁省,沈阳市,东陵区,沈阳市浑南区长白西路19号2栋2门,(024)31591898,123.405204,41.75297
e4bea1083d00107f81a12e96,林凤装饰皇姑分公司,辽宁省,沈阳市,皇姑区,皇姑区崇山西路1-9号4门(延河街口),,123.402905,41.836491
a61b13b17f4284278ab988a5,徽派家庭装修,,,,南塔街道干休所小区文化东路24-8号1门,,123.474761,41.776656
1db44fbc29b2e6d986420e11,辽宁丰田之星,辽宁省,沈阳市,沈河区,辽宁省沈阳市沈河区友好街21-1号,,123.44909,41.816901
66c5c6db611ceec1b320a831,百恒装饰,辽宁省,沈阳市,东陵区,方荣路6号6门,(024)24622559,123.509992,41.775316
9777b9253bbed7cd82a12e23,辽宁万家电力建设集团有限公司,辽宁省,沈阳市,沈河区,辽宁省沈阳市沈河区青年大街51-1号商会总部大厦a座19层,,123.439038,41.801561
3bc7d4a441a36d45c0364420,金山装饰材料市场-西门,,,,陵园街39号,,123.45479,41.852794
77103820c4398c53a0acc451,公牛装饰开关(沈阳授权店),辽宁省,沈阳市,大东区,沈阳市大东区广宜街与白塔路交叉口东北50米,,123.457544,41.814447
99a917276fea0e4317b54b33,中建七局建筑装饰工程辽宁有限公司,,,,沈阳市大东区,,123.508619,41.834908
91e0aede3dd21f63fa0cade7,靓家居五金装饰材料,,,,健体路与民强一街交叉口西北50米,,123.49623,41.883211
624bab1f2e0c96c12b06ce45,专业家庭装饰,,,,大什字街7-1号,,123.475959,41.800065
e3082848f12b2dbfb34c49e7,沈阳市振兴建材实业有限公司,辽宁省,沈阳市,东陵区,东陵街道高官台路71巷21号,,123.541959,41.838306
0597504da1829037ca09f0ef,福昕汽车精品装饰,,,,辽宁省沈阳市大东区东北大马路360号国瑞汽配城22栋1门,13555874081,123.520963,41.840358
fa5ac846b2e5756bfe0eb0b2,佑安装修装饰公司,,,,辽宁省沈阳市浑南区长青街52甲1号8门,18640471891,123.489692,41.779456
95d7106ce0864cffd8d891fc,装修公司-实创装饰,辽宁省,沈阳市,沈河区,北站路53号财富中心B座6-7层,,123.440889,41.820165
6127baded7cce395932ca349,广有装饰装修五金建材经销部,辽宁省,沈阳市,皇姑区,宁山东路12辽河街道晨报社区(南门)附近,(024)62265731,123.448453,41.834624
5da2521ee44376b75d17c325,装饰画十字绣,,,,辽宁省沈阳市大东区沈铁路70号,,123.491119,41.839506
1f842369fa3fc7a20f0e6b14,沈阳大拇指装饰工程有限公司,辽宁省,沈阳市,大东区,沈河区团结路88号沈河区房地产超市内,,123.457728,41.819217
fb78552947432ba4ab0dd815,瑞家地产装饰,,,,沈阳市皇姑区淮河街24号,,123.402135,41.836441
bbcd435cace4d21c12882476,世鑫铝塑断桥铁艺装饰,,,,辽宁省沈阳市于洪区陵西街24号,,123.415002,41.84858
68219238c881e6c0c909f023,宏涛装饰,,,,东站街道东建街42-1-6门,,123.511932,41.838053
4ebf49c8ee34f43d15c905b8,厚丰店面装饰断桥门窗,,,,辽宁省沈阳市皇姑区岐山西路8号-9门,,123.403012,41.831454
328fd13cf24eb7e8770269e1,沈阳瑞逸装饰工程有限公司,辽宁省,沈阳市,皇姑区,沈阳市皇姑区长江街59号甲2-1310(北行国美电器13楼10号),,123.419994,41.827857
36149d44452a13b8c42ba118,车来车往汽车美容装饰(营林社区卫生服务站西北),,,,营城子街道营城子大街后林新村,13478888121,123.520531,41.711241
0f163e821b5ab50502897258,启程焦点装饰,,,,辽宁省沈阳市大东区和睦路3号,,123.499505,41.815179
02564fda596108ad3517dc8e,美嘉瑞装饰(皇姑总店),,,,长江街黑山路花好月圆门市95号,,123.413759,41.870257
97104435f08484f0fea77854,金沣港汽车装饰中心,,,,辽宁省沈阳市皇姑区陵北街2号-7-2门,,123.438519,41.871075
6c2420e67aa3dc8f3904b1ee,顺天成美术装饰,,,,津桥街道东顺城街61号,,123.471019,41.805997
c6b9be6b41729a341f3894f4,公共厕所(装修中),,,,浑南区,,123.420041,41.746216
243cf63fce862c8f631809a9,不锈钢装饰白钢铁艺断桥,,,,东西快速干道与小北街交叉口西南50米,,123.460052,41.816381
80bb42de8ca64a83f72310c3,沈阳兴北装饰工程设计有限公司,辽宁省,沈阳市,大东区,小什字街173号-5门附近,,123.478102,41.820446
977462f34588a039343a71c6,途虎养车(沈阳新世界汽车装饰联合路店),,,,大东联合路203号3单元1层(金立铂悦),,123.505138,41.839512
8f9a5c751501674307026f50,金黎明工程装修有限公司,辽宁省,沈阳市,东陵区,辽宁省沈阳市浑南区东陵路67号-1号-5门,,123.540813,41.819632
5a032a103b9c1fd63e9a5e5d,转角装饰,,,,辽宁省沈阳市浑南区沈营路29-1,,123.446756,41.724567
f7f2f9c34a363477ddee8b96,艺亨装饰,辽宁省,沈阳市,大东区,东顺城街65号,,123.471163,41.805133
1da1463868321014970319df,铭尊装饰,,,,小东街道小东路天阔华城(市群众艺术馆对面)6楼,,123.483505,41.811296
e064487172fb38d23913fd5e,名冉建材装修,辽宁省,沈阳市,沈河区,万柳塘路81号2单元1号,13082456341;14704002014,123.47141,41.782061
85ba68a5035bbf3f2bb97c12,无忧装修,,,,营盘南街与银卡路交叉口东南50米,,123.463998,41.736384
d1f09f52bb8d9e55fb221398,鲁旺发装饰装修五金建材,,,,辽宁省沈阳市大东区小什字街14号楼311号,15940162718;13555892291,123.477175,41.801802
af7dce9de570c2e6df1e5219,美娇舞图文喷绘装饰商社,辽宁省,沈阳市,大东区,辽宁省沈阳市大东区北海街42号5门,,123.482929,41.833862
6e382aa8773a04fa96ca070c,小杨汽车美容装饰,,,,辽宁省沈阳市大东区工农路120号,,123.506905,41.831166
ca117e9dd914314679dbd2de,诚信家装一条龙,,,,辽宁省沈阳市沈河区广昌路31-3号,15840063591,123.443386,41.79537
259e69a291086a672002207b,延兴相框装饰材料,,,,辽宁省沈阳市浑南区长青路18-1号楼附近,,123.496949,41.772432
2ae7e59df3501f51d42ce23a,富诚装饰,,,,沈阳市黄河北大街258号5门,,123.418335,41.907651
7101d30828aa1538fa42b277,荣强装饰材料批发部,,,,辽宁省沈阳市大东区金飞马涂料(观泉路北130米),,123.515165,41.848145
b477d864a52c1c627dc876c6,沈阳市奉泉装饰工程有限公司,辽宁省,沈阳市,和平区,辽宁省沈阳市和平区南京南街152号集智大厦12层1205,,123.400862,41.782789
851b046637c3cd9b78f7963e,同泽装饰门业,,,,辽宁省沈阳市和平区太原街商圈同泽南街108号,13940275838,123.403351,41.788634
035588d867a41153c42ba1a2,沈阳今朝装饰（浑南店）,辽宁省,沈阳市,东陵区,金卡路16号居然之家浑南店-东门1层,,123.469924,41.743082
3af5ba706011ea89ab0dd868,装饰材料市场,,,,沈阳市皇姑区,,123.454741,41.852924
f67a1ca830df024f4f6d46a8,绿诚装饰材料大全,,,,辽宁省沈阳市大东区生产路5-13号-8门,,123.489082,41.875562
76c6a182c8965a6fb4265527,北京英豪建筑装饰设计工程有限公司,,,,辽宁省沈阳市浑南区浑南新区浑南西路(浑南西路与沈营路交汇)美园东路金地檀郡9-29号301室,,123.446494,41.734637
98536741da0bb67b0289728c,喜车一族美容装饰,辽宁省,沈阳市,和平区,玉屏路砂山住宅小区南50米,15142571161,123.396562,41.767366
90f1f586df88e48d45572689,金视野装饰工程有限公司,辽宁省,沈阳市,大东区,辽宁省沈阳市北海街208-3号2门,,123.488513,41.823252
6ca84f007901d5eb220220a1,天坤装饰家装旗舰店,辽宁省,沈阳市,于洪区,辽宁省沈阳市于洪区怒江北街191号-5门,,123.404945,41.877461
009fc6e91ce08a47c2f1cf31,中国建筑装饰集团公司辽宁分公司,辽宁省,沈阳市,沈河区,北站路77号光达大厦B座7层,,123.44445,41.821516
3513375cc21ecb4f46e27458,沈阳励力众品装饰工程设计有限公司,,,,辽宁省沈阳市浑南区亿丰时代广场居然之家浑南店进口家居馆,,123.468773,41.7431
216123c7f2009d90aeb22a28,徽派装饰,,,,丰乐街道方家栏路20号,,123.500006,41.779755
94452123f9251825c8c3db5c,沈阳巨鹏装饰材料有限公司,辽宁省,沈阳市,东陵区,仓储街与前榆路交叉口北200米,,123.41894,41.726047
002364c62bb7bf2614948e19,恒旺装饰装修建材超市,辽宁省,沈阳市,和平区,辽宁省沈阳市和平区中兴街11号楼,(024)62771118,123.416403,41.785981
728595ef959607587c29bd5e,兴旺装饰材料,,,,辽宁省沈阳市大东区生产路5-13号-8门,,123.48969,41.875561
4506cba75119aba0130daabd,蓝海装饰,辽宁省,沈阳市,东陵区,辽宁省沈阳市浑南区东平路2号-14门,,123.539094,41.813582
2df9e07f1d467c5488b98849,沈阳俊然暖通工程有限公司,辽宁省,沈阳市,大东区,辽宁省沈阳市大东区小津桥路96号楼,,123.482015,41.812653
2da8c611b8b88cc22dfaa7bb,沈阳佳东装饰工程有限公司,辽宁省,沈阳市,东陵区,文储路66号12号门,(024)66774958,123.462393,41.900966
21533fc1cf63ef518505bf30,乐天装饰大东设计中心,辽宁省,沈阳市,大东区,辽宁省沈阳市大东区大北关街75号,(024)88715587,123.473528,41.819449
dcbab6d27a154a9081a12ed8,沈阳宝兴建筑装饰工程有限公司,辽宁省,沈阳市,皇姑区,黄河北大街97号1门,,123.423031,41.887988
d593b25ae8229bab8605bf93,美居装饰工程公司,辽宁省,沈阳市,于洪区,怒江北街56号甲,(024)86316660,123.40418,41.85766
98be7bb03523cf08990050da,佳诚灯箱牌匾铁艺装饰,辽宁省,沈阳市,大东区,辽宁省沈阳市大东区白塔路29号,13889346211,123.462055,41.813852
358edb49c12a8d4e626858fa,淘汽云修（启龙汽车装饰美容店）,辽宁省,沈阳市,大东区,东边城街94号,,123.484137,41.814528
588408f662bd1d08744ff1cd,忆馨装饰工程有限公司,,,,沈阳市浑南区观泉路266号,,123.494901,41.854817
ba875fb441ca786ec9e33ce9,鑫淼汽车装饰,,,,辽宁省沈阳市浑南区方荣路3号-6门,,123.507518,41.775147
5f3dae32a674166e5bf6be70,金鑫五金建材装修部,辽宁省,沈阳市,沈河区,山东庙街道南二经街24号,,123.434844,41.795678
c02757c00ae67c360c0e6b70,沈阳展鸿装饰工程公司,辽宁省,沈阳市,东陵区,长白街172-1号7门,,123.410031,41.735274
67404ee7d0a25bdd4207c1c1,沈阳于氏铝业幕墙装饰工程有限公司,辽宁省,沈阳市,于洪区,沈阳市梅江街53-4,,123.437535,41.893989
2cc45bc2badf9bf632f71d25,铭车之旅汽车美容装饰,,,,辽宁省沈阳市于洪区北固山路6号-3-2门,,123.411968,41.869195
517029dab19970c107026f4e,沈阳市艺博装饰工程有限公司,,,,万寿寺街83-1号,,123.45164,41.805403
0387bee9752d258143e192ec,东机装饰,辽宁省,沈阳市,大东区,沈阳市大东区如意一路15-4号11门,,123.481632,41.822737
99bcd76a53bfef979de3214a,百姓家装服务中心,,,,辽宁省沈阳市沈河区顺通路58-2号附近,,123.449606,41.789602
c9c5cbef7dceeb1bbb17e740,美林尚府装饰怒江北街店,辽宁省,沈阳市,于洪区,北固山路20-13-8门,(024)86481315,123.405224,41.874384
e968187372cea374c7f02522,火柴装饰,,,,东顺城街68号,,123.470623,41.805424
403670df7e938929631c67d2,沈阳志成天易建筑装饰工程有限公司,辽宁省,沈阳市,皇姑区,宁山西路5-5门,13840254018,123.40441,41.833013
8ab779df83d3a955c17da289,金鑫鑫广告喷绘装饰,,,,沈阳市大东区东顺城街35-2号10门,,123.472172,41.805893
3a5b183d0524217b2902e128,天福装饰,辽宁省,沈阳市,大东区,沈阳市大东区沈铁路224号1门,13322483653,123.503506,41.846554
7e766aa404f977b5adb22ae0,叠彩汽车美容装饰,,,,辽宁省沈阳市于洪区北固山路6号-3-10门,,123.410626,41.869331
c0002a4670d27e7703ec016e,装饰材料配送中心,,,,辽宁省沈阳市皇姑区长江街商圈三江街9号,,123.412448,41.821826
4bf883e2f15767758505bf48,沈阳卓尔轩装饰设计工程有限公司,辽宁省,沈阳市,沈河区,北站路77号光达大厦C座1单元13层1303,,123.443392,41.821243
de00250fdf023ecf1e1d111d,天晟伊家装饰工程公司,辽宁省,沈阳市,沈河区,奉天街342格林自由成B座31层B31-14-16,,123.448582,41.814132
a8d7577526c3fb9d6c47605b,万成装饰材料大全,辽宁省,沈阳市,大东区,观泉路与高官台街交叉口北150米,,123.514734,41.847627
b64c5f605b900dc92b201ae4,鑫博纳装潢装饰设计中心,,,,辽宁省沈阳市沈河区风雨坛街13号,,123.45565,41.797456
1a2b04cf9d43b8b6a20464f9,润之家装饰,辽宁省,沈阳市,东陵区,辽宁省沈阳市浑南区天成街1-1-8门,4000247574,123.473892,41.742009
feb02af09d491a6e4d2fdf56,加西亚装饰公司,,,,辽宁省沈阳市大东区东陶路20号,28200977,123.522411,41.846884
ce2537e3b2e2e9468d7727fa,沈阳市嘉容装饰工程有限公司,辽宁省,沈阳市,和平区,青年大街386号华阳国际大厦7层0762,,123.44273,41.761922
59b4182cd9256e90901fc94f,沈阳市圣之源灯饰装饰工程有限公司,辽宁省,沈阳市,大东区,津桥路2甲金香山大厦304室,,123.471164,41.811575
d9e2c0716403a84b83a00c5a,快捷洗车装饰,辽宁省,沈阳市,沈河区,小南街260-11号,,123.45621,41.780258
63dca980f6bebfd7e215f96b,香港凤凰集团辽宁凤凰之家装饰设计有限公司,辽宁省,沈阳市,沈河区,辽宁省沈阳沈河区沈阳市沈河区大西路268号,,123.445404,41.799959
026c77aae9a4b87f2cb17e10,文勇汽车美容装饰,,,,辽宁省沈阳市和平区十四纬路工学巷12号附近,,123.432756,41.787214
b1ed7a18e8d98ece704b87cc,东北装饰城-东2门,,,,辽宁省沈阳市浑南区长青路东北装饰城(长青小区北),,123.496921,41.771827
7246a85aee5bca4e4354d784,沈阳恒拓装饰制品有限公司-西南门,,,,榆林大街83号附近,,123.529566,41.87623
1d8eb085f5800549ebe582f1,沈阳盈艺美美术装饰有限公司,辽宁省,沈阳市,于洪区,沈阳市皇姑区黄河北大街186号,,123.419131,41.905947
3b1b6736f648d5bf2806cef8,冠达装饰,辽宁省,沈阳市,沈河区,长青街91号17门,(024)62666277,123.487599,41.781984
70eb77bdecd3cc73a1a934f1,亿时代装饰,,,,辽宁省沈阳市于洪区怒江北街264号3门,,123.403152,41.892711
bfbb18ad79821f19a8059d4f,立华铁艺装饰有限公司,辽宁省,沈阳市,东陵区,辽宁省沈阳市浑南区方正街御龙逸城北区东北250米,,123.519747,41.791237
8cb107a9699817e740e192da,沈阳冠羽装饰工程有限公司,,,,辽宁省沈阳市皇姑区鸭绿江东街30号,,123.469741,41.847806
e69b3f04127446d19cf7798a,富强装饰建材日用品综合超市,,,,嘉兴街43号,13842054113,123.414561,41.780094
fe36f173c9ba2216a7c756df,五彩换新装饰,,,,铁山路与鸭绿江西街交叉口东100米,,123.460148,41.846688
d5ba84d31f7f1af69de32169,沈阳信美装饰工程有限公司,辽宁省,沈阳市,和平区,民主路181号亚洲时尚公寓1号8-2,,123.406111,41.7909
aff356e641a5aede4f3a5936,沈阳市大东区祥盛美术装饰部,,,,沈阳市沈河区东顺城街63号3-1-2,,123.47111,41.805342
f82366f5e465f8f9c9c3db75,奕林装饰材料商行,,,,东二台街与东陶路交叉口西200米,,123.515165,41.848145
a65237a6ff4d0a4881a12ecc,兴隆德祥建材装饰材料,,,,辽宁省沈阳市皇姑区万山路10号-10门,,123.429323,41.897447
1cd5adbd2e11fd8cf503b8d6,公牛装饰开关,辽宁省,沈阳市,沈河区,大西路42号,024-22948466,123.453001,41.802887
4ff1b018f1096aab3c9a5e0d,东林装饰,,,,辽宁省沈阳市浑南区荣盛・紫提东郡二期(浑南中路南),,123.558985,41.773992
eaee06788ef86a8f7adbd223,德意隆装饰材料有限公司,辽宁省,沈阳市,沈河区,南一经街144巷152号,,123.43896,41.78995
490ca2088e6e70bc4afc8d28,沈阳齐骏装饰工程有限公司,,,,天赐街5-1号国贸中心A座507,,123.47081,41.755179
9c1bd520af515972f80cad16,城瑞装饰(黄河大街旗舰店),辽宁省,沈阳市,皇姑区,黄河北大街115,(024)86517677,123.422887,41.890486
5fc151429f73d282a2d2307e,辽宁省工程质量检测中心-装修污染检测接待室,辽宁省,沈阳市,和平区,辽宁省沈阳市和平区南十马路93-3号楼,,123.404719,41.77677
877a0b3c072455440d3ddafb,沈阳永强装饰材料市场板材批发大厅-西1门,,,,香炉山路29-1号附近,,123.399976,41.857045
f9fe974b6cdd260a77026959,延华汽车美容装饰,,,,东陵街道东陵路东大营街2号,,123.551563,41.824702
ea0aab909b646e7dd6b74ed9,奇特装饰,,,,辽宁省沈阳市大东区江东街江东小区(西区)旁(航空城西南),,123.494721,41.791201
485648fefaf0f0f37402697b,小涛装饰建材,,,,胜利大街北四马路2号楼底商,,123.40869,41.806504
a90460d43582c678c2f1cf74,瑞家装饰(沈阳)地产代理有限公司,辽宁省,沈阳市,和平区,沈阳市浑南区,,123.429979,41.760323
8767038d42459f022bd7ab98,沈阳鑫溢装饰工程有限公司,,,,辽宁省沈阳市大东区北大营西路6号-甲-5号-12门,,123.482796,41.852784
5a2a98a8cc4053009ff779e1,沈阳市鑫友装饰工程有限责任公司,辽宁省,沈阳市,大东区,滂江街24号红星美凯龙1层,,123.494591,41.812109
94f3f278a720c404d3ff23cc,房修驿站,辽宁省,沈阳市,于洪区,辽宁省沈阳市于洪区怒江北街15-9号-3门,,123.408193,41.854272
0136b5838b88717e21f017c2,百姓家装,,,,辽宁省沈阳市大东区小什字街147号,,123.476908,41.815513
76a7bde7d709087426e0a083,瑞家地产装饰,,,,浑南区浑南东路18-7号11门,,123.523035,41.756979
521d56a54b610a464bcc4a7c,房产美术装饰,辽宁省,沈阳市,沈河区,十三纬路与南二经街交叉口南50米,,123.43617,41.791805
bc3c1f0c9620d3a94d554709,辽宁罗宝装饰工程有限公司,,,,南堤西路905号甲中海国际中心A903室,,123.423854,41.746622
2dbf22791322db42acee7a14,洗车贴膜装饰改装,,,,辽宁省沈阳市浑南区S104(东陵路),,123.570816,41.826843
842339a4fffec200fbdc8560,沈阳市建筑装饰协会培训基地,,,,辽宁省沈阳市大东区北海街205号,,123.493426,41.819551
bbdf200c982a9879744ff1db,福建凤凰山建筑装饰工程有限公司,,,,辽宁省沈阳市浑南区远航西路3号昂立信息园it国际大夏主楼201,,123.454406,41.728324
f8ce3f576b86db41f1193794,沈阳美嘉瑞装修工程有限公司谦禾易理风水,,,,辽宁省沈阳市于洪区长江北街95号-2门,,123.413775,41.869871
de5a98015c7d5e571e1d118f,沈阳世玺装饰设计有限公司,,,,辽宁沈阳大东东北大马路东北大马路国瑞城EA座,,123.524127,41.841888
299cf432ae8e640ba9f0cda4,车益佳汽车美容装饰,,,,太原街街道太原北街北六马路金城宾馆东50米,,123.418251,41.806892
84fa1c868af9336d902ca3e8,新酷伟美车会馆,,,,沈阳市浑南区新立堡路5号1门,,123.539615,41.816389
c73242e3bdee939db35c6a9b,车都市清洗美容保养装饰,,,,千山西路与川江街交叉口北200米,,123.416721,41.883464
bd945d25d28c3989eb1e9717,东贸装饰材料交易中心西停车场-出入口,,,,辽宁省沈阳市大东区南东贸路东贸大厦东北(民贵家园附近),,123.513485,41.825142
278fdca7b8654e0bb020a872,天展装饰工程有限公司,,,,辽宁省沈阳市于洪区黄河北大街88-12号,,123.418976,41.874807
7020f585994ed62a364aaed9,星宇汽车装饰,,,,辽宁省沈阳市于洪区陵西长江北街阳光宾馆南100米,,123.416232,41.853325
f7b2654e22befb10f32d8323,沈阳市大东区风火美术装饰设计部,,,,沈阳市大东区草仓路15号8门,,123.474269,41.815617
e93aafd170a335d240e19208,百恒装饰,辽宁省,沈阳市,大东区,沈阳市大东区工农路58号4门,"(024)88151492,(024)88152492",123.489158,41.825167
49a02a7a79f793402a201a85,沈阳松陵安装工程公司,辽宁省,沈阳市,皇姑区,黄河北大街43-2号,,123.424898,41.877131
36f12cda80d17cab24d2bbfa,顺和装饰,,,,亿丰时代广场B座628,,123.470421,41.743081
77d28470938433c3e856fa3f,老尹装饰,,,,万山路10号10门加华小城附近,,123.430355,41.901851
241147132fd4ba336318093f,勇杰装饰,辽宁省,沈阳市,大东区,辽宁省沈阳市大东区民强一街8号,,123.495711,41.883619
a17111ec63fd970cd5b74ece,缘家电装饰店,,,,辽宁省沈阳市大东区建新街9号-1-6门,,123.493227,41.883777
76d44bef9edd22d440e1923c,富志装饰有限公司,,,,三家子路与自强街交叉口东50米,,123.488847,41.896376
1e3675951396461288db73bd,观泉路五金装饰材料市场-东门,,,,沈阳市大东区,,123.516449,41.848051
8b639fd495fe2e8a5d0d026b,晟装装饰公司,,,,辽宁省沈阳市大东区东陶路11号,67766679,123.521185,41.847601
15aebf8907403938c6effb71,辽宁照城创益装饰工程有限公司,,,,辽宁省沈阳市浑南区榆林南路,,123.49822,41.858224
b994b1b8e7044c652bb97c3d,奇阔装饰材料,,,,东二台街与东陶路交叉口西200米,,123.515165,41.848145
c21f10c5706fa00109a8d471,迈思设计装饰,,,,辽宁省沈阳市浑南区观泉路铸玻巷,,123.505289,41.852469
0393260deb3e8aeeeaf85317,沈阳忠淼装饰,,,,辽宁省沈阳市大东区东望街20-177门,,123.526539,41.849241
78394692ec72d19de6073831,新时间汽车装饰,,,,辽宁省沈阳市大东区联合路小区,,123.504942,41.839763
991607b552695d5a07026f6d,铭森装饰装饰,,,,辽宁省沈阳市大东区东陶路19号,66756680,123.523588,41.846474
c1c1a798072a5b13bca8223c,鱼跃装饰材料,,,,沈阳市大东区沈铁路33号,,123.492088,41.83946
5ce5e057f7b5d0dc29d7ab96,鑫雨汽车美容,辽宁省,沈阳市,大东区,劳动路21-5号10门,,123.494226,41.875241
d17bc66e455cb6ad8bb988fa,博雅装饰纸,辽宁省,沈阳市,于洪区,鸭绿江北街198-28号,,123.462938,41.882052
04fe24fa5b249c4cc17da2e4,沈阳凯瑞得装饰工程涂料厂-西北门,,,,观音路西段附近,,123.4561,41.88374
93995c093a2e4ac9e8e58272,众益诚装饰,,,,辽宁省沈阳市于洪区黄河北大街120号,,123.421749,41.886081
af6a7ee6a020e2591894c6b6,银亿汽车美容,辽宁省,沈阳市,于洪区,辽宁省沈阳市于洪区怒江北街223号5门,,123.404093,41.891249
9c53bb3b772a2bf792114c1e,老兵洗车装饰,,,,辽宁省沈阳市于洪区怒江北街227-2号1门,,123.405945,41.892334
3ba028e840991ac94351c05e,泽发装饰,,,,沈阳市于洪区辉山西路13号4号,,123.405693,41.889284
d4fb05095244dcecfd0eb0ed,海涛装饰,,,,辽宁省沈阳市于洪区黄河北大街122号优创空间B座4楼,,123.421749,41.886081
9a84ffc4d4a87ed80869d955,普鑫装饰工程有限公司,,,,辽宁省沈阳市于洪区万山路利生丽园(东区)(万方小区东),,123.44002,41.896678
c15b3f701328ca4b14b54b48,点精装饰,辽宁省,沈阳市,皇姑区,芙蓉山路20号22门,,123.429332,41.882071
396d36effa9b54e816c905d1,昊天装饰,,,,沈阳市于洪区辉山西路11-1号1门,,123.404118,41.887992
ab5e212f8877c56c734b8750,鑫和装潢木器厂,辽宁省,沈阳市,于洪区,闾山路附近,,123.415787,41.890989
42baf601d04a05ff2dfaa79c,沈阳市鸿宝装饰材料厂西北门,,,,辽宁省沈阳市皇姑区鸭绿江北街58号附近,,123.459278,41.87138
9279cb681f9fd657eee4a59b,任木工专业家装设计,辽宁省,沈阳市,东陵区,辽宁省沈阳市大东区望花怡园小区(望花南街南110米),,123.484398,41.858091
3204a16160fd2a4be812e490,荣泰装饰,,,,辽宁省沈阳市于洪区怒江北街41号,,123.405691,41.863657
b8675d00374372896e20b9b4,电焊铁艺工装家装,辽宁省,沈阳市,皇姑区,辽宁省沈阳市皇姑区牡丹江街38号,,123.426495,41.878285
ec1a6c74a9c03fbe373a719d,鑫兴牌匾店面装饰,辽宁省,沈阳市,于洪区,长江北街与白山路路口南80米,(024)88879885,123.414404,41.864068
20451a21fc065a62f50e778f,佳缘装修装饰,辽宁省,沈阳市,于洪区,白山路65-38,,123.400095,41.860815
5307c5e17896230dd92f28b5,盛源嘉美装饰工程有限公司总部,,,,川江街6号附近,,123.418278,41.870942
7719b8f76fe40d23a8059dcf,永明金属装饰,,,,辽宁省沈阳市于洪区陵西二小区(白山路南),,123.411093,41.865028
98df1184ad4d5bdb40afe6ba,弛风装饰,辽宁省,沈阳市,于洪区,怒江北街56甲附近,,123.402824,41.857616
87792b6f573e807ac03644c8,沈阳家居大世界装饰材料市场-北门,,,,香炉山17号,,123.413414,41.857973
147eed5c723c189f4afc8da2,天基装饰设计工程公司,辽宁省,沈阳市,皇姑区,泰山路46,,123.42361,41.844815
75933ee93f82412b631c6775,车之家汽车美容养护装饰（长江北街店）,辽宁省,沈阳市,于洪区,长江北街2-46号,,123.413607,41.845713
7b14cbaa1196065fc27da28e,神创装饰装修工程公司,辽宁省,沈阳市,于洪区,怒江北街189号,(024)86482338,123.404855,41.877042
fb78b6b1544886de0b69d9b1,凌海艺家装饰,,,,辽宁省沈阳市于洪区怒江北街7号楼,024-67765338,123.40552,41.851368
a7539afa5390e1f130621237,龙昌电焊铁艺工装家装,,,,三台子街道莲花山路9号龙昌电焊铁艺,13066607060;15004064459,123.429228,41.878461
4bc740278caf348fe115f976,经纶装饰,辽宁省,沈阳市,于洪区,辽宁省沈阳市于洪区长江北街89号楼,(024)86548849,123.413858,41.869012
5a31876f7cbe09b91576436c,东北建安设计装饰工程公司,辽宁省,沈阳市,于洪区,沈阳市于洪区长江北街53号,(024)86162895,123.414523,41.861406
278af5ee3fae95f649fd3ff9,万联恒信装饰,辽宁省,沈阳市,皇姑区,辽宁省沈阳市皇姑区淮河街29号,,123.397407,41.838833
76f26897e62632c71676433d,华彩装饰,辽宁省,沈阳市,于洪区,白山路56-14-5门(近怒江北街),(024)86559766,123.397502,41.869035
53f6eedbcf8d2ae8ce04ef2f,辽宁九天装饰家私有限公司,辽宁省,沈阳市,东陵区,高官台街附近,,123.54127,41.831114
711c22618cf12c92b24c49aa,凯撒美容装饰,,,,辽宁省沈阳市浑南区东陵路,,123.531429,41.823045
b84459da764a53c5badf8f25,金属装饰,,,,沈阳市浑南区,,123.543148,41.830677
6c3580cfda492a5e465726b9,郡逸装饰,辽宁省,沈阳市,东陵区,辽宁省沈阳市浑南区东平路2号,(024)31265756,123.538711,41.813088
4dd7e5a5dd65b1389b68b43c,鑫晟宇装饰大东店,辽宁省,沈阳市,大东区,辽宁省沈阳市大东区滂江街171号-甲7门,(024)31780386,123.491057,41.798836
1549d632b7496ca9d2f49e2e,黎明建筑装饰工程有限公司筑路队,辽宁省,沈阳市,大东区,和睦北一路4,,123.499879,41.817528
610778b2a01caf97fb2d619b,浩轩装饰,,,,辽宁省沈阳市大东区和睦路24号,,123.505431,41.814962
88da493e78393eeac61b7547,中北华派装饰材料,,,,新东街道东贸路20号东贸装饰材料中心,,123.510993,41.824589
9fc5d0d8d1c155b597031906,风腾装修工程有限公司,,,,辽宁省沈阳市大东区凯翔二街31号,,123.495531,41.797917
dc31c73dabf68d56f03cbace,新光建筑装修,辽宁省,沈阳市,大东区,凌云街24号,,123.521773,41.809628
c4eac316a30678873617dc61,东贸装饰材料交易中心-东门,,,,辽宁省沈阳市大东区东贸路20号,,123.513494,41.825149
37dc39b56035e2f37adbd256,王兰装饰材料经销处,,,,辽宁省沈阳市大东区东贸路20-1号,,123.511267,41.825241
bd32f34c0d9ed991f7e73b2a,张家港市塘颐和丰装饰材料有限公司,,,,辽宁省沈阳市大东区东贸路20-1号,,123.51164,41.824707
494450c1431228693913fdc3,缘兴美术装饰,,,,东塔街道和睦路黎明三街25号,,123.50699,41.814139
59d48f8ca62e5f75afee7aab,伯仲装饰,,,,东陵街道东塔安居小区东陵西路联盛南巷27-1号8单元1-2,,123.525624,41.812744
74b0318ea887bcad33169b42,君领装饰装修公司,,,,辽宁省沈阳市大东区辽沈二街78号-5门,,123.486604,41.821871
5a09c15a48479021a5da3937,东贸装饰材料交易中心东停车场-出入口,,,,辽宁省沈阳市大东区东贸路东贸大厦东北100米(民贵家园北),,123.514016,41.825323
bdd8e407e3b5e8fd26e0a0b9,沈阳中大建筑装修工程有限公司,辽宁省,沈阳市,东陵区,东陵西路34号5门,,123.523734,41.819391
db5f3cbfad1428a7fb2d61b1,精格装饰,辽宁省,沈阳市,大东区,沈阳市大东区滂江街振浩大厦8层,,123.492688,41.805415
ad4979a8d67fa4e203ff2d1b,天添装饰,,,,沈阳市浑南区,,123.519803,41.792316
0a6095a30f4e833ac9fa5ff6,沈阳蚂蚁伟业装饰工程有限公司,辽宁省,沈阳市,大东区,辽宁省沈阳市大东区滂江街红星美凯龙3楼,,123.494707,41.812396
7c5b2505246ea5163717dc4c,装饰材料大全,,,,辽宁省沈阳市大东区东贸路,,123.510252,41.824629
3bea9ee03d6fc637451a3223,精华装饰,,,,辽宁省沈阳市大东区联盛南巷7号-1门,,123.523864,41.81294
fc2e045e99b483fb7702697f,沈阳盛业金属装饰材料有限公司,辽宁省,沈阳市,大东区,辽宁省沈阳市大东区东贸路20-1号东贸大厦314,,123.512759,41.824713
660bb37eb628c035f5b9166e,国忠装饰,辽宁省,沈阳市,东陵区,东北装饰城二区3号,,123.49455,41.772884
fcdea49c0f6f9aaf8bfc0678,东兴工具装饰商行,辽宁省,沈阳市,东陵区,辽宁省沈阳市浑南区丰乐二街9号-甲-2号-2门,,123.493575,41.771457
c7811576bdb3d8465810932b,鹏安装饰,,,,沈阳市浑南区,,123.496949,41.772432
a8451db98a2605d9c5effb2e,康乐装饰材料商行,,,,辽宁省沈阳市浑南区长青街荣天家园(MOTO新城东北100米),13840399976,123.495755,41.772706
e45a10548823a847b13c8151,桐正源装饰材料商行,,,,辽宁省沈阳市沈河区方南路荣天家园(MOTO新城东北50米),,123.494891,41.772951
3a54fa5ae1fda9b5a80dd87f,千晟美装饰材料商行,辽宁省,沈阳市,东陵区,长青路18-1号楼附近,,123.496949,41.772432
2972e251839423f1b34c4997,逆变电源装饰工程,,,,辽宁省沈阳市浑南区方凌路,,123.5173,41.78315
09086a8b1c979195deee8bf7,红吉装饰,,,,辽宁省沈阳市沈河区方家栏小区(方家栏路北),,123.50223,41.779802
570019782eed5150a11de9f3,老双隆精品装饰商行,,,,浑南区,24828422;24201149;13940016743,123.493319,41.771574
a7141873331b011b5c17c342,沈阳东北装饰城米妍飞水暖商行,,,,辽宁省沈阳市浑南区方南路荣天家园(MOTO新城东北50米),,123.494891,41.772951
54f5d068b393053e61685805,新程艺装饰,,,,辽宁省沈阳市浑南区方家栏路25巷-6号,,123.510733,41.776594
3af8dc4b3079346db75f1e5b,大为装修医生,辽宁省,沈阳市,大东区,辽宁省沈阳市大东区联合路9号-9门,(024)31065555,123.462986,41.82434
8e91acc544e10d7117c8f64a,瑞家装饰地产,,,,辽宁省沈阳市大东区中学堂路11号2门,,123.479398,41.818512
f5bf0c3af2f8195a40ab9a37,沈阳恒星装饰设计有限公司,辽宁省,沈阳市,大东区,小东路241号天阔华城7层708,(024)24333332,123.483699,41.811391
4e33ea27d5d2ff46f423102d,鑫天行广告装饰,,,,辽宁省沈阳市沈河区团结路香来旅社名家地板文化广场西门,,123.456943,41.819156
b687dc02b7e71415028972da,金城杰滨装饰,,,,辽宁省沈阳市大东区东顺城街46号,,123.471055,41.806138
7daeb9ec087f0f81e81e97ca,阳道尔原创装饰艺术工程有限公司,辽宁省,沈阳市,大东区,小东路241号天阔华城9层950,,123.483456,41.811362
7336502d53cf6843465726e3,大正装饰,辽宁省,沈阳市,沈河区,广昌路55附近,,123.447828,41.796615
94bce7d55f3c4e4e16764333,凯盛装饰设计工程有限公司,,,,沈州路99号太和大厦0602,,123.448559,41.79867
66331cc9b332ad1c42d63e3c,盛新房产装饰,,,,辽宁省沈阳市沈河区东滨河路74号,,123.470566,41.792826
2a307820f67e0b7d96ca07fc,炬友博广告装饰,,,,辽宁省沈阳市沈河区乐郊路3附近,,123.456716,41.798041
53a1bd8e40c74f2507026f2b,辽宁西格马装饰设计工程有限公司,辽宁省,沈阳市,沈河区,奉天街346号格林自由成B座6层0604,,123.448582,41.814132
39537c06713231a6fda77883,北京精美飞龙装饰中心沈阳分部,辽宁省,沈阳市,大东区,小东路241号天阔华城9层921,,123.48346,41.811366
ae8cfe7ba7f938fe96ca078b,沈阳瑞丰装饰工程有限公司,辽宁省,沈阳市,沈河区,辽宁省沈阳市沈河区西顺城街78号楼,,123.450676,41.806247
106759534e4c3319eee4a5e3,华美装饰,,,,辽宁省沈阳市大东区如意五路20号附近,,123.484052,41.822584
894b4b92d8916edab6f42feb,房帅装饰,辽宁省,沈阳市,大东区,辽宁省沈阳市大东区东边城街45号-2门,,123.484338,41.8168
0bde1c46e1074119336212e4,艾尚装饰工程,辽宁省,沈阳市,沈河区,沈阳市沈河区奉天街346号格林自由城B座18层,,123.448582,41.814133
49a8e099e1e28620bb17e7e9,南方艺特装饰工程公司,辽宁省,沈阳市,沈河区,北站路77号光达大厦C座1单元8层,,123.443393,41.821247
1afcaea172a34ff89f82ea97,平安行汽车美容贴膜装饰,,,,津桥街道珠林路28-1(老龙口酒厂对面),,123.48542,41.813188
23a00b551f4fc7329b68b4cc,大连海天博雅装饰工程有限公司,辽宁省,沈阳市,沈河区,友好大街19号奉天银座A座11层1105/07,,123.448349,41.818797
63dc53544bd93f3836b06cda,沈河区易轩华溢装饰设计工作室,辽宁省,沈阳市,沈河区,奉天街346号格林自由成B座9层0912,(024)22744885,123.448582,41.814132
6ed5e7abedb2e32357bfff71,真赢牌匾门脸装修,,,,热闹路23-1号,,123.447565,41.792743
721de3c374d5dc9b33169be0,建行装修袋办事处,辽宁省,沈阳市,大东区,天后宫路119号东祥大厦5层,,123.46766,41.816138
9a9198de8bda7bf08a36ee4c,旭阳装饰工程有限公司,辽宁省,沈阳市,大东区,小东路241号天阔华城3层336/337,,123.483699,41.811391
3db4a583a601ee3fb21e3692,工鑫星美术装饰,,,,辽宁省沈阳市沈河区金廊商圈广昌路31号,,123.443351,41.795491
999267e54c61799a631c67fa,爱建高级装饰,辽宁省,沈阳市,大东区,辽宁省沈阳市大东区中学堂路5-5号1门,,123.475344,41.817394
8a7e5109cab2b7acdf1e5289,新龙发装饰,,,,北顺城路196号,,123.468136,41.811866
37426d6a6552ce51246e98a8,方一喷绘装饰,辽宁省,沈阳市,大东区,辽宁省沈阳市大东区小津桥路98号14门,,123.483079,41.812836
bf297eb2dffb60ed9d9d6882,沈阳腾阳装饰工程有限公司,辽宁省,沈阳市,大东区,大北关街2号广乐大厦11层1103,,123.470405,41.816781
4fbba5ffd86d8ec84107c177,意林装饰有限公司,辽宁省,沈阳市,大东区,小东路241号天阔华城7层720,,123.483699,41.811391
36f9b97b5eeb2f159e9d681c,吉星锦不锈钢装饰玻璃经销处,,,,辽宁省沈阳市大东区白塔路38号,,123.459012,41.813833
9a2c31b0775bfdcfe115f9e1,沈阳市旭日金属装饰有限公司,辽宁省,沈阳市,大东区,辽宁省沈阳市大东区吉祥四路153号,,123.485324,41.827564
ca72dd203b34a5edf12d836b,三越改造家(乐郊路站),,,,滨河街道南顺城路21-2号4-1-1,,123.457418,41.798037
0fdb2ef9a1c4fcfe9d95de66,辽宁德信装饰工程有限公司,辽宁省,沈阳市,大东区,沈阳市大东区小北街70号,(024)88555123,123.460379,41.81574
d3d3a321e1735755203bf27a,沈成达房屋工程维修队,,,,辽宁省沈阳市大东区沈铁路42号-2-1门,,123.483495,41.835906
29bdf27a7439946bb7265536,富美装饰,辽宁省,沈阳市,沈河区,沈州路99号太和大厦a座17层,,123.44856,41.798703
630c17505d72262c4151c0ce,三越装饰,,,,市府大路290号摩根・凯利A座15层,,123.446755,41.811312
6a3314163f81e0aca2a93426,北京兴华伟业建筑装饰工程有限公司沈阳分公司,辽宁省,沈阳市,大东区,天后宫路119号东祥大厦4层,,123.46766,41.816138
aca469c9a3929e91c9e33cf9,1+1装饰工程有限公司,辽宁省,沈阳市,大东区,小东路241号天阔华城4层,,123.483457,41.811363
141b2c5cc962446c7dc87605,阿波罗名车美容装饰,,,,辽宁省沈阳市皇姑区崇山东路21号-19-7门,,123.461306,41.834366
defaea93a71d695e80a12e96,夷羿装饰,,,,辽宁省沈阳市皇姑区长江街122号,,123.417444,41.835113
dd72b644e370609cd2f49e64,金圣亿装饰,,,,黄河南大街58号1门中建峰汇广场b座7层,,123.426867,41.834447
637138903523af43631c67c4,沈阳弘融建筑装饰工程有限公司,,,,长江南街6号财富大厦6层,,123.41891,41.820881
5e7379941639bf2574026902,天柱门窗家庭装修,,,,辽宁省沈阳市和平区株州街15号-4门,13002484837,123.424612,41.807156
b5f24ca3081b2f31f82d61a3,沈阳市金旺装饰庆典工程有限公司,辽宁省,沈阳市,和平区,南一马路109号力创大厦5层508,"(024)23210188,(024)23210199",123.40999,41.794329
29184d3317f3d3d24307c1b5,疑难防水保温承揽家装一条龙,辽宁省,沈阳市,皇姑区,辽宁省沈阳市皇姑区华山路214号,,123.413329,41.823914
30ecd5d1bab83e0d16c90581,好地装饰工程有限公司,辽宁省,沈阳市,和平区,和平北大街28号华利大厦11层11-4,,123.425612,41.803746
de2da7f7084b1fec471a326b,怀高装饰工程有限公司,辽宁省,沈阳市,和平区,太原南街89-1号10门,,123.404141,41.792732
efc0702b023f73ea077ce8f7,万丰装饰,,,,沈阳市和平区,,123.426279,41.810074
9088ff4d5126fdcd85420eba,精英装饰装修,,,,辽宁省沈阳市长江街135号海丽德国际商厦B座8层,,123.419619,41.834772
552c01f01c9bfad704fef505,沈阳中宇成方装饰工程有限公司,,,,北陵大街19号中汇广场A座2703室,,123.437384,41.830827
9355d915da0fa16aa31de95c,沈阳万丰装饰装修有限公司,辽宁省,沈阳市,沈河区,友好街16号奉天银座A座1001-03,,123.441281,41.820307
f00ec502a2973da06f4760af,沈阳湾特装饰设计有限公司,辽宁省,沈阳市,和平区,沈阳市和平区新荣大厦B座14层,,123.407363,41.801016
4eda05b4dbffd8b63a13fdc5,富邦朗逸建材装饰有限公司,辽宁省,沈阳市,和平区,南京北街206号城市广场第一座15层1507,,123.415321,41.80061
7f671cebae3cbd98167643d6,沈阳e家建筑装饰工程有限公司,辽宁省,沈阳市,沈河区,市府大路262甲新华科技大厦28层2802,,123.440587,41.812177
23ae3287074f47cecb213d96,诚信建材装修,,,,八经街49号附近,,123.423301,41.796993
7e22a69598ee5d2b9122e0f1,荣香美术装饰,辽宁省,沈阳市,皇姑区,宁山中路61号211附近,,123.416003,41.832624
679d900090fb3c9a5e0d02e7,沈阳景泰防水装修工程有限公司,辽宁省,沈阳市,皇姑区,辽宁省沈阳市皇姑区塔湾街道怒江街泾河小区旁,,123.406129,41.831085
6757516ecd9d1d398e7727df,北方天宇建筑装饰公司沈阳办事处,辽宁省,沈阳市,和平区,和平北大街28号华利大厦15-3,,123.425398,41.803886
a1504f12edd571e69e95de3a,品车廊装饰维修服务站,辽宁省,沈阳市,铁西区,北一东路51-2号2门,,123.398481,41.817006
87661c50abd0ec54ee74f862,盛金祥装饰材料商行,,,,辽宁省沈阳市皇姑区华山路106-1号,,123.418607,41.822177
de600be1f2cc9399b45f1ee6,金色时代建筑装饰装修工程有限公司,辽宁省,沈阳市,和平区,市府大路55号年华国际大厦0916,,123.421699,41.809707
161c6573b3d8fec08bdb731a,华硕美术装饰,辽宁省,沈阳市,皇姑区,辽宁省沈阳市皇姑区昆山中路72号,(024)86214379,123.420801,41.824547
566aa23efb09f57516764396,沈阳万利盛装饰工程安装公司,辽宁省,沈阳市,和平区,沈阳市和平区,(024)23400998,123.411332,41.807258
6f8060ad40e44c160f0a70ff,鼎伦装饰工程有限公司,,,,北站路55号沈阳・财富中心C座2单元14层1401,,123.441342,41.820428
99dfbea2055adf62f90cad54,华龙装饰,辽宁省,沈阳市,和平区,南京北街228号钻石星座1层,(024)23834555,123.413124,41.798955
29d7a7567dc513a236b06cad,佳宇广告装饰,辽宁省,沈阳市,和平区,辽宁省沈阳市和平区第一二六中学东(北三经街),,123.430875,41.800743
e1f0021b407d59b6e9f853b9,美家福装饰,辽宁省,沈阳市,沈河区,辽宁省沈阳市沈河区十三纬路70号顺翔园大厦7层,,123.435195,41.792006
dda0a13e4b9ebb493a04b19b,小嘎汽车美容装饰,,,,辽宁省沈阳市和平区八经街7-甲2号,,123.428679,41.804117
ff64ad77ac103e1c09b93ab9,兰德-彭软装壁纸家居装饰馆,辽宁省,沈阳市,皇姑区,辽宁省沈阳市皇姑区金廊商圈黄河南大街38号,,123.426986,41.829962
610a444ae6c2a29d9d82ea68,沈阳美斯特装饰材料有限公司,,,,辽宁省沈阳市皇姑区闽江街79号-9门,,123.422295,41.821179
128bee651f222979441a323f,深圳九度空间建筑装饰工程有限公司沈阳办事处,,,,团结路7-1号华府天地1号楼22-3,,123.438925,41.818885
2c45b97e00a703cd94ec84b6,富汇装饰,辽宁省,沈阳市,和平区,市府大路45,,123.420283,41.809785
907c62ac4b4ab2b99222e03d,沈阳华霖装饰装修工程有限公司,辽宁省,沈阳市,和平区,南二马路33号商贸国际A座17层1701,,123.403603,41.794674
a7c43e2ccf1f106db8df8f2c,沈阳点石建筑装饰设计有限公司,辽宁省,沈阳市,和平区,辽宁省沈阳市和平区太原南街90号商贸国际B座B1116-B1117,,123.404077,41.793855
4bac4ced4c364d0a4557267b,抚顺大工装饰装修工程有限公司,辽宁省,抚顺市,望花区,辽宁省抚顺市望花区中国银行南100米(和平桥西北),,123.784399,41.869766
77b65bb97e3d080cf603b8d0,星顺汽车贴膜装饰,辽宁省,抚顺市,望花区,辽宁省抚顺市望花区西丰街6,,123.788826,41.853315
d84460424d94a106d81318c9,隆翼汽车美容装饰养护中心,,,,顺大街与顺富路交叉口东南50米,,123.726602,41.827613
31c2022fccb320b2a6da3943,车居美容装饰会馆,辽宁省,抚顺市,望花区,辽宁省抚顺市望花区顺发路,,123.731728,41.828798
cd8bf3458af523cd2a201aeb,恒达汽车装饰美容中心,,,,沈抚公路34号附近,,123.779741,41.87967
f5d85c5ad51fb6bb81a12ea6,万丰装饰,辽宁省,抚顺市,望花区,李石开发区德商国际花园西门,,123.69712,41.838528
8fcd9bae4cfc24c0095cb353,车之家汽车美容装饰,辽宁省,抚顺市,望花区,高湾小学西侧金地家园二号楼E门市,13842358686,123.766934,41.879672
da357aa9e28de148d02dd651,旺达汽车装饰,,,,辽宁省抚顺市望花区北镇街23号,,123.793058,41.853972
8aa87aff0f777f81223bf206,承林装饰,,,,辽宁省抚顺市望花区锦州路16,,123.795051,41.849378
0f495d0e4b22ba6dab175acb,华艺装饰望花店,辽宁省,抚顺市,望花区,辽宁省抚顺市望花区中国银行(高阳路南),(024)56208300,123.784691,41.870456
fb4044ae333fbe032fe67bb1,维超装饰,,,,抚顺市望花区李石28栋楼,,123.736085,41.828848
74aaa1492f1c318ab35c6a90,高湾电瓶大全棚套装饰,,,,辽宁省抚顺市望花区高湾水木山城3号楼,,123.779662,41.880201
3dd9bf455b28e5939868b435,腾达汽车棚套,辽宁省,抚顺市,望花区,辽宁省抚顺市望花区北镇街(油院社区西南),,123.792949,41.853978
ad67ea9146e4468170455ba9,华天装饰,,,,李石开发区德商春天里,,123.705101,41.836689
3021fad725540cca05026fae,鑫兴汽车美容精品装饰行,辽宁省,抚顺市,望花区,辽宁省抚顺市望花区锦州路26号,,123.791237,41.849286
4aa737f28092504543e192ac,明远白钢装饰,,,,辽宁省抚顺市望花区锦州路18号,,123.794391,41.849689
4ae06bb07660bab6ebe58283,中鼎装饰,,,,高湾经济开发区方大上上城C1,,123.762406,41.881018
69f4f8e7ae5195d3c1f1cffa,抚顺市美家装饰有限公司,辽宁省,抚顺市,望花区,李石街道高湾开发区水木山城3期门市2号,,123.776725,41.880649
8d2a61955ef32879f4231074,多美居装饰,辽宁省,抚顺市,望花区,抚顺市望花区翠岭明珠4,,123.773523,41.881132
1dbc4f64add81fdf35b06cc8,众匠装饰,,,,辽宁省抚顺市望花区锦州路16号,,123.795051,41.849378
547cdce034a30dcd246e984c,广大装饰家居体验馆,,,,辽宁省抚顺市望花区锦州路16号,,123.795051,41.849378
e51d1666d9ca071704026fd2,万家装饰创意设计,辽宁省,抚顺市,顺城区,辽宁省抚顺市望花区高阳路碧水嘉园附近,(024)58349555,123.787161,41.869374
a869319f56dd9b79901fc900,嘉和装饰工程有限公司,,,,高湾开发区金湾雅居3号楼6门市(高湾小学车站),,123.767518,41.878108
e9ba9f692fc9714ff72310e4,佳赢装饰,,,,抚顺市望花区,,123.767391,41.879459
3d8337065c06df230869d998,建洁装修装饰工程,辽宁省,抚顺市,望花区,高阳路65号附近,,123.77832,41.877384
6e822dd7c455fc4b84420e2b,新港华装饰,,,,抚顺市望花区,,123.732044,41.847643
9c7d4bc68dd5ab061d5800f0,杨佳装饰设计工程有限公司,辽宁省,抚顺市,望花区,中兴街16-12号附近,,123.69932,41.837813
5daca2fe1e86176c9f09f77a,金枫装饰有限公司,,,,辽宁省抚顺市望花区翔宇路,,123.701552,41.838839
3d8d99ddab6bd7bc9b68b4f1,信昱装饰工程有限工司,辽宁省,抚顺市,望花区,高湾经济开发区金顺花园小区2号楼1号门市,,123.775554,41.880449
e9e923de6d1d2daf5cbe86fa,金彤汽车美容装饰,,,,抚顺市望花区翠岭明珠4m10,,123.774166,41.881007
d120a435e0ba73fdf4eafc15,雅墅装饰工程有限公司,辽宁省,抚顺市,望花区,铁岭小区43号楼,,123.795598,41.857332
76b3ade283820481f82d614a,宏韵装饰,辽宁省,抚顺市,望花区,辽宁省抚顺市望花区锦州路16号,,123.795068,41.849088
66b57f1f3345c5900289722a,博望装饰商行,辽宁省,抚顺市,望花区,李石街道高湾开发区高阳路老天德小区一号楼,,123.7736,41.879164
35718ab65afcca9688fc061f,抚顺怡庭装饰工程有限公司,辽宁省,抚顺市,望花区,高湾御龙湾小区28号楼m7门市,,123.784729,41.870519
b6255d722c32e4e51029354e,柏佳装饰设计工程有限公司,,,,辽宁省抚顺市望花区翔宇路同城广场公交站东100米,024-58055366,123.699019,41.837541
855ef5d517989a3333621255,德岳装饰,,,,辽宁省抚顺市望花区创新四路与华茂街交叉口西150米,,123.702337,41.839222
d4cfe7cb97657b3f336212b8,忠兴装饰,,,,抚顺市望花区,024-56622816,123.72669,41.834251
abfb16b1f839e3fd455726c7,联塑家装管,,,,临湖街与翔宇路交叉口东北150米,,123.695786,41.835782
2d84f52af6798aa0b9df8f8b,柏丽装饰,辽宁省,抚顺市,望花区,抚顺市望花区金湾雅居3号楼,(024)56101788,123.767042,41.878115
ddeae469548915373617dc47,洋帆装饰抚顺市洋帆装饰工程有限公司,,,,辽宁省抚顺市望花区高阳路辅路,,123.780201,41.876851
4c864867db5e52b12fb9082d,玩美装饰,辽宁省,抚顺市,望花区,高湾中学对面,(024)56200603,123.768798,41.878207
903a09645993608b3617dc57,鼎轩装饰装修工程有限公司,,,,沈抚公路南50米,,123.766344,41.877892
7f3eb6086c732ad3f942b2e2,鸿达装饰工程有限公司,,,,光明街道高湾街天德家园2号M4门市,,123.777962,41.877518
c8d65d21f39ebaf403ec015c,德瑞装饰,,,,抚顺市望花区左岸公元北门,,123.784399,41.869766
8ee27ce5cf270b75ad0457a4,抚顺华澜装饰工程公司,辽宁省,抚顺市,望花区,中兴街锦绣澜湾a区西门,,123.694908,41.841033
16c61811610065bd8a36ee5f,金洋装饰,辽宁省,抚顺市,望花区,国鑫路9-2,(024)56593888,123.72747,41.832637
d11548821d362bd0306212a3,沈阳市尼克装饰设计有限公司,,,,辽宁省沈阳市沈北新区道义五街六号,,123.38853,41.918731
6b85211612bb41450869d908,福来居装饰建材,辽宁省,沈阳市,于洪区,文大路347-3号2门,,123.388429,41.907794
a5126e24afcf8460ad0457f1,沈阳市大春装饰建材有限公司,辽宁省,沈阳市,于洪区,辽宁省沈阳市于洪区新蔡线童喜童乐双语幼儿园,(024)89280417,123.341335,41.944767
f4a33da93ecd78743110afa2,创艺金属装饰,辽宁省,沈阳市,沈北新区,沈阳市新城子区道义镇道义一村道义北大街160号附近,,123.395619,41.969726
5d76d6d8fc0c9df08e77272d,艺之峰装饰,,,,辽宁省沈阳市于洪区道义街道沈北西路香槟新坐标附近,,123.381284,41.926228
33ef7c3396d5c1a02a02e11d,晓峰汽车美容装饰,,,,辽宁省沈阳市沈北新区鑫华源大众洗浴北(道义北大街西),,123.371177,42.002092
b6127d79de6ce637e215f967,沈阳恒祥装饰装修工程有限公司-东南门,,,,平罗街道黄土坎村,,123.380916,41.941925
265c1ed8902cbe8c39e4a651,合福装饰,,,,辽宁省沈阳市沈北新区道义五街与沈北西路交叉口东150米,,123.3893,41.926691
ad0461f4c9f44e5c3b221cbc,鹏鸿刘龙装饰材料-西北门,,,,平望线附近,,123.377827,41.939691
fe4e755c761bd35709a8d491,客来居装饰建材,,,,文大路347-3号附近,,123.388429,41.907795
84b9af61601d8c2610293567,沈阳恒祥装饰装修工程有限公司,辽宁省,沈阳市,于洪区,平罗中路附近,,123.381283,41.942267
978b3a732227b8aea1a934bf,沈阳欧盛装饰材料厂,,,,辽宁省沈阳市于洪区新蔡线,,123.346671,41.947942
f4826daa06c8287a8b2fb5c4,飚鑫汽车美容装饰,,,,辽宁省沈阳市沈北新区G101(京沈线),,123.371019,42.029428
4a16e9fa0d18a71f744ff1e1,源丰汽车美容装饰,辽宁省,沈阳市,沈北新区,辽宁省沈阳市沈北新区G101(道义北大街),"15840443181,13840507868",123.37176,42.001587
e70806ce1605a3c01e1d11d3,日月兴装饰,,,,沈北路7-7号附近,,123.388373,41.924783
f78c539e72522593eb1e974d,万金装饰设计公司,辽宁省,沈阳市,沈北新区,沈北路7-72门,,123.388389,41.924696
617c9a4b357ae9e108f5ebd9,鹏鸿刘龙装饰材料,,,,平望线附近,,123.377817,41.939647
aeabeccfecf3d5f7abf0cd1c,辽宁泰丰铝业装饰工程有限公司,辽宁省,沈阳市,沈北新区,沈阳市沈北路126号,,123.537751,41.935845
a70e3fb6fc4f03b4f11937b8,刘鹏装饰,辽宁省,沈阳市,沈北新区,道义二街江南甲第二期18-6,(024)31309009,123.404091,41.92212
ab100305037468c8724b87a5,车管家汽车装饰美容中心,辽宁省,沈阳市,沈北新区,蒲河路55-62号4,,123.439394,41.950958
0b48be56e5ac237ac91b953e,靓马汽车美容装饰,辽宁省,沈阳市,沈北新区,辽宁省沈阳市道义南大街60-3号,,123.398865,41.935448
ea012d37e36a7850c2f1cf4f,顺鑫钣金喷漆汽车美容养护中心,,,,道义街道蒲昌路30-2号17门,,123.435092,41.921131
af6828cab85855a931f71d82,湖洋汽车美容装饰,辽宁省,沈阳市,东陵区,辽宁省沈阳市浑南区冯道街6号,,123.589566,41.92793
4668048459f541384054d773,汪氏兄弟装饰,,,,道义太湖国际东门底商,,123.404091,41.944851
e216062f969591e032870a03,汇鑫装饰,,,,辽宁省沈阳市沈北新区道义街道七星大街地雅新居,,123.438305,41.927293
87248d9603a2acb32806cee6,沈阳市炬园建材有限公司,,,,辽宁省沈阳市新城子区沈北新区浦河新城兴农路50号,,123.576701,41.90956
3c0ea7c5e231e99cfbf0cbd3,沈阳建宝丽新型建材有限公司,辽宁省,沈阳市,沈北新区,虎石台开发区蒲平路6号,,123.534555,41.952759
16af12621b5082e58afc0659,欧亚装饰,,,,道义街道沈北路23-11号2门雷鸣锦程旁边,,123.404159,41.926072
5ce0ab968f1545598f55eca0,铭坊装饰(沈北店),辽宁省,沈阳市,沈北新区,道义二街18-2号1门网点,(024)31575678,123.404533,41.920838
965bc9742b1a770cc03644cd,五金建材装饰材料,,,,辽宁省沈阳市沈北新区G101(道义北大街),,123.398978,41.946036
f3e11e6eeac72ab2714b871b,美盛美家装饰,辽宁省,沈阳市,沈北新区,辽宁省沈阳市沈北新区道义南大街10-6号7门,,123.408638,41.919594
c4fec61c3b23e5e6dbeced55,道义装饰材料城-西门,,,,道义三西路5-8号,,123.396732,41.943132
f02c433eb1b723ce1d5800c4,乐天装饰沈北家居体验馆,辽宁省,沈阳市,沈北新区,道义南大街10-9号1门,31675500,123.411858,41.919482
3e20e75627902da7a0acc4a9,秋枫装饰工程有限公司,,,,正良三路5-4号4门网点,,123.405816,41.926516
85d5cbea6d6c00e2d72ce205,格豪装饰,辽宁省,沈阳市,于洪区,黄河北大街270-1,,123.409958,41.91092
eb250d748b17a2111e58003b,熙龙装饰,,,,辽宁省沈阳市沈北新区沈北路明华香峪兰溪1期南门,,123.44067,41.928304
6845d7573ed89634c61e51a6,嘉之亿装饰,辽宁省,沈阳市,沈北新区,蒲昌路1号5门唐轩公馆南门,,123.414289,41.91856
6c0162997a7a4d9fb020a80f,崇源汽车美容装饰养护中心,辽宁省,沈阳市,沈北新区,辽宁省沈阳市沈北新区贵州路16号,,123.523054,42.055707
1e7d6f1cdcc5a7d54207c1dd,梦之侣床上用品装饰布专卖,辽宁省,沈阳市,沈北新区,辽宁省沈阳市沈北新区建设北一路,,123.523042,41.952556
e11030cc392f34d20ab93a8b,华美装饰材料,辽宁省,沈阳市,沈北新区,辽宁省沈阳市沈北新区建设北一路,,123.517975,41.952574
4f55ebf11d619886eb1e9758,鲁班华艺装饰,,,,道义街道正义三路34号地雅新居,,123.436347,41.926788
8b976f1267ba3fe616a1905d,车美佳汽车美容装饰,辽宁省,沈阳市,沈北新区,沈阳市沈北新区飞马街33号c2门,,123.521485,42.061652
212bf3791b9b60cc9122e030,鑫隆装饰,辽宁省,沈阳市,沈北新区,辽宁省沈阳市沈北新区虎石台南大街55-7号-25门,,123.537839,41.961396
07a06d3b5601ab7b4e776edf,龙之兴装饰,,,,道义北大街53-23号5门网点,,123.400291,41.946856
9e6aa38ca1bfb431f50e773b,沈阳金飞龙装饰工程有限公司,,,,辽宁省沈阳市沈北新区正良三路5-4号7门,,123.404674,41.921064
8a15f2f61defdc905bf6be4e,爱家装饰,辽宁省,沈阳市,沈北新区,沈阳市沈北新区富城时代南门,(024)31419596,123.526966,41.955716
d13f4996b05fc127aecb6686,瑞天装饰工程有限公司(沈北店),,,,沈北路香峪兰溪一期南门35-8号6门,,123.440207,41.928231
9ba197fb6eb5885672210bc8,亿嘉装饰,辽宁省,沈阳市,沈北新区,蒲昌路12,(024)31401228,123.415531,41.922449
e0c398c6fa12b154d7851fb3,鼎丰装饰,辽宁省,沈阳市,沈北新区,辽宁省沈阳市沈北新区道义三街步阳江南甲第三期,,123.398926,41.924368
fd7a221956d23c0f9d82ea89,精雅装饰,,,,蒲丰路42-60-26门三盛颐景御园东门,,123.435523,41.958921
849fde615730fabe6140a9dc,邵家装饰,,,,辽宁省沈阳市沈北新区虎石台南大街55-7-15门,,123.538871,41.961281
ce7b5352ed2d442df82d6165,沈亚特装饰装修,辽宁省,沈阳市,沈北新区,蒲昌路22号淘乐新天地2层,(024)62762999,123.424073,41.921599
a662db093e0c0a8afda778e7,惠达汽车玻璃装饰,辽宁省,沈阳市,沈北新区,辽宁省沈阳市沈北新区建设路一段4号,,123.529268,41.948464
d1090266b084529c6849f341,佳兴装饰(沈北店),,,,辽宁省沈阳市沈北新区古城宜家二期(蒲升路南),,123.546142,41.961149
42c0c2a9ff885f7896f08c06,四通汽车装饰用品,辽宁省,沈阳市,沈北新区,辽宁省沈阳市沈北新区贵州路80,,123.54133,42.055095
17684ece34cb61d92ce67bf8,桓宇装饰,,,,辽宁省沈阳市沈北新区道义北大街11号(蒲河桥北20米),,123.398999,41.94201
ead58e582bd33e9bd13ce367,多彩装饰,辽宁省,沈阳市,沈北新区,辽宁省沈阳市沈北新区兴盛街96-4号沈煤宾馆客房部附近,,123.52229,41.956599
8c72fffcc900a48494ec84e6,恋尚装饰设计工作室,,,,蒲南路9号(蒲南路与七星大街交汇处)荣盛香缇澜山2期附近,,123.420306,41.937881
e0f96b055b481d8e40e192c8,九匠装饰一站式装修旗舰店,,,,正良二路与道义一街交叉口北50米,,123.408657,41.918717
1a6918ed66b6e7ea2b201a8c,辉煌装饰,辽宁省,沈阳市,沈北新区,兴虎街25号1门,15942346846,123.528634,41.955118
421e5fad5f80eda902294f9a,金点装饰,,,,蒲昌路地雅新居北门34-7,,123.438305,41.927293
f56cde9d5af13b925a3ac83a,三泰装饰,,,,沈北路4-4-1,,123.400552,41.930884
b2621d7da0e391aa373a711e,屹展装饰,辽宁省,沈阳市,沈北新区,辽宁省沈阳市沈北新区贵州路26号,,123.523343,42.056104
4abe9956f944e26f873304ca,天界装饰,辽宁省,沈阳市,沈北新区,辽宁省沈阳市沈北新区蒲河路,,123.513998,41.96557
b966cfead673acee94ec8489,福家和装饰,辽宁省,沈阳市,沈北新区,沈阳市沈北新区福州路45-2,,123.524904,42.051182
5acb87f324b6e377b1077d3e,沈阳乐家装饰（沈北店）,辽宁省,沈阳市,沈北新区,近郊沈北道义南大街22号,4000241818,123.409126,41.922854
cb088c78b7d25d55a5da39f8,万金装饰装修建材,,,,蒲昌路46-1号附近,,123.450943,41.92647
66965568560a6efdacee7afe,佳兴装饰,,,,道义南大街68号附近,,123.398831,41.937442
64f4f1db9487f3084afd3f02,沈阳东和建筑装饰工程有限公司,辽宁省,沈阳市,东陵区,佳阳路20-1号,,123.587996,41.910026
700b12804a0349f1e6e9654a,沈阳贝特装饰纸有限公司,,,,辽宁省沈阳市沈北新区陵园北街,,123.466496,41.909607
79080b4db5146be6ce06a423,北京国建装饰,辽宁省,沈阳市,沈北新区,蒲河大道888西3区30,,123.427973,41.953403
b731f74112bb2b33b15c6a40,屹展装饰,辽宁省,沈阳市,沈北新区,道义北大街53-65号18门网点,,123.399289,41.943717
9b219a43f347631de7e96504,龙鑫装饰,辽宁省,沈阳市,沈北新区,道义南大街124号丽景嘉园南门,,123.400323,41.955475
de56def44da52891e215f9c4,D鑫缘汽车美容装饰,辽宁省,沈阳市,沈北新区,辽宁省沈阳市沈北新区杭州路35号5门,,123.524347,42.064405
0ce62f3a01e6a3c6e115f94d,鲲鹏装饰,,,,辽宁省沈阳市沈北新区道义南大街28-4号江南甲第D座10楼二号,,123.404267,41.923612
5df8b0631bef8c23aaf72953,洁神汽车美容装饰,辽宁省,沈阳市,沈北新区,蒲昌路1-3号,,123.415293,41.91881
7ab2f32d9ffd8e86fb2d6147,金盛装饰装修,,,,辽宁省沈阳市沈北新区颐景蓝湾(地坤湖街东),,123.439689,41.950704
56f2f490be0be799d42ce20b,鑫鑫百佳装饰装修材料商店,辽宁省,沈阳市,沈北新区,福州路45-8号9门,,123.524586,42.048675
8b95efc9a9516664200220d3,智强白钢装饰馆,辽宁省,沈阳市,沈北新区,沈阳市沈北新区道义北大街115号,"13386885232,15940414136",123.400222,41.958792
40712981140fa77059bbbc15,安晴装饰,,,,蒲昌路地雅新居20号楼东3门,,123.438305,41.927293
923c2a5c1efd69cf79b55cfd,虎石台零六八汽车装饰,辽宁省,沈阳市,沈北新区,辽宁省沈阳市沈北新区站前街35,,123.518104,41.95397
601891058d232ce1ab0dd8ff,车之翼洗车装饰,辽宁省,沈阳市,沈北新区,辽宁省沈阳市沈北新区新城子街道杭州路锦绣家园,,123.525487,42.064297
f92d5d5c61eb0474a8f0cdbf,鑫盛装饰,,,,辽宁省沈阳市沈北新区孝信街颐景蓝湾(碧桂园太阳城东),,123.439457,41.950678
b3f1bfd7174775a061685800,深度装饰,辽宁省,沈阳市,沈北新区,道义装饰材料城附近,(024)31361361,123.398386,41.942075
cfce174608384a1103ff2d7b,敖新汽车美容,,,,沈阳市沈北新区蒲昌路27--3,,123.428025,41.920493
3b01204ebb3c04a9d6b74ec3,艺之峰装饰,,,,辽宁省沈阳市沈北新区蒲丰路42-58号3门,,123.431174,41.958016
eb00c1b71479e92cc17da271,辽宁泰丰铝业装饰工程有限公司,,,,道义经济技术开发区正良二路18号,,123.405948,41.918436
af969331b639108271210bef,沈阳刘鹏建筑装饰工程有限公司正良设计中心,辽宁省,沈阳市,沈北新区,沈阳市沈北新区道义镇南大街28号江南甲第d座6层,,123.408952,41.922744
2fc9781b8ade1a97c91b95ea,华艺装饰,辽宁省,沈阳市,沈北新区,辽宁省沈阳市沈北新区道义装饰材料城百南区10号,,123.398366,41.942155
ea9cf9c39fba3c1cede4a596,沈阳弘田建筑装饰有限公司,,,,辽宁省沈阳市沈北新区蒲平路19-8号附近,,123.537664,41.952421
ab8a29b9b83600c3cf04ef22,鹏派装饰服务中心(沈北),,,,辽宁省沈阳市沈北新区道义街道蒲丰路三盛颐景御园,,123.430935,41.957968
52ed9e6c856d94af48cc4ab6,格森装饰材料店(二部),,,,辽宁省沈阳市沈北新区飞马街35号,,123.521485,42.061652
a98436d4dad77560d8131895,常大成汽车用品装饰,辽宁省,沈阳市,沈北新区,辽宁省沈阳市沈北新区G203(虎石台北大街),18640051336,123.541259,42.054876
96c74981c8a11d8341d63e62,亮妍装饰,辽宁省,沈阳市,沈北新区,虎石台富城时代东门,(024)29872948,123.528264,41.956677
ad1261bdbb22c930ce04efbb,聪聪装饰材料,辽宁省,沈阳市,沈北新区,辽宁省沈阳市沈北新区虎石台富城时代西门,,123.525101,41.956664
c153b7b4fe1a7a97f403b8a4,恒润家装,辽宁省,沈阳市,沈北新区,建设北一路30,13504997292,123.521364,41.953045
203ce5047ae302ce8bfc061a,奕江装饰,辽宁省,沈阳市,沈北新区,建设北一路30,,123.521672,41.953036
247d64a2f8d0c1e42b06ce5b,仁禾装饰(二部),,,,辽宁省沈阳市沈北新区龙湖・香醍漫步(蒲丰路北),,123.449151,41.961632
d6f4aef25f917b0ee9f85320,永诚装饰,,,,沈阳市沈阳市道义南大街51号16,"15040083220,15840167242",123.400948,41.936554
560fde197e7779913686f48a,晟昊装饰(沈北旗舰店),辽宁省,沈阳市,沈北新区,沈阳市沈北新区道义大街55239门,(024)87045900,123.400401,41.949834
1f5ecf4c8577525be215f97c,福源装饰,,,,蒲丰路42-59号24门,,123.431824,41.958139
b19337c38c7725a743afe6e1,旭日蓝天装饰,,,,蒲丰路42-59号10门,,123.432578,41.958299
fd8f0e2bca1828279ff7790d,大海装饰,,,,蒲河路55-63号3门,,123.439952,41.950155
70958208aa777d08c356ac90,圣美装饰,,,,辽宁省沈阳市沈北新区道义二街步阳江南甲第三期,,123.401939,41.924177
86317c5caff62f50c9c3dbdf,尚品装饰公司,,,,沈北路35-7号附近,,123.437706,41.931387
acefa7a846d8a2bdd4851f0e,艺儒装饰,,,,辽宁省沈阳市沈北新区道义俪景社区蒲茂路太湖国际花园,,123.404165,41.945512
e13ad5ef6bfff8d9d0ff236b,新之家装饰,辽宁省,沈阳市,沈北新区,沈阳市沈北新区道义北大街120号1门,,123.400355,41.953502
8d6408bd03475002f4eafc2d,隆兴远泰幕墙装饰工程有限公司,辽宁省,沈阳市,东陵区,兴农路29附近,,123.573883,41.908655
af7ddd6c83de137c8d77276d,东旭橱柜厂装修一条龙,,,,辽宁省沈阳市大东区远洲木制品厂(虎石台南大街南),,123.514943,41.921637
2e5b7ad44d9ac745ca09f004,元艺装饰,辽宁省,沈阳市,沈北新区,沈阳市沈北新区道义镇南大街28号江南甲第d座11层,,123.408952,41.922744
0d68da26c55a291db05c6a88,明冠装饰,,,,辽宁省沈阳市沈北新区正良一路23号附近,,123.412274,41.913978
97bd5d128212d4b04c6d464d,智威建材装饰,辽宁省,沈阳市,沈北新区,正良三路5-1号8门,13694196513,123.407466,41.920969
aa2b4b983a1c27e90a5cb32c,沈阳海清建筑装饰工程有限公司正良设计中心,辽宁省,沈阳市,沈北新区,沈阳市沈北新区道义镇南大街28号江南甲第d座6层,,123.408952,41.922744
9d7e552e7139e06da8f0cd21,乐途装饰材料商行,,,,蒲北路附近,13080836660,123.396893,41.94264
3794041eb6da29916f476084,朱师傅装饰材料,辽宁省,沈阳市,沈北新区,蒲北路与道义北大街交叉口西100米,,123.397318,41.942755
a1a027114d4f7bf74c3a5992,佳兴装饰材料商行,,,,蒲北路与道义北大街交叉口西100米,,123.397409,41.943083
a7668ad352fcfe31715e80f4,鑫腾飞汽车美容部,辽宁省,沈阳市,沈北新区,辽宁省沈阳市沈北新区G203(杭州路),,123.535708,42.060011
9ecd2108f2db6b9fdeee8b9f,张成装饰材料,辽宁省,沈阳市,沈北新区,杭州路40-1号4门,,123.525487,42.064297
53226941052dbb454107c140,金兴装饰材料,辽宁省,沈阳市,沈北新区,辽宁省沈阳市沈北新区飞马街33号-7门,,123.521485,42.061652
b5b2a7138f96c67cca1b9578,傲小傲装饰快修,,,,辽宁省沈阳市沈北新区杭州路35号-7门,,123.524668,42.064221
3a6eb63a2b002b55c7f02549,盛雅装饰,,,,辽宁省沈阳市沈北新区福州路45-6号-3门,,123.524697,42.049263
cbcf4c6eb53708e341ab9a51,聚峰源装饰,辽宁省,沈阳市,沈北新区,虎石台大街55-7-17门,(024)89874688,123.539041,41.961274
994c33c795583dddab0dd884,沈阳金生丽水装饰工程有限公司,,,,沈阳市浑南区,,123.57356,41.943509
74313e3f7ae56dc9eb12e4b6,永起装饰,,,,辽宁省沈阳市沈北新区虎石台南大街55-7-15门,,123.538871,41.961281
a850bd02d3fb94e1901fc928,易枫装饰,,,,辽宁省沈阳市沈北新区虎石台蒲升路古城新都,,123.539023,41.961374
1aba1d9424f5eeef28d7ab55,兴铭建筑装饰工程公司,,,,辽宁省沈阳市沈北新区建设北一路59号,,123.528025,41.952428
24e5370d736d069f2a02e10d,正杨管业品尚装饰,辽宁省,沈阳市,沈北新区,辽宁省沈阳市沈北新区虎石台四世通五金建材,,123.521517,41.952555
339dfa5d8dce51d91f38947f,昌平装饰,辽宁省,沈阳市,沈北新区,辽宁省沈阳市沈北新区虎石台沈煤宾馆(建设一路店),,123.522436,41.952541
adfbb630e07560a93686f4bc,裕祥装饰,辽宁省,沈阳市,沈北新区,兴明街15-15号6门,13889116685,123.525578,41.955729
88a6a5cc99de16aaad04576e,水木装饰,,,,道义北大街53-71号23门,,123.402467,41.942819
b28f744fd87ac8e2364aae59,万齐锦装饰工程有限公司,辽宁省,沈阳市,沈北新区,道义北大街53-38号8门网点,,123.404101,41.94494
4a2be8c1b323e66f1c3894d3,精馨装饰,辽宁省,沈阳市,沈北新区,道义北大街53-20号,(024)89791767,123.400104,41.945341
249f00bd67d8adfb9fe321a1,视觉装饰,,,,道义北大街太湖国际东门53-38号8,,123.40398,41.944816
8b362504084cca59db131855,宏达汽车美容,,,,辽宁省沈阳市沈北新区孝信街颐景蓝湾(碧桂园太阳城东),,123.439457,41.950678
2caf00a03160146fa1a93427,佳业装饰,辽宁省,沈阳市,沈北新区,道义南大街10-1号6门网点,(024)88924352,123.408621,41.918933
c945e8a5738b8b7bc51b75a6,鲲鹏装饰装修工程有限公司,辽宁省,沈阳市,沈北新区,沈阳市沈北新区道义镇南大街28号江南甲第d座10层,,123.408952,41.922744
0d22ac53cf27941b09a8d4ff,贝阁装饰工程有限公司,,,,三台子街道黄河北大街258号5号-11门市(东佳瑞士酒店对面),,123.418278,41.90785
00e70841ad81033f077ce8f1,沈阳日月格装饰工程有限公司,辽宁省,沈阳市,沈北新区,沈阳市沈北新区道义镇南大街28号江南甲第d座12层,,123.408952,41.922744
a8f7cffb61fbeac4db13186a,瑞峰装饰,辽宁省,沈阳市,沈北新区,新城子街道贵州路红光小区B1-2,,123.521956,42.056234
10fc4994e3e6cd1fc61b7526,亿佳鑫装饰,辽宁省,沈阳市,沈北新区,辽宁省沈阳市沈北新区飞马街10,,123.521365,42.064239
340d84ea6ee08b726140a947,饰美装饰材料商店,,,,辽宁省沈阳市沈北新区银河街86号,,123.529272,42.048575
5c8d518ca10f5d32f4b9167c,巨顺装饰,,,,辽宁省沈阳市沈北新区银河街115号,,123.529575,42.047702
f969d0d153d8600e5abbbc3b,宏达装饰,,,,辽宁省沈阳市沈北新区福州路53号-2,,123.529876,42.050383
8bfc6cbe3f8890360d3dda7d,辽宁中建远泰幕墙装饰工程有限公司,,,,辽宁省沈阳市沈北新区兴农路29,,123.574423,41.909315
1ac96b1f8e2315ab8e77272e,森雅装饰,辽宁省,沈阳市,沈北新区,辽宁省沈阳市沈北新区虎石台南大街55-7附近,,123.539552,41.961378
b5755cbc6b8873a45e17c3ae,玖林装饰,,,,辽宁省沈阳市沈北新区兴明街,,123.521495,41.940292
3465a8b13f77e05d1894c632,隆成装饰玻璃彩铝门,,,,辽宁省沈阳市沈北新区兴胜街5附近,,123.520822,41.956995
53c1e30c1818fce1d718b716,舜鑫源家装,辽宁省,沈阳市,沈北新区,建设北一路28号,13840522673,123.521832,41.952557
b9f95dbb6bcf611120f0178c,恒远装饰,,,,兴明街15-15号4门,,123.528109,41.955594
786a7f96ad54ae434c6d46cf,鑫想装饰,,,,蒲丰路42-59号23门,,123.431836,41.958143
77c81b07199069e22c4733b3,静雅装饰,,,,辽宁省沈阳市沈北新区道义二街步阳江南甲第三期,,123.400664,41.924216
dcf1c7a3cf94746deddfcac9,铁峰五金装饰建材商行,辽宁省,沈阳市,沈北新区,辽宁省沈阳市沈北新区G101(道义北大街),,123.400031,41.959244
ebaeaf179b97a53c077ce872,老赵装饰,,,,辽宁省沈阳市沈北新区蒲丰路,,123.432343,41.958213
580c68a518798148dbd89119,龙江装饰,,,,沈阳市沈阳市道义南大街51号17门,,123.400737,41.936952
220e9801bee4041b9fec2b47,鼎盛装饰,,,,沈北路21-3号5门,,123.403978,41.925897
a9c231aea3796c4c80a00cbc,园宿园艺景观装饰工程中心,辽宁省,沈阳市,沈北新区,蒲河路中铁人杰水岸内,,123.405925,41.948418
c91cc5dbd853eff445e27415,乐峰装饰,,,,道义北大街19号附近,,123.399196,41.944661
42e3c2262fe7cfa2223bf295,腾龙装饰,,,,辽宁省沈阳市沈北新区蒲昌路,,123.406591,41.922605
e9733315cf7daa0832870a86,茗筑装饰,辽宁省,沈阳市,沈北新区,道义南大街10-11号3门,,123.411214,41.919926
6c9d8b8444bb7c0ac03644fd,昱艺装饰,辽宁省,沈阳市,沈北新区,沈阳市沈北新区唐轩公馆南门1-1号,13238878565,123.414289,41.91856
f691b43a93499fc6b9df8ff6,爱之家装饰,,,,辽宁省沈阳市沈北新区京沈西一街,,123.408521,41.920515
a5e84326a3a7224c40afe6d2,尚林装饰,,,,沈阳市黄河北大街270-2号7门,,123.409958,41.91092
65bb87f813fc8201a9175a51,沈阳天宇鸿装饰工程有限公司,辽宁省,沈阳市,沈北新区,沈阳市沈北新区道义镇南大街28号江南甲第d座9层,,123.408952,41.922744
f7ffe5f7f58c453421f0172d,辽宁泰华铝业装饰工程有限公司,,,,京沈西二街与正良二路交叉口东100米,,123.405921,41.918378
8c3fa6b2b3081473246e9855,沈阳强仁装饰工程有限公司,,,,沈阳市沈北新区道义南大街江南甲第D座523,,123.408948,41.922904
cd4c022a36c4ed2dbca822af,舜峰装饰,辽宁省,沈阳市,沈北新区,沈阳市沈北新区道义镇南大街28号江南甲第d座4层,,123.408952,41.922744
5f69f9883aa55ecf25e0a0f0,沈阳市沈北新区冉东酷车汇汽车美容装饰店,辽宁省,沈阳市,沈北新区,飞马街6号附近,,123.521424,42.065102
2272334048613de6c809f0e9,大帅洗车装饰,辽宁省,沈阳市,沈北新区,雅园街2-1号4门网点,,123.597001,41.952691
83b8789529d4c4d2631809cf,众和装饰,辽宁省,沈阳市,东陵区,人和街108-17号1-12门,13130226418,123.597934,41.924479
c221cef05fa7fd13ca2915a9,连财装饰材料,,,,新新小区11号楼,,123.61282,42.009558
dfd5977e930f7004591093c5,欧佳装饰,,,,辽宁省沈阳市浑南区人和街108-18号-1-12门,,123.598311,41.924983
8e7fd8bb30f492c4130daa99,沈阳新鸿宇装饰有限公司,辽宁省,沈阳市,东陵区,棋盘山风景区内鸿宇山庄,,123.679706,41.933659
f760950a55010963b44f54d4,鹏鸿板材天昊装饰材料总汇,辽宁省,沈阳市,东陵区,辽宁省沈阳市浑南区人和街108-18号-1-12门,(024)62622939,123.598312,41.924934
3a849673b712a60252e5c57a,联塑家装管(人和街),辽宁省,沈阳市,东陵区,辽宁省沈阳市浑南区浑南区人和街151附近,,123.598494,41.925128
7115acfe2517152222026283,晟鑫源装饰,,,,辉山人和街10817-1-10门,,123.597751,41.92408
454e4113149f2f0193114c75,格瑞斯装饰,,,,辽宁省沈阳市浑南区浑南区人和街108-17号-1-9门,,123.597705,41.924019
0c6a66822126a16f047ce888,鑫缘工程处,,,,蒲河路与通顺街交叉口西北150米,,123.611181,41.959145
bfe1a19eefe8fe1af822139f,美惠装饰,辽宁省,沈阳市,东陵区,辽宁省沈阳市浑南区人和街108-15号-1-3门,"15142086385,13889218812,13898184345",123.59801,41.922672
2a0e6fc23bf52acbb11e36b9,铁装建筑装饰工程有限公司,辽宁省,沈阳市,东陵区,芳草路29-8,(024)88086633,123.609253,41.927121
07e9d0059d809e73b2077dcb,鸿雁装饰,,,,辽宁省沈阳市浑南区人和街108-18号-1-12门,,123.598638,41.92536
